Location,Street_code,Box_code,Area,Municipality,Province,Country,Lat,Lon
Deneysville,-------,1932,Deneysville,Northern Free State,Free State,South Africa,-26.892953,28.0976369
Phomolong,1932,1932,Deneysville,Northern Free State,Free State,South Africa,-28.0125302,27.0823502
Rafengotso,-------,1932,Deneysville,Northern Free State,Free State,South Africa,-26.883817,28.0961737
Refenkgotso,-------,1932,Deneysville,Northern Free State,Free State,South Africa,-26.883817,28.0961737
Clydesdale,1946,-------,Kragbron,Northern Free State,Free State,South Africa,-26.9064105,27.8859697
Highveld,1946,-------,Kragbron,Northern Free State,Free State,South Africa,-26.9064105,27.8859697
Holly Country,1946,-------,Sasolburg,Northern Free State,Free State,South Africa,-26.93218,27.91278
Holly Country,-------,1946,Kragbron,Northern Free State,Free State,South Africa,-26.9064105,27.8859697
Kragbron,1946,1946,Sasolburg,Northern Free State,Free State,South Africa,-26.9064105,27.8859697
Industrial Area,-------,1947,Sasolburg,Northern Free State,Free State,South Africa,-26.82389,27.8425
Industriele Gebied,-------,1947,Sasolburg,Northern Free State,Free State,South Africa,-26.8101899,27.8277254
Iraq Fase 1,1947,1947,Sasolburg,Northern Free State,Free State,South Africa,-26.8101899,27.8277254
Iraq Phase 1,1947,1947,Sasolburg,Northern Free State,Free State,South Africa,-26.8101899,27.8277254
Naledi,1947,-------,Sasolburg,Northern Free State,Free State,South Africa,-26.7893575,27.8483322
Protem,1947,-------,Sasolburg,Northern Free State,Free State,South Africa,-34.266667,20.083333
Sasolburg,-------,1947,Sasolburg,Northern Free State,Free State,South Africa,-26.8101899,27.8277254
Sasolburg Ext 1,1947,1947,Sasolburg,Northern Free State,Free State,South Africa,-26.8101899,27.8277254
Sasolburg Ext 5,1947,1947,Sasolburg,Northern Free State,Free State,South Africa,-26.8101899,27.8277254
Sasolburg Uit 1,1947,1947,Sasolburg,Northern Free State,Free State,South Africa,-26.8101899,27.8277254
Sasolburg Uit 5,1947,1947,Sasolburg,Northern Free State,Free State,South Africa,-26.8101899,27.8277254
Vaalpark,1947,1948,Sasolburg,Northern Free State,Free State,South Africa,-26.7759129,27.848726
Welgelegen,1947,-------,Sasolburg,Northern Free State,Free State,South Africa,-26.7925552,27.8340735
Zamdela Ext 3,1947,1947,Sasolburg,Northern Free State,Free State,South Africa,-26.8662267,27.8692376
Zamdela Uit 3,1947,1947,Sasolburg,Northern Free State,Free State,South Africa,-26.8662267,27.8692376
Vaalpark,1947,1948,Sasolburg,Northern Free State,Free State,South Africa,-26.7759129,27.848726
Chris Hani,1949,1949,Sasolburg,Northern Free State,Free State,South Africa,-29.18074129999999,26.2644204
Chris Hani Park,1949,1949,Sasolburg,Northern Free State,Free State,South Africa,-27.9871901,26.8174054
Holomisa,-------,1949,Sasolburg,Northern Free State,Free State,South Africa,-26.8101899,27.8277254
Midvaal,-------,1949,Zamdela,Northern Free State,Free State,South Africa,-26.8662267,27.8692376
Snake Park,1949,1949,Sasolburg,Northern Free State,Free State,South Africa,-26.8101899,27.8277254
Taylorpark,1949,-------,Zamdela,Northern Free State,Free State,South Africa,-26.8482668,27.8604883
Taylorpark Ext 3,1949,-------,Zamdela,Northern Free State,Free State,South Africa,-26.8662267,27.8692376
Taylorpark Uit 3,1949,-------,Zamdela,Northern Free State,Free State,South Africa,-26.8662267,27.8692376
Thembalethu,-------,1949,Sasolburg,Northern Free State,Free State,South Africa,-34.0045007,22.4917291
Zamdela,1949,1949,Sasolburg,Northern Free State,Free State,South Africa,-26.8662267,27.8692376
Metsimaholo,-------,1995,Oranjeville,Northern Free State,Free State,South Africa,-26.9779145,28.2102635
Oranjeville,-------,1995,Oranjeville,Northern Free State,Free State,South Africa,-26.983546,28.2029523
Van Reenen,-------,3372,Harrismith,Thabo Mofutsanyane,Free State,South Africa,-28.3753461,29.3838283
Jacobsdal,-------,8710,Jacobsdal,Xhariep,Free State,South Africa,-29.1332928,24.7973983
Ratanang,8710,8710,Jacobsdal,Xhariep,Free State,South Africa,-29.1174321,24.7602996
Saundershoogte,-------,8710,Jacobsdal,Xhariep,Free State,South Africa,-29.1332928,24.7973983
Belmont,-------,8720,Belmont,Thabo Mofutsanyane,Free State,South Africa,-30.483333,26.683333
Bloemfontein,9301,9300,Bloemfontein,Motheo,Free State,South Africa,-29.085214,26.1595761
East End,9300,9300,Bloemfontein,Motheo,Free State,South Africa,-29.130103,26.254002
Grootvlei,9323,9300,Kagisanong,Motheo,Free State,South Africa,-29.1861648,26.3028029
Oos Einde,-------,9300,Bloemfontein,Motheo,Free State,South Africa,-29.12922949999999,26.2526092
Oos-Einde,9300,9300,Bloemfontein,Motheo,Free State,South Africa,-29.12922949999999,26.2526092
Roodewal,9300,-------,Bloemfontein,Motheo,Free State,South Africa,-29.104779,26.360567
Tempe,9300,9300,Bloemfontein,Motheo,Free State,South Africa,-29.0919385,26.1920678
Aandrus,9301,-------,Bloemfontein,Motheo,Free State,South Africa,-29.1463,26.18579
Arboretum,9301,9305,Bloemfontein,Motheo,Free State,South Africa,-29.1036289,26.2201254
Bayswater,9301,-------,Bloemfontein,Motheo,Free State,South Africa,-29.0820539,26.2393209
Bloemfontein,9301,9300,Bloemfontein,Motheo,Free State,South Africa,-29.085214,26.1595761
Bloemside 2 Fase 4,9301,9301,Bloemfontein,Motheo,Free State,South Africa,-29.162467,26.2614676
Bloemside 2 Phase 4,9301,9301,Bloemfontein,Motheo,Free State,South Africa,-29.17023489999999,26.2686703
Bloemside 3,9301,9301,Bloemfontein,Motheo,Free State,South Africa,-29.1579076,26.2703258
Brandwag,9301,9324,Bloemfontein,Motheo,Free State,South Africa,-29.1031691,26.1964982
Buitesig,9301,-------,Bloemfontein,Motheo,Free State,South Africa,-29.1215091,26.2282468
Chris Hani,-------,9301,Bloemfontein,Motheo,Free State,South Africa,-29.18074129999999,26.2644204
Community,9301,-------,Bloemfontein,Motheo,Free State,South Africa,-29.135471,26.225825
Dan Pienaar,9301,-------,Bloemfontein,Motheo,Free State,South Africa,-29.0882337,26.2097888
Danhof,9301,9310,Bloemfontein,Motheo,Free State,South Africa,-29.0885939,26.2135359
Ehrlich Park,9301,9312,Bloemfontein,Motheo,Free State,South Africa,-29.1792121,26.2009284
Ehrlichpark,9301,9312,Bloemfontein,Motheo,Free State,South Africa,-29.1792121,26.2009284
Fairview,9301,-------,Bloemfontein,Motheo,Free State,South Africa,-29.1097276,26.2236736
Fauna,9301,-------,Bloemfontein,Motheo,Free State,South Africa,-29.1692257,26.190591
Faunasig,9301,9325,Bloemfontein,Motheo,Free State,South Africa,-29.1692257,26.190591
Ferreira,9301,9325,Bloemfontein,Motheo,Free State,South Africa,-29.1685559,26.1973046
Fichardt Park,9301,9317,Bloemfontein,Motheo,Free State,South Africa,-29.1430316,26.1802531
Fichardtpark,9301,9317,Bloemfontein,Motheo,Free State,South Africa,-29.1430316,26.1802531
Fleurdal,9301,-------,Bloemfontein,Motheo,Free State,South Africa,-29.1551052,26.1935446
Flora,-------,9301,Bloemfontein,Motheo,Free State,South Africa,-29.1871737,26.1670309
Freedom Square,9323,9301,Bloemfontein,Motheo,Free State,South Africa,-29.1767836,26.2511327
Gardenia Park,9301,-------,Bloemfontein,Motheo,Free State,South Africa,-29.1297191,26.1728687
Generaal De Wet,9301,-------,Bloemfontein,Motheo,Free State,South Africa,-29.1434895,26.2038819
Grasland,9301,-------,Bloemfontein,Motheo,Free State,South Africa,-29.1656155,26.304279
Grassland,9301,-------,Bloemfontein,Motheo,Free State,South Africa,-29.1656155,26.304279
Groenvlei,9301,-------,Bloemfontein,Motheo,Free State,South Africa,-29.0644486,26.1684379
Hamilton,9301,-------,Bloemfontein,Motheo,Free State,South Africa,-29.1655422,26.2275085
Heidedal,9301,9306,Bloemfontein,Motheo,Free State,South Africa,-29.1543873,26.2806599
Heliconhoogte,9301,-------,Bloemfontein,Motheo,Free State,South Africa,-29.085214,26.1595761
Helikonhoogte,9301,-------,Bloemfontein,Motheo,Free State,South Africa,-29.085214,26.1595761
Heuwelsig,9301,9332,Bloemfontein,Motheo,Free State,South Africa,-29.0809395,26.1994517
Heuwilsig,9301,9332,Bloemfontein,Motheo,Free State,South Africa,-29.0809395,26.1994517
Hillsboro,9301,-------,Bloemfontein,Motheo,Free State,South Africa,-29.0772155,26.2075737
Hillside,9301,-------,Bloemfontein,Motheo,Free State,South Africa,-29.098271,26.2260477
Hilton,9301,-------,Bloemfontein,Motheo,Free State,South Africa,-29.1127861,26.23121
Hospitaalpark,9301,-------,Bloemfontein,Motheo,Free State,South Africa,-29.1382831,26.1964982
Industrial Area,9301,-------,Bloemfontein,Motheo,Free State,South Africa,-29.15889,26.22722
Industriele Gebied,9301,-------,Bloemfontein,Motheo,Free State,South Africa,-29.085214,26.1595761
Kagisanong Fase 3,9301,-------,Bloemfontein,Motheo,Free State,South Africa,-29.183333,26.2333329
Kagisanong Phase 3,9301,-------,Bloemfontein,Motheo,Free State,South Africa,-29.183333,26.2333329
Kiepersol,9301,-------,Bloemfontein,Motheo,Free State,South Africa,-29.0821162,26.2503376
Kwaggafontein,9301,-------,Bloemfontein,Motheo,Free State,South Africa,-29.12916349999999,26.1498776
Lakeview,9301,-------,Bloemfontein,Motheo,Free State,South Africa,-29.1627219,26.3308478
Langenhovenpark,9301,9330,Bloemfontein,Motheo,Free State,South Africa,-29.0993411,26.1566221
Lourier Park,9301,9301,Bloemfontein,Motheo,Free State,South Africa,-29.1887138,26.1684379
Mafora,9323,9301,Bloemfontein,Motheo,Free State,South Africa,-29.18155,26.2252209
Naval View,9301,-------,Bloemfontein,Motheo,Free State,South Africa,-29.0966898,26.2431072
Navalsig,9301,-------,Bloemfontein,Motheo,Free State,South Africa,-29.107847,26.2326039
New East End,9301,-------,Bloemfontein,Motheo,Free State,South Africa,-29.12907,26.25767
Noordhoek,9301,-------,Bloemfontein,Motheo,Free State,South Africa,-29.1020011,26.2407974
Opkoms,9301,-------,Bloemfontein,Motheo,Free State,South Africa,-29.15264,26.2528599
Oranjesig,9301,-------,Bloemfontein,Motheo,Free State,South Africa,-29.1302139,26.2156955
Park West,9301,9305,Bloemfontein,Motheo,Free State,South Africa,-29.1093823,26.1861605
Park-Wes,9301,9305,Bloemfontein,Motheo,Free State,South Africa,-29.1093823,26.1861605
Pellissier,9301,9322,Bloemfontein,Motheo,Free State,South Africa,-29.15630579999999,26.1684379
Pentagonpark,9301,-------,Bloemfontein,Motheo,Free State,South Africa,-29.0772527,26.2267702
Spitskop,9301,-------,Bloemfontein,Motheo,Free State,South Africa,-29.0868246,26.1388973
Uitsig,9301,-------,Bloemfontein,Motheo,Free State,South Africa,-29.160929,26.1979749
Universitas,9301,9321,Bloemfontein,Motheo,Free State,South Africa,-29.1172543,26.1743456
Universitas Ridge,9301,9321,Bloemfontein,Motheo,Free State,South Africa,-29.0960112,26.1710734
Universitas Wes,9301,-------,Bloemfontein,Motheo,Free State,South Africa,-29.12262,26.16764
Universitas West,9301,-------,Bloemfontein,Motheo,Free State,South Africa,-29.1083593,26.1803685
Universitas-wes,9301,-------,Bloemfontein,Motheo,Free State,South Africa,-29.12262,26.16764
Universitasrif,9301,9321,Bloemfontein,Motheo,Free State,South Africa,-29.0987747,26.1683798
Universiteit Van Bloemfontein,9301,-------,Bloemfontein,Motheo,Free State,South Africa,-29.1083593,26.1803685
University of Bloemfontein,9301,-------,Bloemfontein,Motheo,Free State,South Africa,-29.1083593,26.1803685
Vista Park Ext 2,9301,9312,Bloemfontein,Motheo,Free State,South Africa,-29.15227519999999,26.2056492
Vistapark Uit 2,9301,9312,Bloemfontein,Motheo,Free State,South Africa,-29.15227519999999,26.2056492
Waverley,9301,-------,Bloemfontein,Motheo,Free State,South Africa,-29.0965672,26.221602
Westdene,9301,-------,Bloemfontein,Motheo,Free State,South Africa,-29.1061008,26.2083121
Wilgehof,9301,-------,Bloemfontein,Motheo,Free State,South Africa,-29.1297568,26.1920678
Willows,9301,9320,Bloemfontein,Motheo,Free State,South Africa,-29.12188339999999,26.2038819
Woodlands,9301,9301,Bloemfontein,Motheo,Free State,South Africa,-29.0475855,26.1816258
Noordstad,9302,9302,Bloemfontein,Motheo,Free State,South Africa,-29.0712944,26.2330849
Kenworth,-------,9303,Bloemfontein,Motheo,Free State,South Africa,-29.1689322,26.2366514
Arboretum,9301,9305,Bloemfontein,Motheo,Free State,South Africa,-29.1036289,26.2201254
Park West,9301,9305,Bloemfontein,Motheo,Free State,South Africa,-29.1093823,26.1861605
Park-Wes,9301,9305,Bloemfontein,Motheo,Free State,South Africa,-29.1093823,26.1861605
Bloemside,9306,9306,Bloemfontein,Motheo,Free State,South Africa,-29.1589687,26.2657713
Heidedal,9301,9306,Bloemfontein,Motheo,Free State,South Africa,-29.1543873,26.2806599
Batho,9323,9307,Bloemfontein,Motheo,Free State,South Africa,-29.1385414,26.2275085
Cape Stands,9307,-------,Mangaung,Motheo,Free State,South Africa,-29.085214,26.1595761
Mangaung,9323,9307,Bloemfontein,Motheo,Free State,South Africa,-29.085214,26.1595761
Kagisanong,9323,9309,Bloemfontein,Motheo,Free State,South Africa,-29.183333,26.2333329
Kagiso,9323,9309,Bloemfontein,Motheo,Free State,South Africa,-29.113675,26.219306
Phahameng Ext 8,9323,9309,Kagisanong,Xhariep,Free State,South Africa,-29.1560061,26.2407974
Phahameng Uit 8,9323,9309,Kagisanong,Xhariep,Free State,South Africa,-29.1560061,26.2407974
Rocklands,9323,9309,Kagisanong,Motheo,Free State,South Africa,-29.183333,26.2333329
Danhof,9301,9310,Bloemfontein,Motheo,Free State,South Africa,-29.0885939,26.2135359
Drusana,-------,9311,Bloemfontein,Motheo,Free State,South Africa,-29.085214,26.1595761
Ehrlich Park,9301,9312,Bloemfontein,Motheo,Free State,South Africa,-29.1792121,26.2009284
Ehrlichpark,9301,9312,Bloemfontein,Motheo,Free State,South Africa,-29.1792121,26.2009284
Vista Park,9312,9312,Bloemfontein,Motheo,Free State,South Africa,-29.15227519999999,26.2056492
Vista Park Ext 2,9301,9312,Bloemfontein,Motheo,Free State,South Africa,-29.15227519999999,26.2056492
Vistapark,9312,9312,Bloemfontein,Motheo,Free State,South Africa,-29.15227519999999,26.2056492
Vistapark Uit 2,9301,9312,Bloemfontein,Motheo,Free State,South Africa,-29.15227519999999,26.2056492
Exton Road,-------,9313,Bloemfontein,Motheo,Free State,South Africa,-29.102699,26.2415399
Extonweg,-------,9313,Bloemfontein,Motheo,Free State,South Africa,-29.0965742,26.2468351
Ga-Sehunelo,9323,9315,Bloemfontein,Motheo,Free State,South Africa,-29.1510609,26.2424215
Gasehunelo,9323,9315,Bloemfontein,Motheo,Free State,South Africa,-29.1510609,26.2424215
Fichardt Park,9301,9317,Bloemfontein,Motheo,Free State,South Africa,-29.1430316,26.1802531
Fichardtpark,9301,9317,Bloemfontein,Motheo,Free State,South Africa,-29.1430316,26.1802531
Willows,9301,9320,Bloemfontein,Motheo,Free State,South Africa,-29.12188339999999,26.2038819
Universitas,9301,9321,Bloemfontein,Motheo,Free State,South Africa,-29.1172543,26.1743456
Universitas Ridge,9301,9321,Bloemfontein,Motheo,Free State,South Africa,-29.0960112,26.1710734
Universitasrif,9301,9321,Bloemfontein,Motheo,Free State,South Africa,-29.0987747,26.1683798
Pellissier,9301,9322,Bloemfontein,Motheo,Free State,South Africa,-29.15630579999999,26.1684379
Albert Luthuli,-------,9323,Bloemfontein,Motheo,Free State,South Africa,-29.17527,26.23854
Batho,9323,9307,Bloemfontein,Motheo,Free State,South Africa,-29.1385414,26.2275085
Bloemanda,9323,-------,Kagisanong,Motheo,Free State,South Africa,-29.183333,26.2333329
Bloemanda Fase 1,9323,-------,Kagisanong,Motheo,Free State,South Africa,-29.183333,26.2333329
Bloemanda Fase 2,9323,-------,Kagisanong,Motheo,Free State,South Africa,-29.183333,26.2333329
Bloemanda Fase 3,9323,-------,Kagisanong,Motheo,Free State,South Africa,-29.183333,26.2333329
Bloemanda Phase 1,9323,-------,Kagisanong,Motheo,Free State,South Africa,-29.183333,26.2333329
Bloemanda Phase 2,9323,-------,Kagisanong,Motheo,Free State,South Africa,-29.183333,26.2333329
Bloemanda Phase 3,9323,-------,Kagisanong,Motheo,Free State,South Africa,-29.183333,26.2333329
Bloemside 2,9323,-------,Bloemfontein,Motheo,Free State,South Africa,-29.162467,26.2614676
Blomanda,9323,-------,Kagisanong,Motheo,Free State,South Africa,-29.183333,26.2333329
Blomanda Fase 1,9323,-------,Kagisanong,Motheo,Free State,South Africa,-29.183333,26.2333329
Blomanda Fase 2,9323,-------,Kagisanong,Motheo,Free State,South Africa,-29.183333,26.2333329
Blomanda Fase 3,9323,-------,Kagisanong,Motheo,Free State,South Africa,-29.183333,26.2333329
Blomanda Phase 1,9323,-------,Kagisanong,Motheo,Free State,South Africa,-29.183333,26.2333329
Blomanda Phase 2,9323,-------,Kagisanong,Motheo,Free State,South Africa,-29.183333,26.2333329
Blomanda Phase 3,9323,-------,Kagisanong,Motheo,Free State,South Africa,-29.183333,26.2333329
Bochabela,9323,-------,Kagisanong,Motheo,Free State,South Africa,-29.1468661,26.2393209
Bochabella,9323,-------,Kagisanong,Motheo,Free State,South Africa,-29.1468661,26.2393209
Estoire,9323,-------,Kagisanong,Motheo,Free State,South Africa,-29.0887512,26.2718021
Freedom Square,9323,9301,Bloemfontein,Motheo,Free State,South Africa,-29.1767836,26.2511327
Ga Sehunelo,9323,-------,Bloemfontein,Motheo,Free State,South Africa,-29.1510609,26.2424215
Ga-Sehunelo,9323,9315,Bloemfontein,Motheo,Free State,South Africa,-29.1510609,26.2424215
Gasehunelo,9323,9315,Bloemfontein,Motheo,Free State,South Africa,-29.1510609,26.2424215
Grootvlei,9323,9300,Kagisanong,Motheo,Free State,South Africa,-29.1861648,26.3028029
Ipopeng,9323,9323,Kagisanong,Xhariep,Free State,South Africa,-29.7392263,25.3148724
Ipopeng Location,9323,-------,Kagisanong,Motheo,Free State,South Africa,-29.2006734,26.2505424
Joe Slovo,-------,9323,Kagisanong,Motheo,Free State,South Africa,-29.1601666,26.2467034
Kagisanong,9323,9309,Bloemfontein,Motheo,Free State,South Africa,-29.183333,26.2333329
Kagiso,9323,9309,Bloemfontein,Motheo,Free State,South Africa,-29.113675,26.219306
Mafora,9323,9301,Bloemfontein,Motheo,Free State,South Africa,-29.18155,26.2252209
Mangaung,9323,9307,Bloemfontein,Motheo,Free State,South Africa,-29.085214,26.1595761
Meriting,9323,9323,Kagisanong,Motheo,Free State,South Africa,-25.5868739,27.2529145
Namibia North,-------,9323,Kagisanong,Motheo,Free State,South Africa,-29.183333,26.2333329
Namibia Square,-------,9323,Kagisanong,Motheo,Free State,South Africa,-29.1713939,26.2514941
Namibia-noord,-------,9323,Kagisanong,Xhariep,Free State,South Africa,-29.183333,26.2333329
Namibiaplein,-------,9323,Kagisanong,Motheo,Free State,South Africa,-29.183333,26.2333329
Peter Swart,9323,9323,Bloemfontein,Motheo,Free State,South Africa,-29.085214,26.1595761
Phahameng,9323,9323,Kagisanong,Motheo,Free State,South Africa,-29.1560061,26.2407974
Phahameng Ext 8,9323,9309,Kagisanong,Xhariep,Free State,South Africa,-29.1560061,26.2407974
Phahameng Uit 8,9323,9309,Kagisanong,Xhariep,Free State,South Africa,-29.1560061,26.2407974
Phelindaba,9323,-------,Kagisanong,Motheo,Free State,South Africa,-29.183333,26.2333329
Rocklands,9323,9309,Kagisanong,Motheo,Free State,South Africa,-29.183333,26.2333329
Silver City,-------,9323,Kagisanong,Motheo,Free State,South Africa,32.770075,-108.280326
Turflaagte,-------,9323,Kagisanong,Motheo,Free State,South Africa,-29.1863403,26.2570385
Turflaagte Zone 4,9323,-------,Kagisanong,Xhariep,Free State,South Africa,-29.1863403,26.2570385
Unique Homes,9323,-------,Kagisanong,Motheo,Free State,South Africa,-29.183333,26.2333329
Vukazenzele,9323,-------,Bloemfontein,Motheo,Free State,South Africa,-29.085214,26.1595761
Vukuzenzele,9323,-------,Bloemfontein,Motheo,Free State,South Africa,-29.085214,26.1595761
Brandhof,9324,9324,Bloemfontein,Motheo,Free State,South Africa,-29.1077397,26.1982673
Brandwag,9301,9324,Bloemfontein,Motheo,Free State,South Africa,-29.1031691,26.1964982
Faunasig,9301,9325,Bloemfontein,Motheo,Free State,South Africa,-29.1692257,26.190591
Ferreira,9301,9325,Bloemfontein,Motheo,Free State,South Africa,-29.1685559,26.1973046
Renosterspruit,-------,9326,Bloemfontein,Motheo,Free State,South Africa,-29.1352195,26.3257172
Kloofeind,-------,9327,Bloemfontein,Motheo,Free State,South Africa,-29.163655,26.0609178
Rodenbeck,-------,9328,Kagisanong,Motheo,Free State,South Africa,-29.183333,26.2333329
Bloemfontein Speed Services,-------,9329,Bloemfontein,Motheo,Free State,South Africa,-29.117606,26.221048
Langenhovenpark,9301,9330,Bloemfontein,Motheo,Free State,South Africa,-29.0993411,26.1566221
Falckvlei,-------,9331,Falckvlei,Motheo,Free State,South Africa,-29.13047,26.21892
Heuwelsig,9301,9332,Bloemfontein,Motheo,Free State,South Africa,-29.0809395,26.1994517
Heuwilsig,9301,9332,Bloemfontein,Motheo,Free State,South Africa,-29.0809395,26.1994517
Makaota,-------,9333,Makaota,Motheo,Free State,South Africa,-29.1804313,26.2514934
Crossroads,-------,9334,Bloemfontein,Motheo,Free State,South Africa,-29.128521,26.2199569
Heidedal Central,-------,9334,Bloemfontein,Lejweleputswa,Free State,South Africa,-29.1181745,26.221602
Heidedal Sentraal,-------,9334,Bloemfontein,Lejweleputswa,Free State,South Africa,-29.1181745,26.221602
Bain's Vlei,-------,9338,Bloemfontein,Lejweleputswa,Free State,South Africa,-29.05,26.116667
Dealesville,9348,9348,Dealesville,Lejweleputswa,Free State,South Africa,-28.6738161,25.7634366
Tshwaraganang,-------,9348,Dealesville,Lejweleputswa,Free State,South Africa,-28.65677969999999,25.7737911
Tswaraganang,-------,9348,Dealesville,Lejweleputswa,Free State,South Africa,-28.65677969999999,25.7737911
Soutpan,-------,9356,Bloemfontein,Lejweleputswa,Free State,South Africa,-28.7501143,26.0532101
Ikgomotseng,9358,9358,Bloemfontein,Motheo,Free State,South Africa,-29.1083593,26.1803685
Glen,-------,9360,Bloemfontein,Motheo,Free State,South Africa,-29.112802,26.2312489
Bloemspruit,9364,9364,Bloemfontein,Motheo,Free State,South Africa,-29.1315521,26.2865649
Middelpunt,-------,9364,Bloemfontein,Lejweleputswa,Free State,South Africa,-29.085214,26.1595761
Middlepunt,-------,9364,Bloemfontein,Lejweleputswa,Free State,South Africa,-29.1499315,26.3305203
Shannon,-------,9364,Bloemfontein,Motheo,Free State,South Africa,-29.1612747,26.3825008
Wiegandia,-------,9380,Wiegandia,Motheo,Free State,South Africa,-29.1725611,26.2633357
Steunmekaar,9392,-------,Steunmekaar,Motheo,Free State,South Africa,-28.4541105,26.7967849
Brandfort,9400,9400,Brandfort,Lejweleputswa,Free State,South Africa,-28.7011967,26.4577466
Ithoballe,-------,9400,Brandfort,Lejweleputswa,Free State,South Africa,-28.6882962,26.4547962
New Location,9400,9400,Brandfort,Lejweleputswa,Free State,South Africa,-28.6882962,26.4547962
Nuwe Lokasie,9400,9400,Brandfort,Lejweleputswa,Free State,South Africa,-28.6882962,26.4547962
Verkeerdevlei,9401,9401,Verkeerdevlei,Lejweleputswa,Free State,South Africa,-28.8328736,26.7673237
Lusaka,9410,-------,Theunissen,Lejweleputswa,Free State,South Africa,-28.408853,26.7096604
Masilo,9410,9414,Theunissen,Lejweleputswa,Free State,South Africa,-28.4178684,26.6995478
Theunissen,9410,9410,Theunissen,Lejweleputswa,Free State,South Africa,-28.4019346,26.7100581
Masilo,9410,9414,Theunissen,Lejweleputswa,Free State,South Africa,-28.4178684,26.6995478
Makeleketla,9420,9421,Winburg,Lejweleputswa,Free State,South Africa,-28.5323842,26.9999584
Winburg,9420,9420,Winburg,Lejweleputswa,Free State,South Africa,-28.5170087,27.0087877
Makeleketla,9420,9421,Winburg,Lejweleputswa,Free State,South Africa,-28.5323842,26.9999584
Phahameng Zone 14,9423,-------,Virginia,Lejweleputswa,Free State,South Africa,-28.1391531,26.8800277
Conera,9430,9431,Virginia,Lejweleputswa,Free State,South Africa,-28.1063858,26.8556955
Eureka,9430,-------,Virginia,Thabo Mofutsanyane,Free State,South Africa,-29.666667,26.966667
Eureka Park,9431,9430,Virginia,Lejweleputswa,Free State,South Africa,-29.2713047,26.7060994
Eurekapark,9431,9430,Virginia,Lejweleputswa,Free State,South Africa,-29.0534064,26.211639
Fauna Park,9430,-------,Virginia,Lejweleputswa,Free State,South Africa,-28.9840797,26.3830233
Glen Harmony,9430,9435,Virginia,Lejweleputswa,Free State,South Africa,-28.07472,26.88861
Industria,-------,9430,Virginia,Northern Free State,Free State,South Africa,-28.1126321,26.8711543
Mandela Park,-------,9430,Virginia,Lejweleputswa,Free State,South Africa,-34.049481,18.6858533
Mandelapark,-------,9430,Virginia,Lejweleputswa,Free State,South Africa,-28.1063858,26.8556955
Meloding,9430,9440,Virginia,Lejweleputswa,Free State,South Africa,-28.144312,26.8939788
Meloding Ext 1,9430,9430,Virginia,Lejweleputswa,Free State,South Africa,-28.144312,26.8939788
Meloding Loc,9430,-------,Virginia,Lejweleputswa,Free State,South Africa,-28.144312,26.8939788
Meloding Uit 1,9430,9430,Virginia,Lejweleputswa,Free State,South Africa,-28.129512,26.896963
Merriespruit,9430,9433,Virginia,Lejweleputswa,Free State,South Africa,-28.1176019,26.8409694
Panorama,9430,-------,Virginia,Thabo Mofutsanyane,Free State,South Africa,-28.1063858,26.8556955
Phahameng,9430,9430,Virginia,Motheo,Free State,South Africa,-28.1391531,26.8800277
Saaiplaas,9430,-------,Virginia,Lejweleputswa,Free State,South Africa,-28.0639341,26.8645307
Stilte Park,9430,9430,Virginia,Lejweleputswa,Free State,South Africa,-28.1303195,26.897471
White City,9430,-------,Virginia,Lejweleputswa,Free State,South Africa,-29.1345049,26.2371061
Conera,9430,9431,Virginia,Lejweleputswa,Free State,South Africa,-28.1063858,26.8556955
Eureka Park,9431,9430,Virginia,Lejweleputswa,Free State,South Africa,-29.2713047,26.7060994
Eurekapark,9431,9430,Virginia,Lejweleputswa,Free State,South Africa,-29.0534064,26.211639
Kitty,9431,-------,Virginia,Lejweleputswa,Free State,South Africa,-28.1265353,26.8306605
Virginia,9431,-------,Virginia,Lejweleputswa,Free State,South Africa,-28.1063858,26.8556955
Saaiplaas Mine,-------,9432,Virginia,Lejweleputswa,Free State,South Africa,-28.0639341,26.8645307
Saaiplaasmyn,-------,9432,Virginia,Lejweleputswa,Free State,South Africa,-28.0639341,26.8645307
Merriespruit,9430,9433,Virginia,Lejweleputswa,Free State,South Africa,-28.1176019,26.8409694
Glen Harmony,9430,9435,Virginia,Lejweleputswa,Free State,South Africa,-28.07472,26.88861
Glen Harmony Central,-------,9436,Virginia,Lejweleputswa,Free State,South Africa,-28.07472,26.88861
Wenakker,-------,9437,Virginia,Lejweleputswa,Free State,South Africa,-28.1063858,26.8556955
Weltrix,-------,9438,Welkom,Lejweleputswa,Free State,South Africa,-28.2627066,26.7903234
Meloding,9430,9440,Virginia,Lejweleputswa,Free State,South Africa,-28.144312,26.8939788
Hennenman,9445,9445,Hennenman,Lejweleputswa,Free State,South Africa,-27.977552,27.0176165
Phomolong,-------,9447,Phomolong,Northern Free State,Free State,South Africa,-28.0125302,27.0823502
Mamahabane,9450,-------,Ventersburg,Lejweleputswa,Free State,South Africa,-28.086298,27.1485343
Phahameng,9450,9450,Ventersburg,Motheo,Free State,South Africa,-29.1560061,26.2407974
Ventersburg,9450,9450,Ventersburg,Lejweleputswa,Free State,South Africa,-28.0964966,27.1323579
Willem Pretorius Wildtuin,-------,9450,Ventersburg,Thabo Mofutsanyane,Free State,South Africa,-28.307254,27.2323367
Bedelia,9459,-------,Welkom,Lejweleputswa,Free State,South Africa,-27.982266,26.7113364
Bronville,9459,9473,Welkom,Lejweleputswa,Free State,South Africa,-27.9980228,26.8174054
Bronville Ext 15,9459,9473,Welkom,Lejweleputswa,Free State,South Africa,-27.9538842,26.827715
Bronville Uit 15,9459,9473,Welkom,Lejweleputswa,Free State,South Africa,-27.9980228,26.8174054
Dagbreek,9459,-------,Welkom,Lejweleputswa,Free State,South Africa,-27.9640495,26.7466984
Dawidsburg,9459,-------,Welkom,Lejweleputswa,Free State,South Africa,-27.9820653,26.7325102
Doorn,9459,-------,Welkom,Lejweleputswa,Free State,South Africa,-27.9844952,26.7525915
Doornfontein,9459,-------,Welkom,Lejweleputswa,Free State,South Africa,-26.194851,28.0552003
Eerstemyn,9459,9466,Welkom,Lejweleputswa,Free State,South Africa,-27.9911632,26.713309
Flamingo Park,9459,-------,Welkom,Lejweleputswa,Free State,South Africa,-27.9514782,26.7290181
Jan Cillierspark,9459,-------,Welkom,Lejweleputswa,Free State,South Africa,-27.9940379,26.7393318
Janhofmeyer,9459,-------,Welkom,Lejweleputswa,Free State,South Africa,-27.9802591,26.7537881
Jim Fouchepark,9459,-------,Welkom,Lejweleputswa,Free State,South Africa,-27.9731584,26.7290181
Jim Fouchepark Ext 11,9459,-------,Welkom,Lejweleputswa,Free State,South Africa,-27.9731584,26.7290181
Jim Fouchepark Uit 11,9459,-------,Welkom,Lejweleputswa,Free State,South Africa,-27.9731584,26.7290181
Lakeview,9459,-------,Welkom,Motheo,Free State,South Africa,-27.9862952,26.7017583
Moreskof,9459,9462,Welkom,Lejweleputswa,Free State,South Africa,-28.004565499999998,26.7732162
Naudeville,9459,-------,Welkom,Lejweleputswa,Free State,South Africa,-27.9998232,26.7245978
Pansig,9459,9465,Welkom,Lejweleputswa,Free State,South Africa,-27.99209,26.76008
Phomolong Village,9459,-------,Welkom,Lejweleputswa,Free State,South Africa,-28.0125302,27.0823502
Reitzpark,9459,9488,Welkom,Lejweleputswa,Free State,South Africa,-27.9699645,26.77027
Reitzpark Ext 18,9459,-------,Welkom,Lejweleputswa,Free State,South Africa,-27.9913617,26.7776701
Reitzpark Uit 18,9459,-------,Welkom,Lejweleputswa,Free State,South Africa,-27.9699645,26.77027
Rheederpark,9459,-------,Welkom,Lejweleputswa,Free State,South Africa,-27.9443218,26.7113364
Riebeeckstad,9459,9469,Welkom,Lejweleputswa,Free State,South Africa,-27.9255066,26.8144598
Riebeeckstad Ext 1,9459,-------,Welkom,Lejweleputswa,Free State,South Africa,-27.9255066,26.8144598
Riebeeckstad Uit 1,9459,-------,Welkom,Lejweleputswa,Free State,South Africa,-27.9255066,26.8144598
Sandania,9459,-------,Welkom,Lejweleputswa,Free State,South Africa,-27.9908529,26.7529599
Seemeeupark,9459,-------,Welkom,Lejweleputswa,Free State,South Africa,-27.96521,26.7216509
Seemeeupark Ext 6,9459,-------,Welkom,Lejweleputswa,Free State,South Africa,-27.96521,26.7216509
Seemeeupark Uit 6,9459,-------,Welkom,Lejweleputswa,Free State,South Africa,-27.96521,26.7216509
St Helena,9459,-------,Welkom,Lejweleputswa,Free State,South Africa,-27.9918765,26.7172305
Tweedemyn,9459,9467,Welkom,Lejweleputswa,Free State,South Africa,-28.004565499999998,26.7732162
Vergenoeg,9459,-------,Welkom,Lejweleputswa,Free State,South Africa,-28.004565499999998,26.7732162
Waterskag,9459,-------,Welkom,Lejweleputswa,Free State,South Africa,-28.004565499999998,26.7732162
Welkom,9459,9460,Welkom,Lejweleputswa,Free State,South Africa,-28.004565499999998,26.7732162
Welkom Ext 10,9459,-------,Welkom,Lejweleputswa,Free State,South Africa,-28.004565499999998,26.7732162
Welkom Ext 16,9459,-------,Welkom,Lejweleputswa,Free State,South Africa,-27.9867415,26.7801423
Welkom Ext 18,9459,-------,Welkom,Lejweleputswa,Free State,South Africa,-27.9913617,26.7776701
Welkom Ext 19,9459,-------,Welkom,Lejweleputswa,Free State,South Africa,-27.9867415,26.7801423
Welkom Ext 26,9459,-------,Welkom,Lejweleputswa,Free State,South Africa,-28.004565499999998,26.7732162
Welkom Ext 6,9459,-------,Welkom,Lejweleputswa,Free State,South Africa,-27.956108,26.8041496
Welkom Ext 9,9459,-------,Welkom,Lejweleputswa,Free State,South Africa,-27.9716087,26.8336059
Welkom Uit 10,9459,-------,Welkom,Lejweleputswa,Free State,South Africa,-28.004565499999998,26.7732162
Welkom Uit 16,9459,-------,Welkom,Lejweleputswa,Free State,South Africa,-28.004565499999998,26.7732162
Welkom Uit 18,9459,-------,Welkom,Lejweleputswa,Free State,South Africa,-28.004565499999998,26.7732162
Welkom Uit 19,9459,-------,Welkom,Lejweleputswa,Free State,South Africa,-28.004565499999998,26.7732162
Welkom Uit 26,9459,-------,Welkom,Lejweleputswa,Free State,South Africa,-28.004565499999998,26.7732162
Welkom Uit 6,9459,-------,Welkom,Lejweleputswa,Free State,South Africa,-28.004565499999998,26.7732162
Welkom Uit 9,9459,-------,Welkom,Lejweleputswa,Free State,South Africa,-28.004565499999998,26.7732162
Industria,-------,9460,Welkom,Northern Free State,Free State,South Africa,NA,NA
Industrial Area,-------,9460,Welkom,Lejweleputswa,Free State,South Africa,-27.98694,26.7658299
Voorspoed,-------,9460,Welkom,Lejweleputswa,Free State,South Africa,-27.9895443,26.7673237
Welkom,9459,9460,Welkom,Lejweleputswa,Free State,South Africa,-28.004565499999998,26.7732162
Moreskof,9459,9462,Welkom,Lejweleputswa,Free State,South Africa,-28.004565499999998,26.7732162
Hani Park,-------,9463,Motsethabong,Lejweleputswa,Free State,South Africa,-27.9871901,26.8174054
Jerusalem Park,9463,-------,Motsethabong,Lejweleputswa,Free State,South Africa,-27.9548752,26.8100412
Las Vegas,9463,-------,Motsethabong,Lejweleputswa,Free State,South Africa,36.1699412,-115.1398296
Makaba,-------,9463,Motsethabong,Lejweleputswa,Free State,South Africa,-28.4541105,26.7967849
Mophosa,-------,9463,Motsethabong,Lejweleputswa,Free State,South Africa,-28.4541105,26.7967849
Motsethabong,9463,9463,Welkom,Lejweleputswa,Free State,South Africa,-28.004565499999998,26.7732162
Motsethabong Sone 1,9463,-------,Motsethabong,Lejweleputswa,Free State,South Africa,-28.4541105,26.7967849
Motsethabong Sone 2,9463,-------,Motsethabong,Lejweleputswa,Free State,South Africa,-28.4541105,26.7967849
Motsethabong Zone 1,9463,-------,Motsethabong,Lejweleputswa,Free State,South Africa,-28.4541105,26.7967849
Motsethabong Zone 2,9463,-------,Motsethabong,Lejweleputswa,Free State,South Africa,-28.4541105,26.7967849
Mshenguville,9463,-------,Motsethabong,Lejweleputswa,Free State,South Africa,-28.4541105,26.7967849
Oppenheimer Park,9463,-------,Motsethabong,Lejweleputswa,Free State,South Africa,-27.9679894,26.8056225
Opperheimer Park,9463,-------,Motsethabong,Lejweleputswa,Free State,South Africa,-27.9679894,26.8056225
Orange Grove,9463,-------,Motsethabong,Lejweleputswa,Free State,South Africa,-26.160975,28.0873945
Putwassteen,9463,-------,Motsethabong,Lejweleputswa,Free State,South Africa,-28.4541105,26.7967849
Sunriseview,9463,-------,Motsethabong,Lejweleputswa,Free State,South Africa,-28.4541105,26.7967849
Thabong,9463,9478,Motsethabong,Lejweleputswa,Free State,South Africa,-27.9729194,26.7820548
Steynpan,-------,9464,Steynpan,Lejweleputswa,Free State,South Africa,-28.4541105,26.7967849
Pansig,9459,9465,Welkom,Lejweleputswa,Free State,South Africa,-27.99209,26.76008
Eerstemyn,9459,9466,Welkom,Lejweleputswa,Free State,South Africa,-27.9911632,26.713309
Tweedemyn,9459,9467,Welkom,Lejweleputswa,Free State,South Africa,-28.004565499999998,26.7732162
Geduldpan,-------,9468,Welkom,Lejweleputswa,Free State,South Africa,-28.004565499999998,26.7732162
Western Holdings,-------,9468,Geduldpan,Lejweleputswa,Free State,South Africa,-27.9460331,26.7101897
Riebeeckstad,9459,9469,Welkom,Lejweleputswa,Free State,South Africa,-27.9255066,26.8144598
Paballong,-------,9470,Welkom,Lejweleputswa,Free State,South Africa,-27.9473575,26.7621954
Brandpan,-------,9471,Welkom,Lejweleputswa,Free State,South Africa,-28.004565499999998,26.7732162
Bronville,9459,9473,Welkom,Lejweleputswa,Free State,South Africa,-27.9980228,26.8174054
Bronville Ext 15,9459,9473,Welkom,Lejweleputswa,Free State,South Africa,-27.9538842,26.827715
Bronville Uit 15,9459,9473,Welkom,Lejweleputswa,Free State,South Africa,-27.9980228,26.8174054
Thabong East,-------,9474,Thabong East,Lejweleputswa,Free State,South Africa,-27.9683971,26.7835393
Stuirmanspan,-------,9475,Motsethabong,Lejweleputswa,Free State,South Africa,NA,NA
Freddies 3,-------,9476,Odendaalsrus,Lejweleputswa,Free State,South Africa,-27.8808353,26.690706
Freddies 5,-------,9476,Odendaalsrus,Lejweleputswa,Free State,South Africa,-27.8808353,26.690706
Freddies 7,-------,9476,Odendaalsrus,Lejweleputswa,Free State,South Africa,-27.8808353,26.690706
Ntlafatsong,-------,9476,Odendaalsrus,Lejweleputswa,Free State,South Africa,-27.8808353,26.690706
Unisel,-------,9477,Welkom,Lejweleputswa,Free State,South Africa,-28.0651728,26.7856449
Thabong,9463,9478,Motsethabong,Lejweleputswa,Free State,South Africa,-27.9729194,26.7820548
Hoopstad,9479,9479,Hoopstad,Lejweleputswa,Free State,South Africa,-27.8395395,25.9349737
Geneva Ext,9480,-------,Welkom,Lejweleputswa,Free State,South Africa,-28.004565499999998,26.7732162
Geneva Uit,9480,-------,Welkom,Lejweleputswa,Free State,South Africa,-28.004565499999998,26.7732162
Hospitaalpark,9480,-------,Odendaalsrus,Motheo,Free State,South Africa,-29.1382831,26.1964982
Industria,-------,9480,Odendaalsrus,Northern Free State,Free State,South Africa,-27.6676219,27.2102868
Kalkkuil,-------,9480,Odendaalsrus,Lejweleputswa,Free State,South Africa,-27.870506,26.6879889
Kutlwanong,9480,9480,Odendaalsrus,Lejweleputswa,Free State,South Africa,-27.8594683,26.7673237
Kutlwanong Block 1,9480,-------,Welkom,Lejweleputswa,Free State,South Africa,-27.8594683,26.7673237
Kutlwanong Block 2,9480,-------,Welkom,Lejweleputswa,Free State,South Africa,-27.8594683,26.7673237
Kutlwanong Block 4,9480,-------,Welkom,Lejweleputswa,Free State,South Africa,-27.8594683,26.7673237
Kutlwanong Block 5,9480,-------,Welkom,Lejweleputswa,Free State,South Africa,-27.8594683,26.7673237
Kutlwanong Block 6,9480,-------,Welkom,Lejweleputswa,Free State,South Africa,-27.8594683,26.7673237
Kutlwanong Block 7,9480,-------,Welkom,Lejweleputswa,Free State,South Africa,-27.8594683,26.7673237
Kutlwanong Blok 1,9480,-------,Welkom,Lejweleputswa,Free State,South Africa,-27.8594683,26.7673237
Kutlwanong Blok 2,9480,-------,Welkom,Lejweleputswa,Free State,South Africa,-27.8594683,26.7673237
Kutlwanong Blok 4,9480,-------,Welkom,Lejweleputswa,Free State,South Africa,-27.8594683,26.7673237
Kutlwanong Blok 5,9480,-------,Welkom,Lejweleputswa,Free State,South Africa,-27.8594683,26.7673237
Kutlwanong Blok 6,9480,-------,Welkom,Lejweleputswa,Free State,South Africa,-27.8594683,26.7673237
Kutlwanong Blok 7,9480,-------,Welkom,Lejweleputswa,Free State,South Africa,-27.8594683,26.7673237
Kutlwanong Zone 3,9480,-------,Welkom,Lejweleputswa,Free State,South Africa,-27.8594683,26.7673237
Kutlwanong Zone 4,9480,-------,Welkom,Lejweleputswa,Free State,South Africa,-27.8594683,26.7673237
Kutlwanong Zone 7,9480,-------,Welkom,Lejweleputswa,Free State,South Africa,-27.8594683,26.7673237
Kutlwanong Zone K1,9480,-------,Welkom,Lejweleputswa,Free State,South Africa,-27.8594683,26.7673237
Kutlwanong Zone K2,9480,-------,Welkom,Lejweleputswa,Free State,South Africa,-27.8594683,26.7673237
Kutlwanong Zone K3,9480,-------,Welkom,Lejweleputswa,Free State,South Africa,-27.8594683,26.7673237
Kutlwanong Zone K4,9480,-------,Welkom,Lejweleputswa,Free State,South Africa,-27.8594683,26.7673237
Kutlwanong Zone K5,9480,-------,Welkom,Lejweleputswa,Free State,South Africa,-27.8594683,26.7673237
Kutlwanong Zone K6,9480,-------,Welkom,Lejweleputswa,Free State,South Africa,-27.8594683,26.7673237
Kutlwanong Zone K7,9480,-------,Welkom,Lejweleputswa,Free State,South Africa,-27.8594683,26.7673237
Kutlwanong Zone K8,9480,-------,Welkom,Lejweleputswa,Free State,South Africa,-27.8594683,26.7673237
Kutlwanong Zone K9,9480,-------,Welkom,Lejweleputswa,Free State,South Africa,-27.8594683,26.7673237
Merafong,9480,9483,Odendaalsrus,Lejweleputswa,Free State,South Africa,-26.3745696,27.4086488
Odendaalsrus,9480,9480,Odendaalsrus,Lejweleputswa,Free State,South Africa,-27.8808353,26.690706
Odendaalsrus Ext,9480,-------,Odendaalsrus,Lejweleputswa,Free State,South Africa,-27.8808353,26.690706
Odendaalsrus Ext 1,9480,-------,Odendaalsrus,Lejweleputswa,Free State,South Africa,-27.8808353,26.690706
Odendaalsrus Ext 2,9480,9480,Odendaalsrus,Lejweleputswa,Free State,South Africa,-27.8808353,26.690706
Odendaalsrus Uit,9480,-------,Odendaalsrus,Lejweleputswa,Free State,South Africa,-27.8808353,26.690706
Odendaalsrus Uit 1,9480,-------,Odendaalsrus,Lejweleputswa,Free State,South Africa,-27.8808353,26.690706
Odendaalsrus Uit 2,9480,9480,Odendaalsrus,Lejweleputswa,Free State,South Africa,-27.8808353,26.690706
Residensia,9480,-------,Odendaalsrus,Lejweleputswa,Free State,South Africa,-27.8716809,26.7037323
Rosskent,9480,-------,Odendaalsrus,Lejweleputswa,Free State,South Africa,-27.8666638,26.6936533
Rosskent North,9480,9480,Odendaalsrus,Lejweleputswa,Free State,South Africa,-27.8666638,26.6936533
Rosskent-noord,9480,9480,Odendaalsrus,Lejweleputswa,Free State,South Africa,-27.8666638,26.6936533
Odendaalsrus Central,-------,9481,Odendaalsrus,Lejweleputswa,Free State,South Africa,-27.8808353,26.690706
Hertzogville,9482,9482,Hertzogville,Lejweleputswa,Free State,South Africa,-28.138376,25.5029691
Malebogo,9482,9482,Hertzogville,Lejweleputswa,Free State,South Africa,-28.1210476,25.4940853
Freddies Blok 2,-------,9483,Merafong,Lejweleputswa,Free State,South Africa,-26.3745696,27.4086488
Merafong,9480,9483,Odendaalsrus,Lejweleputswa,Free State,South Africa,-26.3745696,27.4086488
Oryx Mine,-------,9484,Virginia,Lejweleputswa,Free State,South Africa,-27.979443,26.7378585
Oryx Myn,-------,9484,Virginia,Lejweleputswa,Free State,South Africa,-28.1063858,26.8556955
Matwabeng,9600,9485,Senekal,Thabo Mofutsanyane,Free State,South Africa,-28.3412278,27.6346832
Manny's,-------,9486,Welkom,Lejweleputswa,Free State,South Africa,-27.98024,26.77316
Square Deal,-------,9487,Motsethabong,Lejweleputswa,Free State,South Africa,NA,NA
Reitzpark,9459,9488,Welkom,Lejweleputswa,Free State,South Africa,-27.9699645,26.77027
Tikwana,-------,9489,Tikwana,Lejweleputswa,Free State,South Africa,-27.8408485,25.9216687
Allanridge,9490,9490,Allanridge,Lejweleputswa,Free State,South Africa,-27.7561818,26.6376476
Nyakallong,9490,9492,Allanridge,Lejweleputswa,Free State,South Africa,-27.7863104,26.6494394
Nyakallong,9490,9492,Allanridge,Lejweleputswa,Free State,South Africa,-27.7863104,26.6494394
Bambanani,-------,9493,Allanridge,Lejweleputswa,Free State,South Africa,-26.1755436,28.0084867
Brentpark,9499,-------,Kroonstad,Northern Free State,Free State,South Africa,-27.6686446,27.1926451
Constantia,9499,-------,Kroonstad,Northern Free State,Free State,South Africa,-27.6438641,27.1882345
Constantia Park,9499,-------,Kroonstad,Northern Free State,Free State,South Africa,-27.642736,27.189065
Constantiapark,9499,-------,Kroonstad,Northern Free State,Free State,South Africa,-25.8055402,28.2833583
Dawid Malanville,9499,-------,Kroonstad,Northern Free State,Free State,South Africa,11.8633332,3.3842473
Elandia,9499,-------,Kroonstad,Northern Free State,Free State,South Africa,-27.630394,27.2455655
Gelukwaarts,9499,-------,Kroonstad,Northern Free State,Free State,South Africa,-27.640933,27.1764723
Gevangenisterrein,9499,-------,Kroonstad,Northern Free State,Free State,South Africa,-27.6372514,27.2323367
Goedgedacht,9499,-------,Kroonstad,Northern Free State,Free State,South Africa,-27.6748727,27.2319692
Industria,9499,-------,Kroonstad,Northern Free State,Free State,South Africa,-27.6676219,27.2102868
Jordania,9499,-------,Kroonstad,Thabo Mofutsanyane,Free State,South Africa,-27.6576673,27.2573237
Koe Koe Village,-------,9499,Kroonstad,Northern Free State,Free State,South Africa,-27.654121,27.198376
Kroonheuwel,9499,9501,Kroonstad,Northern Free State,Free State,South Africa,-27.6501594,27.2352765
Kroonstad,9499,9500,Kroonstad,Northern Free State,Free State,South Africa,-27.6372514,27.2323367
Kroonstad Cbd,9499,9500,Kroonstad,Northern Free State,Free State,South Africa,-27.6372514,27.2323367
Lengau,9499,9503,Kroonstad,Northern Free State,Free State,South Africa,-27.6487433,27.1966744
Maokeng,9499,9499,Kroonstad,Northern Free State,Free State,South Africa,-27.643387,27.1973175
Maokeng Open Space,9499,-------,Kroonstad,Northern Free State,Free State,South Africa,-27.6365261,27.1893371
Market Square,9499,-------,Kroonstad,Northern Free State,Free State,South Africa,-27.6372514,27.2323367
Markplein,9499,-------,Kroonstad,Northern Free State,Free State,South Africa,-27.6372514,27.2323367
Morewag,9499,-------,Kroonstad,Northern Free State,Free State,South Africa,-27.6368308,27.2279269
Noordhoek,9499,-------,Kroonstad,Northern Free State,Free State,South Africa,-27.6438063,27.2301318
Ou Dorp,9499,-------,Kroonstad,Lejweleputswa,Free State,South Africa,-27.6599576,27.2412698
Panorama,9499,-------,Kroonstad,Northern Free State,Free State,South Africa,-27.6730621,27.2485051
Phomalong,9499,-------,Kroonstad,Northern Free State,Free State,South Africa,-27.6517849,27.1955855
Presidensia,9499,-------,Kroonstad,Northern Free State,Free State,South Africa,-27.6376717,27.2367464
Prison Area,9499,-------,Kroonstad,Northern Free State,Free State,South Africa,-27.6304111,27.2280757
Seisoville,9499,-------,Kroonstad,Northern Free State,Free State,South Africa,-27.6509638,27.2058765
Suidrand,9499,-------,Kroonstad,Northern Free State,Free State,South Africa,-27.6826272,27.2352765
Tuinhof,9499,-------,Kroonstad,Northern Free State,Free State,South Africa,-27.6518374,27.2529145
Uitsig,9499,-------,Kroonstad,Motheo,Free State,South Africa,-27.6512085,27.2463004
Vooruitsig Gevangenis,9499,-------,Kroonstad,Northern Free State,Free State,South Africa,-24.882212,29.5658654
Vooruitsig Prison,9499,-------,Kroonstad,Northern Free State,Free State,South Africa,-27.6304111,27.2280757
Wespark,9499,-------,Kroonstad,Northern Free State,Free State,South Africa,-27.6402591,27.2213121
Wilgenhof,9499,-------,Kroonstad,Northern Free State,Free State,South Africa,-27.6770128,27.2426259
Kroonstad,9499,9500,Kroonstad,Northern Free State,Free State,South Africa,-27.6372514,27.2323367
Kroonstad Cbd,9499,9500,Kroonstad,Northern Free State,Free State,South Africa,-27.6372514,27.2323367
Kroonheuwel,9499,9501,Kroonstad,Northern Free State,Free State,South Africa,-27.6501594,27.2352765
Kroonpark,-------,9502,Kroonstad,Northern Free State,Free State,South Africa,-27.6697005,27.2412329
Lengau,9499,9503,Kroonstad,Northern Free State,Free State,South Africa,-27.6487433,27.1966744
Snake Park,-------,9503,Kroonstad,Northern Free State,Free State,South Africa,-27.6372514,27.2323367
Heuningspruit,-------,9505,Kroonstad,Northern Free State,Free State,South Africa,-27.45,27.416667
Steynsrus,9515,9515,Steynsrus,Northern Free State,Free State,South Africa,-27.9492343,27.5671944
Rammulotsi,9520,9521,Viljoenskroon,Northern Free State,Free State,South Africa,-27.1886944,26.9528629
Viljoenskroon,9520,9520,Viljoenskroon,Northern Free State,Free State,South Africa,-26.9751211,26.7614309
Rammulotsi,9520,9521,Viljoenskroon,Northern Free State,Free State,South Africa,-27.1886944,26.9528629
Edenville,-------,9535,Edenville,Northern Free State,Free State,South Africa,-27.5561866,27.6757516
Ngqwatha,-------,9535,Edenville,Northern Free State,Free State,South Africa,-27.5535363,27.6566853
Nngwathe,-------,9535,Edenville,Northern Free State,Free State,South Africa,-27.5561866,27.6757516
Koppies,9540,9540,Koppies,Northern Free State,Free State,South Africa,-27.2290951,27.587737
Kwakwatsi,9540,-------,Koppies,Northern Free State,Free State,South Africa,-27.2278474,27.5936059
Zamdela,-------,9571,Parys,Lejweleputswa,Free State,South Africa,-26.8662267,27.8692376
Hunterville,-------,9580,Sasolburg,Northern Free State,Free State,South Africa,-26.8101899,27.8277254
Beaumont,9585,-------,Parys,Northern Free State,Free State,South Africa,-26.9110891,27.4908738
Lusaka,-------,9585,Parys,Lejweleputswa,Free State,South Africa,-15.3875259,28.3228165
Mandela,-------,9585,Parys,Northern Free State,Free State,South Africa,-26.9220501,27.4950376
Mokwallo,-------,9585,Parys,Northern Free State,Free State,South Africa,-27.0058444,27.3880872
Oudewerfpark,9585,-------,Parys,Northern Free State,Free State,South Africa,-26.9110891,27.4908738
Parys,9585,9585,Parys,Northern Free State,Free State,South Africa,-26.9009868,27.4615118
Pomona,9585,-------,Parys,Northern Free State,Free State,South Africa,-26.9110891,27.4908738
Schonkenville,9585,9585,Parys,Northern Free State,Free State,South Africa,-26.934563700000002,27.46298
Sesulu,-------,9585,Parys,Northern Free State,Free State,South Africa,-1.3439206,116.4901981
Sunnyside,-------,9585,Parys,Northern Free State,Free State,South Africa,-26.970484,27.214784
Tokologo,-------,9585,Parys,Northern Free State,Free State,South Africa,-28.5528984,25.4733554
Tumahole,9585,-------,Parys,Northern Free State,Free State,South Africa,-26.917743,27.4850018
West End,9585,-------,Parys,Northern Free State,Free State,South Africa,-26.9110891,27.4908738
Mokwallo,9595,-------,Vredefort,Northern Free State,Free State,South Africa,-27.0058444,27.3880872
Phahameng,9595,9595,Vredefort,Motheo,Free State,South Africa,-29.1560061,26.2407974
Vredefort,9595,9595,Vredefort,Northern Free State,Free State,South Africa,-27.0007882,27.3733989
De Rust,9600,-------,Senekal,Thabo Mofutsanyane,Free State,South Africa,-28.3129866,27.6240603
Industrial Area,9600,-------,Senekal,Thabo Mofutsanyane,Free State,South Africa,-28.3284196,27.6317494
Industriele Gebied,9600,-------,Senekal,Thabo Mofutsanyane,Free State,South Africa,-28.3284196,27.6317494
Matwabeng,9600,9485,Senekal,Thabo Mofutsanyane,Free State,South Africa,-28.3412278,27.6346832
Senekal,9600,9600,Senekal,Thabo Mofutsanyane,Free State,South Africa,-28.3335498,27.6082774
Thabeng,-------,9600,Senekal,Thabo Mofutsanyane,Free State,South Africa,-28.3284196,27.6317494
Thambo,-------,9600,Senekal,Thabo Mofutsanyane,Free State,South Africa,-28.3284196,27.6317494
Arlington,9602,9602,Arlington,Thabo Mofutsanyane,Free State,South Africa,-28.024692,27.8516564
Leratswana,9602,9602,Arlington,Thabo Mofutsanyane,Free State,South Africa,-28.025594,27.8413999
Marquard,9610,9610,Marquard,Thabo Mofutsanyane,Free State,South Africa,-28.6880903,27.4380189
Moemaneng,9610,9610,Marquard,Thabo Mofutsanyane,Free State,South Africa,-28.6791417,27.4174603
Lindley,9630,9630,Lindley,Thabo Mofutsanyane,Free State,South Africa,-27.9049795,27.9190418
Ntha,9630,-------,Lindley,Thabo Mofutsanyane,Free State,South Africa,-27.8839653,27.9043949
Sisulu Park,-------,9630,Lindley,Thabo Mofutsanyane,Free State,South Africa,-26.086548,27.844839
Mamafubedu,9640,9640,Petrus Steyn,Thabo Mofutsanyane,Free State,South Africa,-27.6633004,28.1312863
Mumsfubedu,9640,9640,Petrus Steyn,Thabo Mofutsanyane,Free State,South Africa,-27.6633004,28.1312863
Petrus Steyn,9640,9640,Petrus Steyn,Thabo Mofutsanyane,Free State,South Africa,-27.6542045,28.1298234
Heilbron,9650,9650,Heilbron,Northern Free State,Free State,South Africa,-27.2819782,27.9834738
New Location,9650,-------,Heilbron,Northern Free State,Free State,South Africa,-27.2819782,27.9834738
Nuwe Lokasie,9650,-------,Heilbron,Northern Free State,Free State,South Africa,-27.2819782,27.9834738
Sandersville,9650,-------,Heilbron,Northern Free State,Free State,South Africa,-27.2690749,27.9651716
Vegkop,9650,-------,Heilbron,Northern Free State,Free State,South Africa,-27.281448,27.961802
Phiritona,9651,9651,Heilbron,Northern Free State,Free State,South Africa,-27.2691223,27.9805456
Bothaville,9660,9660,Bothaville,Lejweleputswa,Free State,South Africa,-27.374025,26.6199587
Kgotsong,9660,9660,Bothaville,Lejweleputswa,Free State,South Africa,-27.390611,26.6458619
Khotsong,9660,9660,Bothaville,Lejweleputswa,Free State,South Africa,-27.3734264,26.6494394
Meyerhof,9660,9660,Bothaville,Lejweleputswa,Free State,South Africa,-27.3809666,26.5993199
Nyakane,-------,9661,Bothaville,Lejweleputswa,Free State,South Africa,-27.374025,26.6199587
Skoonspruit,-------,9663,Bothaville,Lejweleputswa,Free State,South Africa,-27.3679927,26.6443908
Ramosili,-------,9664,Ramosili,Lejweleputswa,Free State,South Africa,-28.4541105,26.7967849
Bultfontein,9670,9670,Bultfontein,Lejweleputswa,Free State,South Africa,-28.2985508,26.1346479
Phahameng,9670,9670,Bultfontein,Motheo,Free State,South Africa,-28.3055135,26.1448057
Side Town,9670,-------,Bultfontein,Lejweleputswa,Free State,South Africa,-28.2750463,26.1477598
Dikataneng,-------,9680,Wesselsbron,Lejweleputswa,Free State,South Africa,-27.8337283,26.3662682
Industria,-------,9680,Wesselsbron,Northern Free State,Free State,South Africa,-27.8337283,26.3662682
Railway Sect,-------,9680,Wesselsbron,Lejweleputswa,Free State,South Africa,-27.8337283,26.3662682
Railway Section,-------,9680,Wesselsbron,Lejweleputswa,Free State,South Africa,-27.8337283,26.3662682
Vergesig,-------,9680,Wesselsbron,Lejweleputswa,Free State,South Africa,-33.8383793,18.6338918
Wesselsbron,-------,9680,Wesselsbron,Lejweleputswa,Free State,South Africa,-27.8445984,26.3662682
Monyakeng,9682,9682,Wesselsbron,Lejweleputswa,Free State,South Africa,-27.8291984,26.3751225
Bethlehem,9701,9700,Bethlehem,Thabo Mofutsanyane,Free State,South Africa,-28.2423025,28.3111262
Egipte,9702,9700,Bethlehem,Thabo Mofutsanyane,Free State,South Africa,-28.2423025,28.3111262
Egypt,9702,9700,Bethlehem,Thabo Mofutsanyane,Free State,South Africa,-28.2423025,28.3111262
Lekkerdril,-------,9700,Bethlehem,Thabo Mofutsanyane,Free State,South Africa,-28.2423025,28.3111262
Phahameng,9701,9700,Bethlehem,Thabo Mofutsanyane,Free State,South Africa,-28.5160807,28.794127
Bakenpark,9701,-------,Bethlehem,Thabo Mofutsanyane,Free State,South Africa,-28.2172805,28.3330449
Bergsig,9701,-------,Bethlehem,Thabo Mofutsanyane,Free State,South Africa,-28.2221758,28.2823297
Bethlehem,9701,9700,Bethlehem,Thabo Mofutsanyane,Free State,South Africa,-28.2423025,28.3111262
Bethlehem Ext 1,9701,-------,Bethlehem,Thabo Mofutsanyane,Free State,South Africa,-28.2423025,28.3111262
Bethlehem Ext 2,9701,-------,Bethlehem,Thabo Mofutsanyane,Free State,South Africa,-28.2423025,28.3111262
Bethlehem Uit 1,9701,-------,Bethlehem,Thabo Mofutsanyane,Free State,South Africa,-28.2423025,28.3111262
Bethlehem Uit 2,9701,-------,Bethlehem,Thabo Mofutsanyane,Free State,South Africa,-28.2423025,28.3111262
Bethlehem West,9701,-------,Bethlehem,Thabo Mofutsanyane,Free State,South Africa,-28.2423025,28.3111262
Bethlehem-Wes,9701,-------,Bethlehem,Thabo Mofutsanyane,Free State,South Africa,-28.23561,28.30134
Bohlokong,9701,9702,Theronville,Thabo Mofutsanyane,Free State,South Africa,-28.22453,28.3185764
Eureka,9701,-------,Bethlehem,Thabo Mofutsanyane,Free State,South Africa,-28.247281,28.306285
Giyane,9701,-------,Bethlehem,Thabo Mofutsanyane,Free State,South Africa,-28.2100749,28.3323143
Hospitaalheuwel,9701,-------,Bethlehem,Thabo Mofutsanyane,Free State,South Africa,-28.23256,28.31925
Industrial Area,-------,9701,Bethlehem,Thabo Mofutsanyane,Free State,South Africa,-28.2293066,28.3083607
Industriele Gebied,-------,9701,Bethlehem,Thabo Mofutsanyane,Free State,South Africa,-28.2423025,28.3111262
Jordania,9701,-------,Bethlehem,Thabo Mofutsanyane,Free State,South Africa,-28.24212,28.31584
La Provence,9701,-------,Bethlehem,Thabo Mofutsanyane,Free State,South Africa,-28.2514815,28.3142892
Loss Section,9701,-------,Bethlehem,Thabo Mofutsanyane,Free State,South Africa,-28.2423025,28.3111262
Marabastad,9701,-------,Bethlehem,Thabo Mofutsanyane,Free State,South Africa,-25.7394229,28.1758982
Morelig,9701,-------,Bethlehem,Thabo Mofutsanyane,Free State,South Africa,-28.220776999999998,28.289216
Naledi,9701,9701,Bethlehem,Thabo Mofutsanyane,Free State,South Africa,-28.1990558,28.3266957
Panorama,9701,-------,Bethlehem,Thabo Mofutsanyane,Free State,South Africa,-28.2351531,28.3237387
Panorama East,-------,9701,Bethlehem,Thabo Mofutsanyane,Free State,South Africa,-28.2351531,28.3237387
Panorama-oos,-------,9701,Bethlehem,Thabo Mofutsanyane,Free State,South Africa,-28.2351531,28.3237387
Phahameng,9701,9700,Bethlehem,Thabo Mofutsanyane,Free State,South Africa,-28.5160807,28.794127
Railway Camp,9701,-------,Bethlehem,Thabo Mofutsanyane,Free State,South Africa,-28.2423025,28.3111262
Smutsville,9701,-------,Bethlehem,Thabo Mofutsanyane,Free State,South Africa,-28.212618,28.314735
Stafford Hill,9701,-------,Bethlehem,Thabo Mofutsanyane,Free State,South Africa,-28.2280556,28.2919444
Staffords Hill,9701,-------,Bethlehem,Thabo Mofutsanyane,Free State,South Africa,-28.247471,28.353262
Thutukaai,9701,-------,Bethlehem,Thabo Mofutsanyane,Free State,South Africa,-28.208044,28.332172
Bohlokong,9701,9702,Theronville,Thabo Mofutsanyane,Free State,South Africa,-28.22453,28.3185764
Bohlokong Ext 1,-------,9702,Theronville,Thabo Mofutsanyane,Free State,South Africa,-28.22453,28.3185764
Bohlokong Ext 2,-------,9702,Theronville,Thabo Mofutsanyane,Free State,South Africa,-28.22453,28.3185764
Bohlokong Uit 1,-------,9702,Theronville,Thabo Mofutsanyane,Free State,South Africa,-28.22453,28.3185764
Bohlokong Uit 2,-------,9702,Theronville,Thabo Mofutsanyane,Free State,South Africa,-28.22453,28.3185764
Ditsheng,-------,9702,Bethlehem,Thabo Mofutsanyane,Free State,South Africa,-28.2423025,28.3111262
Egipte,9702,9700,Bethlehem,Thabo Mofutsanyane,Free State,South Africa,-28.2423025,28.3111262
Egypt,9702,9700,Bethlehem,Thabo Mofutsanyane,Free State,South Africa,-28.2423025,28.3111262
Eyepeta,-------,9702,Bohlokong,Thabo Mofutsanyane,Free State,South Africa,-28.1934604,28.325739
New Location,9702,-------,Bethlehem,Thabo Mofutsanyane,Free State,South Africa,-28.2423025,28.3111262
Nuwe Lokasie,9702,-------,Bethlehem,Thabo Mofutsanyane,Free State,South Africa,-28.2423025,28.3111262
Theronville,9702,9702,Theronville,Thabo Mofutsanyane,Free State,South Africa,-28.22453,28.3185764
Slabberts,-------,9703,Bethlehem,Thabo Mofutsanyane,Free State,South Africa,-28.433333,28.183333
Sheridan,-------,9704,Bethlehem,Thabo Mofutsanyane,Free State,South Africa,-28.533333,28.116667
Danielsrus,-------,9705,Bethlehem,Thabo Mofutsanyane,Free State,South Africa,-28.01833,28.38667
Kransfontein,-------,9706,Bethlehem,Thabo Mofutsanyane,Free State,South Africa,-28.133333,28.566667
Clarens,9707,9707,Clarens,Thabo Mofutsanyane,Free State,South Africa,-28.5160484,28.4206915
Golden Gate Highlands N P,-------,9707,Clarens,Thabo Mofutsanyane,Free State,South Africa,-28.5166667,28.6166667
Kgubetswana,-------,9707,Clarens,Thabo Mofutsanyane,Free State,South Africa,-28.5267445,28.4206915
Mautse,9720,9720,Rosendal,Thabo Mofutsanyane,Free State,South Africa,-28.5107438,27.9227033
Rosendal,9720,9720,Rosendal,Thabo Mofutsanyane,Free State,South Africa,-28.5042585,27.9307584
Fouriesburg,9725,9725,Fouriesburg,Thabo Mofutsanyane,Free State,South Africa,-28.6210426,28.2089333
Greenland,9725,9725,Fouriesburg,Thabo Mofutsanyane,Free State,South Africa,-28.6210426,28.2089333
Groenland,9725,9725,Fouriesburg,Thabo Mofutsanyane,Free State,South Africa,-28.6210426,28.2089333
Ipokelleng,9725,-------,Fouriesburg,Thabo Mofutsanyane,Free State,South Africa,-28.6193769,28.1960064
Mashaeng,9725,9725,Fouriesburg,Thabo Mofutsanyane,Free State,South Africa,-28.6191049,28.1897914
Caledonpark,9730,-------,Ficksburg,Thabo Mofutsanyane,Free State,South Africa,-28.8863229,27.8835211
Ficksburg,9730,9730,Ficksburg,Thabo Mofutsanyane,Free State,South Africa,-28.8777887,27.8663075
Ficksburg Zone 5,9730,9730,Ficksburg,Thabo Mofutsanyane,Free State,South Africa,-28.8668549,27.8763847
Meqheleng,9730,9732,Ficksburg,Thabo Mofutsanyane,Free State,South Africa,-28.8999222,27.8750976
Meqheleng,9730,9732,Ficksburg,Thabo Mofutsanyane,Free State,South Africa,-28.8999222,27.8750976
Clocolan,9735,9735,Clocolan,Thabo Mofutsanyane,Free State,South Africa,-28.9093365,27.5554547
Hlohlolwane,9735,9735,Clocolan,Thabo Mofutsanyane,Free State,South Africa,-28.9049885,27.5569222
Sunflower Park,-------,9735,Clocolan,Thabo Mofutsanyane,Free State,South Africa,-28.9093365,27.5554547
Thlohlolwane,9735,9735,Clocolan,Thabo Mofutsanyane,Free State,South Africa,-28.9049885,27.5569222
Dipelaneng,-------,9740,Hobhouse,Thabo Mofutsanyane,Free State,South Africa,-29.5091008,27.1514753
Hobhouse,9740,9740,Hobhouse,Motheo,Free State,South Africa,-29.5257801,27.1452361
Brightside,9745,-------,Ladybrand,Motheo,Free State,South Africa,-29.1860352,27.4438924
Flamingo,9745,9745,Ladybrand,Motheo,Free State,South Africa,-29.1860352,27.4438924
Ladybrand,9745,9745,Ladybrand,Motheo,Free State,South Africa,-29.1860352,27.4438924
Manyetseng,9745,9748,Ladybrand,Motheo,Free State,South Africa,-29.1660586,27.4615118
Masakeng,9745,9745,Ladybrand,Motheo,Free State,South Africa,-29.1772189,27.4761874
Mauersnek,-------,9745,Ladybrand,Motheo,Free State,South Africa,-29.1901968,27.4402215
Modderpoort,-------,9746,Ladybrand,Motheo,Free State,South Africa,-29.1,27.45
Marseilles,-------,9747,Marseilles,Motheo,Free State,South Africa,-29.166667,27.266667
Manyetseng,9745,9748,Ladybrand,Motheo,Free State,South Africa,-29.1660586,27.4615118
Excelsior,9760,9760,Excelsior,Motheo,Free State,South Africa,-28.9312695,27.0617553
Mahlatsoetsa,9760,9760,Excelsior,Motheo,Free State,South Africa,-28.930733,27.0455722
Mahlatswetsa,9760,9760,Excelsior,Motheo,Free State,South Africa,-28.930733,27.0455722
Westminster,-------,9765,Westminster,Motheo,Free State,South Africa,-28.4541105,26.7967849
Tweespruit,9770,9770,Tweespruit,Motheo,Free State,South Africa,-29.1883217,27.0293878
Thaba Phatshwa,-------,9771,Thaba Phatshwa,Motheo,Free State,South Africa,-29.3302778,27.0902778
Quimera,-------,9774,Quimera,Motheo,Free State,South Africa,NA,NA
Dilapiso,9775,-------,Ga-Rapulana,Motheo,Free State,South Africa,32.1656221,-82.9000751
Ga-Rapulana,9775,9775,Ga-Rapulana,Motheo,Free State,South Africa,32.1656221,-82.9000751
Mokwena,9775,9780,Ga-Rapulana,Motheo,Free State,South Africa,32.1656221,-82.9000751
Ratlou,9775,9780,Ga-Rapulana,Motheo,Free State,South Africa,-26.1001373,24.9991464
Thole Nthuse,-------,9775,Ga-Rapulana,Motheo,Free State,South Africa,32.1656221,-82.9000751
Thole-Nthuse,9775,-------,Ga-Rapulana,Motheo,Free State,South Africa,32.1656221,-82.9000751
Hoita,-------,9776,Hoita,Motheo,Free State,South Africa,-26.0989656,28.0403289
Sipambo Basin,-------,9778,Sipambo Basin,Motheo,Free State,South Africa,NA,NA
Mokwena,9775,9780,Ga-Rapulana,Motheo,Free State,South Africa,32.1656221,-82.9000751
Moroka,9783,9780,Ga-Rapulana,Motheo,Free State,South Africa,32.1656221,-82.9000751
Ratau Ext,9780,-------,Botshabelo,Motheo,Free State,South Africa,-29.237018,26.8291877
Ratau Uit,9780,-------,Botshabelo,Motheo,Free State,South Africa,-29.237018,26.8291877
Ratlou,9775,9780,Ga-Rapulana,Motheo,Free State,South Africa,-26.1001373,24.9991464
Thaba Nchu,9780,9780,Thaba Nchu,Motheo,Free State,South Africa,-29.2039585,26.8203511
Botshabelo,9781,9781,Bloemfontein,Motheo,Free State,South Africa,-29.2672728,26.7260713
Botshabelo Section A,9781,9781,Botshabelo,Motheo,Free State,South Africa,-29.2670109,26.7331236
Botshabelo Section B,9781,9781,Botshabelo,Motheo,Free State,South Africa,-29.2672728,26.7260713
Botshabelo Section C1,9781,9781,Bloemfontein,Motheo,Free State,South Africa,-29.2672728,26.7260713
Botshabelo Section E,9781,9781,Botshabelo,Motheo,Free State,South Africa,-29.2672728,26.7260713
Botshabelo Section F,9781,9781,Botshabelo,Motheo,Free State,South Africa,-29.2672728,26.7260713
Botshabelo Section G,9781,9781,Botshabelo,Motheo,Free State,South Africa,-29.2672728,26.7260713
Botshabelo Section H,9781,9781,Botshabelo,Motheo,Free State,South Africa,-29.2672728,26.7260713
Botshabelo Section H2,9781,9781,Botshabelo,Motheo,Free State,South Africa,-29.2672728,26.7260713
Botshabelo Section J,9781,9781,Botshabelo,Motheo,Free State,South Africa,-29.2672728,26.7260713
Botshabelo Section K,9781,-------,Botshabelo,Motheo,Free State,South Africa,-29.21239019999999,26.6918112
Botshabelo Section L,9781,9781,Botshabelo,Motheo,Free State,South Africa,-29.2672728,26.7260713
Botshabelo Section M,9781,9781,Botshabelo,Motheo,Free State,South Africa,-29.2672728,26.7260713
Botshabelo Section N,9781,9781,Botshabelo,Motheo,Free State,South Africa,-29.2672728,26.7260713
Botshabelo Section T,9781,-------,Botshabelo,Motheo,Free State,South Africa,-29.2672728,26.7260713
Botshabelo Section U,9781,-------,Botshabelo,Motheo,Free State,South Africa,-29.233056,26.733056
Botshabelo Section W,9781,-------,Botshabelo,Motheo,Free State,South Africa,-29.2672728,26.7260713
Botshabelo Seksie A,9781,9781,Botshabelo,Motheo,Free State,South Africa,-29.2672728,26.7260713
Botshabelo Seksie B,9781,9781,Botshabelo,Motheo,Free State,South Africa,-29.2672728,26.7260713
Botshabelo Seksie C1,9781,9781,Bloemfontein,Motheo,Free State,South Africa,-29.2672728,26.7260713
Botshabelo Seksie E,9781,9781,Botshabelo,Motheo,Free State,South Africa,-29.2672728,26.7260713
Botshabelo Seksie F,9781,9781,Botshabelo,Motheo,Free State,South Africa,-29.2672728,26.7260713
Botshabelo Seksie G,9781,9781,Botshabelo,Motheo,Free State,South Africa,-29.2672728,26.7260713
Botshabelo Seksie H,9781,9781,Botshabelo,Motheo,Free State,South Africa,-29.2672728,26.7260713
Botshabelo Seksie H2,9781,9781,Botshabelo,Motheo,Free State,South Africa,-29.2672728,26.7260713
Botshabelo Seksie J,9781,9781,Botshabelo,Motheo,Free State,South Africa,-29.2672728,26.7260713
Botshabelo Seksie K,9781,-------,Botshabelo,Motheo,Free State,South Africa,-29.2672728,26.7260713
Botshabelo Seksie L,9781,9781,Botshabelo,Motheo,Free State,South Africa,-29.2672728,26.7260713
Botshabelo Seksie M,9781,9781,Botshabelo,Motheo,Free State,South Africa,-29.2672728,26.7260713
Botshabelo Seksie N,9781,9781,Botshabelo,Motheo,Free State,South Africa,-29.2672728,26.7260713
Botshabelo Seksie T,9781,-------,Botshabelo,Motheo,Free State,South Africa,-29.2672728,26.7260713
Botshabelo Seksie U,9781,-------,Botshabelo,Motheo,Free State,South Africa,-29.2672728,26.7260713
Botshabelo Seksie W,9781,-------,Botshabelo,Motheo,Free State,South Africa,-29.2672728,26.7260713
Section H3,9781,-------,Botshabelo,Motheo,Free State,South Africa,-29.2151378,26.728068
Dikhothatso,-------,9782,Botshabelo,Motheo,Free State,South Africa,-29.2672728,26.7260713
Bultfontein 1,-------,9783,Thaba Nchu,Motheo,Free State,South Africa,-29.169544,26.7864739
Bultfontein 2,-------,9783,Thaba Nchu,Motheo,Free State,South Africa,-29.1667737,26.8056225
Bultfontein 3,-------,9783,Thaba Nchu,Motheo,Free State,South Africa,-28.2750463,26.1477598
Bultfontein 4,-------,9783,Thaba Nchu,Motheo,Free State,South Africa,-29.176818,26.827715
Moroka,9783,9780,Ga-Rapulana,Motheo,Free State,South Africa,32.1656221,-82.9000751
Selosesha,9783,9783,Thaba Nchu,Motheo,Free State,South Africa,-29.1803821,26.8174054
Selosesha Zone 1,9783,-------,Selosesha,Motheo,Free State,South Africa,-29.1803821,26.8174054
Selosesha Zone 3,9783,-------,Selosesha,Motheo,Free State,South Africa,-29.1803821,26.8174054
Station View,9783,-------,Selosesha,Motheo,Free State,South Africa,-29.1803821,26.8174054
Unit One,9783,9783,Thaba Nchu,Motheo,Free State,South Africa,-29.197791,26.8115141
Kildare,-------,9784,Thaba Nchu,Motheo,Free State,South Africa,-29.212445,26.840977
Botjhaba Tsatsi,-------,9785,Botshabelo,Motheo,Free State,South Africa,-29.2672728,26.7260713
Botjhaba-tsatsi,-------,9785,Botshabelo,Motheo,Free State,South Africa,-29.2672728,26.7260713
Fairview,9786,-------,Barkly East,Motheo,Free State,South Africa,-30.9690742,27.5906715
Fadimehang,-------,9788,Botshabelo,Motheo,Free State,South Africa,-29.25958809999999,26.7391476
Ramahutsi,9789,9789,Botshabelo,Motheo,Free State,South Africa,-29.25447,26.7488
Marobeng,-------,9790,Thaba Nchu,Motheo,Free State,South Africa,-29.2039585,26.8203511
Botshabelo East,-------,9792,Botshabelo,Motheo,Free State,South Africa,-29.2672728,26.7260713
Botshabelo-oos,-------,9792,Botshabelo,Motheo,Free State,South Africa,-29.2672728,26.7260713
Clarence Makwetu,-------,9800,Paul Roux,Thabo Mofutsanyane,Free State,South Africa,-28.3032292,27.9659037
Fateng Tse Ntsho,-------,9800,Paul Roux,Thabo Mofutsanyane,Free State,South Africa,-28.3035979,27.9702964
Paul Roux,9800,9800,Paul Roux,Thabo Mofutsanyane,Free State,South Africa,-28.3032292,27.9659037
Petsana,9810,9810,Reitz,Thabo Mofutsanyane,Free State,South Africa,-27.8052994,28.4542772
Reitz,9810,9810,Reitz,Thabo Mofutsanyane,Free State,South Africa,-27.8009575,28.4318311
Mafahlaneng,-------,9820,Tweeling,Northern Free State,Free State,South Africa,-27.5490023,28.5141305
Tweeling,9820,9820,Tweeling,Northern Free State,Free State,South Africa,-27.5493695,28.5185092
Frankfort,9830,9830,Frankfort,Northern Free State,Free State,South Africa,-27.2719544,28.5214282
Namahadi,9830,9830,Frankfort,Northern Free State,Free State,South Africa,-27.2550699,28.5126709
Phahameng,9830,9830,Frankfort,Northern Free State,Free State,South Africa,NA,NA
Thembalelhe,9835,-------,Vrede,Thabo Mofutsanyane,Free State,South Africa,-27.416981,29.1768582
Thembalihle,9835,-------,Vrede,Thabo Mofutsanyane,Free State,South Africa,-27.416981,29.1768582
Vrede,9835,9835,Vrede,Thabo Mofutsanyane,Free State,South Africa,-27.452382,29.1506941
Qalabotjha,9840,9840,Villiers,Northern Free State,Free State,South Africa,-27.0218105,28.6250204
Qalabotjha Ext 3,9840,-------,Villiers,Northern Free State,Free State,South Africa,-27.0218105,28.6250204
Qalabotjha Ext 4,9840,9840,Villiers,Northern Free State,Free State,South Africa,-27.0218105,28.6250204
Qalabotjha Ext 6,9840,9840,Villiers,Northern Free State,Free State,South Africa,-27.0218105,28.6250204
Qalabotjha Uit 3,9840,-------,Villiers,Northern Free State,Free State,South Africa,-27.0218105,28.6250204
Qalabotjha Uit 4,9840,9840,Villiers,Northern Free State,Free State,South Africa,-27.0218105,28.6250204
Qalabotjha Uit 6,9840,9840,Villiers,Northern Free State,Free State,South Africa,-27.0218105,28.6250204
Qalabotjiha,9840,9840,Villiers,Northern Free State,Free State,South Africa,-27.0218105,28.6250204
Riverside,-------,9840,Villiers,Motheo,Free State,South Africa,-27.0361696,28.61481
Villiers,9840,9840,Villiers,Northern Free State,Free State,South Africa,-27.0428378,28.6089752
Cornelia,9850,9850,Vrede,Northern Free State,Free State,South Africa,-27.248268,28.8567675
Ntswanatsati,-------,9850,Cornelia,Northern Free State,Free State,South Africa,-27.2279628,28.8545827
Kestell,9860,9860,Kestell,Thabo Mofutsanyane,Free State,South Africa,-28.3082063,28.6935593
Thlolong,-------,9860,Kestell,Thabo Mofutsanyane,Free State,South Africa,-28.3272481,28.6979331
Tlholong,-------,9860,Kestell,Thabo Mofutsanyane,Free State,South Africa,-28.3272481,28.6979331
Industrial Area,9866,-------,Phuthaditjhaba,Thabo Mofutsanyane,Free State,South Africa,-28.5530273,28.82472199999999
Industriele Gebied,9866,-------,Phuthaditjhaba,Thabo Mofutsanyane,Free State,South Africa,-28.5530273,28.82472199999999
Phuthaditjhaba,9869,9866,Phuthaditjhaba,Thabo Mofutsanyane,Free State,South Africa,-28.5530273,28.82472199999999
Riverside,-------,9866,Phuthaditjhaba,Motheo,Free State,South Africa,-28.550955,28.81458
Marakong,-------,9868,Phuthaditjhaba,Thabo Mofutsanyane,Free State,South Africa,-28.5602974,28.8509415
Mokodumela,9868,9868,Witsieshoek,Thabo Mofutsanyane,Free State,South Africa,-28.5530273,28.82472199999999
Bluegumbush,9870,9869,Phuthaditjhaba,Thabo Mofutsanyane,Free State,South Africa,-28.4802228,28.846936
Boiketlo,-------,9869,Witsieshoek,Thabo Mofutsanyane,Free State,South Africa,-28.5573638,28.8232652
Bolata,-------,9869,Mokodumela,Thabo Mofutsanyane,Free State,South Africa,-28.5724177,28.7984981
De Bult,-------,9869,Phuthaditjhaba,Thabo Mofutsanyane,Free State,South Africa,-28.5371956,28.7973064
Elite,-------,9869,Phuthaditjhaba,Thabo Mofutsanyane,Free State,South Africa,-28.5530273,28.82472199999999
Ha Nchabeng,-------,9869,Mokodumela,Thabo Mofutsanyane,Free State,South Africa,-28.4541105,26.7967849
Ha Sethunya,-------,9869,Mokodumela,Thabo Mofutsanyane,Free State,South Africa,-28.5756491,28.84220209999999
Ha-nchabeng,-------,9869,Mokodumela,Thabo Mofutsanyane,Free State,South Africa,-28.4541105,26.7967849
Ha-sethunya,-------,9869,Mokodumela,Thabo Mofutsanyane,Free State,South Africa,-28.5756491,28.84220209999999
Haniville,-------,9869,Mokodumela,Thabo Mofutsanyane,Free State,South Africa,-28.4541105,26.7967849
Kenzintown,9869,-------,Witsieshoek,Thabo Mofutsanyane,Free State,South Africa,-28.5530273,28.82472199999999
Lusaka,-------,9869,Witsieshoek,Lejweleputswa,Free State,South Africa,-28.506396,28.847728
Mabolela,-------,9869,Witsieshoek,Thabo Mofutsanyane,Free State,South Africa,-28.4060627,28.9528645
Makeneng,-------,9869,Witsieshoek,Thabo Mofutsanyane,Free State,South Africa,-28.6150232,28.8218084
Masaleng,-------,9869,Witsieshoek,Thabo Mofutsanyane,Free State,South Africa,-28.5914581,28.7795559
Matlakeng,-------,9869,Witsieshoek,Thabo Mofutsanyane,Free State,South Africa,-30.29694509999999,27.1000014
Matshekheng,-------,9869,Witsieshoek,Thabo Mofutsanyane,Free State,South Africa,-28.5530273,28.82472199999999
Matsikeng,-------,9869,Witsieshoek,Thabo Mofutsanyane,Free State,South Africa,-28.5109556,28.8567675
Monontsha,-------,9869,Witsieshoek,Thabo Mofutsanyane,Free State,South Africa,-28.5598721,28.7256312
Namahadi,-------,9869,Witsieshoek,Thabo Mofutsanyane,Free State,South Africa,-28.5606768,28.8320056
Phuthaditjhaba,9869,9866,Phuthaditjhaba,Thabo Mofutsanyane,Free State,South Africa,-28.5530273,28.82472199999999
Qholaqhwe,-------,9869,Witsieshoek,Thabo Mofutsanyane,Free State,South Africa,-28.5243153,28.8451153
Riverview,-------,9869,Phuthaditjhaba,Thabo Mofutsanyane,Free State,South Africa,-28.5423693,28.8136966
Thaba Bosiu,-------,9869,Witsieshoek,Lejweleputswa,Free State,South Africa,-28.58824,28.8684187
Thababusiho,-------,9869,Witsieshoek,Thabo Mofutsanyane,Free State,South Africa,-28.58824,28.8684187
Thabana Tshoana,-------,9869,Witsieshoek,Lejweleputswa,Free State,South Africa,-28.6177189,28.8101537
Thabana Tsoana,-------,9869,Witsieshoek,Thabo Mofutsanyane,Free State,South Africa,-28.6177189,28.8101537
Thibella,-------,9869,Witsieshoek,Thabo Mofutsanyane,Free State,South Africa,-28.6505647,28.8582239
Witsieshoek,9869,9870,Witsieshoek,Thabo Mofutsanyane,Free State,South Africa,-28.5530273,28.82472199999999
Bluegumbush,9870,9869,Phuthaditjhaba,Thabo Mofutsanyane,Free State,South Africa,-28.4802228,28.846936
Clubview,-------,9870,Witsieshoek,Thabo Mofutsanyane,Free State,South Africa,-28.5006995,28.8398351
Dithotaneng,9870,-------,Witsieshoek,Thabo Mofutsanyane,Free State,South Africa,-28.5457904,28.7751843
Makhalaneng,-------,9870,Makhalaneng,Thabo Mofutsanyane,Free State,South Africa,-28.5524271,28.79267
Mandela Park,-------,9870,Witsieshoek,Thabo Mofutsanyane,Free State,South Africa,-28.5310642,28.8313027
Mandelapark,-------,9870,Witsieshoek,Lejweleputswa,Free State,South Africa,-28.5310642,28.8313027
Pabalong,-------,9870,Witsieshoek,Thabo Mofutsanyane,Free State,South Africa,-28.5617951,28.7751843
Thabong,-------,9870,Witsieshoek,Lejweleputswa,Free State,South Africa,-27.9729194,26.7820548
Witsieshoek,9869,9870,Witsieshoek,Thabo Mofutsanyane,Free State,South Africa,-28.5530273,28.82472199999999
Dikgakeng,-------,9872,Dikgakeng,Thabo Mofutsanyane,Free State,South Africa,-28.5326689,28.8813223
Metsimatsho,-------,9873,Dikgakeng,Thabo Mofutsanyane,Free State,South Africa,-28.5326689,28.8813223
Poelong,9874,9874,Poelong,Thabo Mofutsanyane,Free State,South Africa,-28.5701437,28.7678981
Tseseng,-------,9875,Witsieshoek,Lejweleputswa,Free State,South Africa,-28.6280195,28.8585091
Tsheseng,-------,9875,Witsieshoek,Thabo Mofutsanyane,Free State,South Africa,-28.6280195,28.8585091
Diqhobong,-------,9876,Diqhobong,Thabo Mofutsanyane,Free State,South Africa,-28.5612469,28.8849839
Masechaba,-------,9877,Witsieshoek,Thabo Mofutsanyane,Free State,South Africa,-28.4732846,28.840664
Iketsetseng,-------,9878,Witsieshoek,Thabo Mofutsanyane,Free State,South Africa,-28.5530273,28.82472199999999
42nd Hill,-------,9880,Harrismith,Thabo Mofutsanyane,Free State,South Africa,-28.2476992,29.095444
Bergsig,9880,-------,Harrismith,Thabo Mofutsanyane,Free State,South Africa,-28.2752041,29.1434255
Harrismith,9880,9880,Harrismith,Thabo Mofutsanyane,Free State,South Africa,-28.2749996,29.1041691
Harrismith Ext 1,9880,-------,Harrismith,Thabo Mofutsanyane,Free State,South Africa,-28.2749996,29.1041691
Harrismith Ext 2,9880,-------,Harrismith,Thabo Mofutsanyane,Free State,South Africa,-28.2857011,29.1302966
Harrismith Uit 1,9880,-------,Harrismith,Thabo Mofutsanyane,Free State,South Africa,-28.2749996,29.1041691
Harrismith Uit 2,9880,-------,Harrismith,Thabo Mofutsanyane,Free State,South Africa,-28.2749996,29.1041691
Intabazwe,9880,-------,Harrismith,Thabo Mofutsanyane,Free State,South Africa,-28.2401818,29.1019879
Intabazwe Ext 1,9880,-------,Harrismith,Thabo Mofutsanyane,Free State,South Africa,-28.2401818,29.1019879
Phomolong,9880,-------,Harrismith,Thabo Mofutsanyane,Free State,South Africa,-28.0125302,27.0823502
Wilgerpark,9880,-------,Harrismith,Thabo Mofutsanyane,Free State,South Africa,-28.2899607,29.11434759999999
Verkykerskop,-------,9882,Harrismith,Thabo Mofutsanyane,Free State,South Africa,-27.916667,29.283333
Swinburne,-------,9883,Harrismith,Thabo Mofutsanyane,Free State,South Africa,-28.35,29.283333
Tsiame,-------,9885,Harrismith,Thabo Mofutsanyane,Free State,South Africa,-28.2999243,29.0081662
Ezenzeleni,9890,-------,Warden,Thabo Mofutsanyane,Free State,South Africa,-27.8389572,28.9746965
Warden,9890,9890,Warden,Thabo Mofutsanyane,Free State,South Africa,-27.8626822,28.9703304
Matoporong,9904,9904,Reddersburg,Xhariep,Free State,South Africa,-29.6527175,26.1610531
Reddersburg,9904,9904,Reddersburg,Xhariep,Free State,South Africa,-29.6562102,26.1891142
Edenburg,9908,9908,Edenburg,Xhariep,Free State,South Africa,-29.7258531,25.9349737
Edenhoogte,9908,9908,Edenburg,Xhariep,Free State,South Africa,-29.7234723,25.9382998
Hara Sebei,9908,9908,Edenburg,Xhariep,Free State,South Africa,-29.7258531,25.9349737
Madikgetla,9913,9913,Trompsburg,Xhariep,Free State,South Africa,-30.0263293,25.7797078
Noordmanville,9913,9913,Trompsburg,Xhariep,Free State,South Africa,-30.0216654,25.7730515
Sunset View,9913,9913,Trompsburg,Xhariep,Free State,South Africa,-30.0336296,25.7797302
Sunsetvion,9913,-------,Trompsburg,Xhariep,Free State,South Africa,-30.0336296,25.7797302
Trompsburg,9913,9913,Trompsburg,Xhariep,Free State,South Africa,-30.0336296,25.7797302
Maphodi,9917,9917,Springfontein,Xhariep,Free State,South Africa,-30.2599147,25.7175764
Springfontein,9917,9917,Springfontein,Xhariep,Free State,South Africa,-30.2557752,25.692424
Williamville,-------,9917,Springfontein,Xhariep,Free State,South Africa,-30.2497818,25.7146174
Zwelitsha,9917,9917,Springfontein,Xhariep,Free State,South Africa,-32.9184606,27.4262714
De Brug,9928,9928,Bloemfontein,Motheo,Free State,South Africa,-29.15,25.816667
Bolokanang,9932,9932,Petrusburg,Xhariep,Free State,South Africa,-29.129845,25.4215244
Petrusburg,9932,9932,Petrusburg,Xhariep,Free State,South Africa,-29.1191326,25.4141193
Dewetsdorp,9940,9940,Dewetsdorp,Motheo,Free State,South Africa,-29.5917671,26.667126
Morojaneng,9940,9940,Dewetsdorp,Motheo,Free State,South Africa,-29.5859023,26.6818638
Hoogte,9944,9944,Wepener,Northern Free State,Free State,South Africa,-29.7306839,27.0277566
Kanana,9944,9944,Wepener,Motheo,Free State,South Africa,-29.7293819,27.0205594
New Location,9944,9944,Wepener,Motheo,Free State,South Africa,-29.7293819,27.0205594
Nuwe Lokasie,9944,9944,Wepener,Motheo,Free State,South Africa,-29.7293819,27.0205594
Qibing,9944,9944,Wepener,Motheo,Free State,South Africa,-29.7190405,27.0249736
Wepener,9944,9944,Wepener,Motheo,Free State,South Africa,-29.7293819,27.0205594
Van Stadensrus,-------,9945,Zastron,Motheo,Free State,South Africa,-29.9847663,27.0029015
Itumeleng,9950,9950,Zastron,Xhariep,Free State,South Africa,-30.2949347,27.0970596
New Location,9950,9950,Zastron,Xhariep,Free State,South Africa,-30.2949347,27.0970596
Nuwe Lokasie,9950,9950,Zastron,Xhariep,Free State,South Africa,-30.2949347,27.0970596
Zastron,9950,9950,Zastron,Xhariep,Free State,South Africa,-30.2949347,27.0970596
Boesmanskop,-------,9951,Zastron,Xhariep,Free State,South Africa,-30.033333,27.116667
Rouxville,-------,9958,Rouxville,Xhariep,Free State,South Africa,-30.4164179,26.838024
Rweleletunya,-------,9958,Rouxville,Xhariep,Free State,South Africa,-30.4066884,26.827715
Bofula Tshepe,-------,9966,Smithfield,Xhariep,Free State,South Africa,-30.2015561,26.5255946
Rietpoort,9966,9966,Smithfield,Xhariep,Free State,South Africa,-30.2196349,26.5440282
Smithfield,9966,9966,Smithfield,Xhariep,Free State,South Africa,-30.2015561,26.5255946
Bergmanshoogte,9970,9970,Philippolis,Xhariep,Free State,South Africa,-30.2768812,25.2744978
Bersmanshoogte,9970,9970,Philippolis,Xhariep,Free State,South Africa,-30.2514772,25.2719048
Philippolis,9970,9970,Philippolis,Xhariep,Free State,South Africa,-30.2514772,25.2719048
Poding Tse Rollo,9970,9970,Philippolis,Xhariep,Free State,South Africa,-30.2614723,25.282276800000002
Charlesville,9974,-------,Jagersfontein,Xhariep,Free State,South Africa,-29.7814433,25.4355938
Itumeleng,-------,9974,Jagersfontein,Xhariep,Free State,South Africa,-29.7747421,25.4452197
Jagersfontein,9974,9974,Jagersfontein,Xhariep,Free State,South Africa,-29.765758,25.4363342
Mosenthalville,-------,9974,Jagersfontein,Xhariep,Free State,South Africa,-29.7650559,25.4315211
Fauresmith,9978,9978,Fauresmith,Xhariep,Free State,South Africa,-29.7450803,25.319317
Ipopeng,9978,9978,Fauresmith,Xhariep,Free State,South Africa,-29.7392263,25.3148724
Vrayville,-------,9978,Fauresmith,Xhariep,Free State,South Africa,-29.7373609,25.3007974
Luckhoff,9982,9982,Luckhoff,Xhariep,Free State,South Africa,-29.7418892,24.7973983
Relebohile,9986,9982,Luckhoff,Xhariep,Free State,South Africa,-29.7429551,24.7818173
Teisiesville,-------,9982,Luckhoff,Xhariep,Free State,South Africa,-29.7418892,24.7973983
Diamanthoogte,9986,-------,Koffiefontein,Xhariep,Free State,South Africa,-29.3993637,24.9880237
Dithlake,-------,9986,Koffiefontein,Xhariep,Free State,South Africa,-29.3860244,24.9902482
Ditlake,-------,9986,Koffiefontein,Xhariep,Free State,South Africa,-29.3860244,24.9902482
Ditlhake,-------,9986,Koffiefontein,Xhariep,Free State,South Africa,-29.3860244,24.9902482
Koffiefontein,9986,9986,Koffiefontein,Xhariep,Free State,South Africa,-29.3860244,24.9902482
Mandela Square,9986,-------,Koffiefontein,Xhariep,Free State,South Africa,-29.3860244,24.9902482
Relebohile,9986,9982,Luckhoff,Xhariep,Free State,South Africa,-29.7429551,24.7818173
Stocks And Stocks,9986,-------,Koffiefontein,Xhariep,Free State,South Africa,-29.3860244,24.9902482
Stocks And Stocks Ext 4,9986,-------,Koffiefontein,Xhariep,Free State,South Africa,-29.3860244,24.9902482
Stocks And Stocks Uit 4,9986,-------,Koffiefontein,Xhariep,Free State,South Africa,-29.3860244,24.9902482
Oppermans,-------,9987,Koffiefontein,Xhariep,Free State,South Africa,-29.3860244,24.9902482
Bethulie,9992,9992,Bethulie,Xhariep,Free State,South Africa,-30.511242,25.9822747
Cloetes Park,-------,9992,Bethulie,Xhariep,Free State,South Africa,-30.511242,25.9822747
Lephoi,9992,9992,Bethulie,Xhariep,Free State,South Africa,-30.5106501,25.9756235
Pelandaba,9992,9992,Bethulie,Xhariep,Free State,South Africa,-30.511242,25.9822747
