Location,Street_code,Box_code,Area,Municipality,Province,Country,Lat,Lon
Marapyane,-------,0431,Skilpadfontein,Nkangala,Mpumalanga,South Africa,-25.016667,28.8
Mametlhake,0432,0432,Bamokgoko,Nkangala,Mpumalanga,South Africa,-25.10332,28.53537
Nokaneng,-------,0435,Hammanskraal,Nkangala,Mpumalanga,South Africa,-25.4065999,28.28982
Empumalanga,-------,0458,Empumalanga,Ehlanzeni,Mpumalanga,South Africa,-25.3075311,28.9469463
Kuli,-------,0458,Kuli,Ehlanzeni,Mpumalanga,South Africa,-25.565336,30.5279096
Kwaggafontein,-------,0458,Empumalanga,Nkangala,Mpumalanga,South Africa,-25.263442,28.9586867
Verena,-------,0458,Verena,Ehlanzeni,Mpumalanga,South Africa,-25.4863198,29.0139863
Mthambothini,-------,0462,Siyabuswa,Nkangala,Mpumalanga,South Africa,-25.1099506,29.0714805
Buthi,-------,0469,Siyabuswa,Nkangala,Mpumalanga,South Africa,-25.1099506,29.0714805
Guguletu,-------,0472,Siyabuswa,Nkangala,Mpumalanga,South Africa,-33.98201840000001,18.5670952
Kwa Phahla,-------,0472,Siyabuswa,Nkangala,Mpumalanga,South Africa,-25.1433239,29.0488724
Sunset Supermarket,-------,0472,Siyabuswa,Nkangala,Mpumalanga,South Africa,-25.1152059,29.0573845
Thaband Village,-------,0472,Siyabuswa,Nkangala,Mpumalanga,South Africa,-25.1099506,29.0714805
Weltevrede,-------,0472,Siyabuswa,Nkangala,Mpumalanga,South Africa,NA,NA
Matjhirini,-------,0475,Siyabuswa,Nkangala,Mpumalanga,South Africa,-25.1099506,29.0714805
Walkraal B,-------,0477,Siyabuswa,Nkangala,Mpumalanga,South Africa,-25.1870689,29.0634479
Waterval A,-------,0477,Siyabuswa,Nkangala,Mpumalanga,South Africa,-25.1691997,29.0081662
Two Line,-------,0493,Siyabuswa,Nkangala,Mpumalanga,South Africa,-25.1099506,29.0714805
Makometsane,-------,0494,Siyabuswa,Nkangala,Mpumalanga,South Africa,-25.1155368,28.9368525
Ramokgeletsane,-------,0495,Siyabuswa,Nkangala,Mpumalanga,South Africa,-25.0695408,29.0198061
Moripe,-------,0496,Moripe,Nkangala,Mpumalanga,South Africa,-25.1445432,28.9382448
Klarinet,-------,1019,Witbank,Nkangala,Mpumalanga,South Africa,-25.84289,29.2015645
Kwamhlanga,1022,1022,Bronkhorstspruit,Nkangala,Mpumalanga,South Africa,-25.8084388,28.70813819999999
Lithuli Ext 3,1022,1022,Kwamhlanga,Nkangala,Mpumalanga,South Africa,-25.378457,28.7175395
Lithuli Uit 3,1022,1022,Kwamhlanga,Nkangala,Mpumalanga,South Africa,-25.378457,28.7175395
Mandela Village,1022,1022,Kwamhlanga,Nkangala,Mpumalanga,South Africa,-25.3869687,28.7060523
Phumula,-------,1022,Kwamhlanga,Nkangala,Mpumalanga,South Africa,-25.3575458,28.8229446
Thembalethu,1022,-------,Kwamhlanga,Nkangala,Mpumalanga,South Africa,NA,NA
Tweefontein,-------,1022,Kwamhlanga,Nkangala,Mpumalanga,South Africa,-25.3468559,28.8334623
Somarobogo,-------,1023,Kwamhlanga,Nkangala,Mpumalanga,South Africa,-25.3607861,28.8180215
Magologolo,-------,1030,Siyabuswa,Nkangala,Mpumalanga,South Africa,-28.7301369,30.9589496
Blackhill,-------,1032,Witbank,Nkangala,Mpumalanga,South Africa,-25.9094488,29.1406561
Coalville,-------,1033,Witbank,Nkangala,Mpumalanga,South Africa,-26.033333,29.166667
Blancheville,1034,-------,Witbank,Nkangala,Mpumalanga,South Africa,-25.8459427,29.2458803
Del Judor,1034,1044,Witbank,Nkangala,Mpumalanga,South Africa,-25.8989046,29.2466067
Del Judor Ext 1,1034,-------,Witbank,Nkangala,Mpumalanga,South Africa,-25.8989046,29.2466067
Del Judor Ext 12,1034,-------,Witbank,Nkangala,Mpumalanga,South Africa,-25.8989046,29.2466067
Del Judor Ext 17,1034,1035,Witbank,Nkangala,Mpumalanga,South Africa,-25.8989046,29.2466067
Del Judor Ext 23,1034,-------,Witbank,Nkangala,Mpumalanga,South Africa,-25.8989046,29.2466067
Del Judor Ext 3,1034,-------,Witbank,Nkangala,Mpumalanga,South Africa,-25.8989046,29.2466067
Del Judor Ext 4,1034,1044,Witbank,Nkangala,Mpumalanga,South Africa,-25.8989046,29.2466067
Del Judor Ext 5,1034,-------,Witbank,Nkangala,Mpumalanga,South Africa,-25.8989046,29.2466067
Del Judor Uit 1,1034,-------,Witbank,Nkangala,Mpumalanga,South Africa,-25.89347,29.23669
Del Judor Uit 12,1034,-------,Witbank,Nkangala,Mpumalanga,South Africa,-25.8989046,29.2466067
Del Judor Uit 17,1034,1035,Witbank,Nkangala,Mpumalanga,South Africa,-25.8989046,29.2466067
Del Judor Uit 23,1034,-------,Witbank,Nkangala,Mpumalanga,South Africa,-25.8989046,29.2466067
Del Judor Uit 3,1034,-------,Witbank,Nkangala,Mpumalanga,South Africa,-25.8989046,29.2466067
Del Judor Uit 4,1034,1044,Witbank,Nkangala,Mpumalanga,South Africa,-25.8989046,29.2466067
Del Judor Uit 5,1034,-------,Witbank,Nkangala,Mpumalanga,South Africa,-25.8989046,29.2466067
Die Heuwel,1034,1042,Witbank,Nkangala,Mpumalanga,South Africa,-25.8608626,29.2422483
Die Heuwel Ext 4,1034,-------,Witbank,Nkangala,Mpumalanga,South Africa,-25.8608626,29.2422483
Die Heuwel Uit 4,1034,-------,Witbank,Nkangala,Mpumalanga,South Africa,-25.8608626,29.2422483
Duvha Park,1034,-------,Witbank,Nkangala,Mpumalanga,South Africa,-25.9350146,29.2291726
Duvha Park Ext 2,1034,1035,Witbank,Nkangala,Mpumalanga,South Africa,-25.9467047,29.2504683
Duvha Park Uit 2,1034,1035,Witbank,Nkangala,Mpumalanga,South Africa,-25.9350146,29.2291726
Eden Park,1034,-------,Witbank,Nkangala,Mpumalanga,South Africa,-25.88741,29.22226
Emalahleni Ext 1,1034,-------,Witbank,Nkangala,Mpumalanga,South Africa,-25.8727817,29.2553229
Emalahleni Ext 10,1034,-------,Witbank,Nkangala,Mpumalanga,South Africa,-25.9150057,29.2360738
Emalahleni Ext 12,1034,-------,Witbank,Nkangala,Mpumalanga,South Africa,-25.9150057,29.2360738
Emalahleni Ext 16,1034,-------,Witbank,Nkangala,Mpumalanga,South Africa,-25.9147795,29.2318444
Emalahleni Ext 17,1034,1034,Witbank,Nkangala,Mpumalanga,South Africa,-25.9150057,29.2360738
Emalahleni Ext 18,1034,-------,Witbank,Nkangala,Mpumalanga,South Africa,-25.9150057,29.2360738
Emalahleni Ext 2,1034,-------,Witbank,Nkangala,Mpumalanga,South Africa,-25.8727817,29.2553229
Emalahleni Ext 20,1034,-------,Witbank,Nkangala,Mpumalanga,South Africa,-25.9150057,29.2360738
Emalahleni Ext 23,1034,-------,Witbank,Nkangala,Mpumalanga,South Africa,-25.9150057,29.2360738
Emalahleni Ext 25,1034,-------,Witbank,Nkangala,Mpumalanga,South Africa,-25.9150057,29.2360738
Emalahleni Ext 3,1034,-------,Witbank,Nkangala,Mpumalanga,South Africa,-25.8999816,29.1293566
Emalahleni Ext 4,1034,-------,Witbank,Nkangala,Mpumalanga,South Africa,-25.9150057,29.2360738
Emalahleni Ext 41,1034,1035,Witbank,Nkangala,Mpumalanga,South Africa,-25.9150057,29.2360738
Emalahleni Ext 49,1034,1035,Witbank,Nkangala,Mpumalanga,South Africa,-25.9150057,29.2360738
Emalahleni Ext 5,1034,-------,Witbank,Nkangala,Mpumalanga,South Africa,-25.9150057,29.2360738
Emalahleni Ext 60,1034,-------,Witbank,Nkangala,Mpumalanga,South Africa,-25.9150057,29.2360738
Emalahleni Ext 8,1034,-------,Witbank,Nkangala,Mpumalanga,South Africa,-25.9150057,29.2360738
Emalahleni Ext 9,1034,-------,Witbank,Nkangala,Mpumalanga,South Africa,-25.9150057,29.2360738
Emalahleni North,1034,1072,Witbank,Nkangala,Mpumalanga,South Africa,-25.8727817,29.2553229
Emalahleni Uit 1,1034,-------,Witbank,Nkangala,Mpumalanga,South Africa,-25.9146378,29.2341902
Emalahleni Uit 10,1034,-------,Witbank,Nkangala,Mpumalanga,South Africa,-25.8727817,29.2553229
Emalahleni Uit 12,1034,-------,Witbank,Nkangala,Mpumalanga,South Africa,-25.8727817,29.2553229
Emalahleni Uit 16,1034,-------,Witbank,Nkangala,Mpumalanga,South Africa,-25.8727817,29.2553229
Emalahleni Uit 17,1034,1034,Witbank,Nkangala,Mpumalanga,South Africa,-25.8727817,29.2553229
Emalahleni Uit 18,1034,-------,Witbank,Nkangala,Mpumalanga,South Africa,-25.8727817,29.2553229
Emalahleni Uit 2,1034,-------,Witbank,Nkangala,Mpumalanga,South Africa,-25.8727817,29.2553229
Emalahleni Uit 20,1034,-------,Witbank,Nkangala,Mpumalanga,South Africa,-25.8727817,29.2553229
Emalahleni Uit 23,1034,-------,Witbank,Nkangala,Mpumalanga,South Africa,-25.8727817,29.2553229
Emalahleni Uit 25,1034,-------,Witbank,Nkangala,Mpumalanga,South Africa,-25.8727817,29.2553229
Emalahleni Uit 3,1034,-------,Witbank,Nkangala,Mpumalanga,South Africa,-25.8727817,29.2553229
Emalahleni Uit 4,1034,-------,Witbank,Nkangala,Mpumalanga,South Africa,-25.8727817,29.2553229
Emalahleni Uit 41,1034,1035,Witbank,Nkangala,Mpumalanga,South Africa,-25.8727817,29.2553229
Emalahleni Uit 49,1034,1035,Witbank,Nkangala,Mpumalanga,South Africa,-25.8727817,29.2553229
Emalahleni Uit 5,1034,-------,Witbank,Nkangala,Mpumalanga,South Africa,-25.8727817,29.2553229
Emalahleni Uit 60,1034,-------,Witbank,Nkangala,Mpumalanga,South Africa,-25.8727817,29.2553229
Emalahleni Uit 8,1034,-------,Witbank,Nkangala,Mpumalanga,South Africa,-25.8727817,29.2553229
Emalahleni Uit 9,1034,-------,Witbank,Nkangala,Mpumalanga,South Africa,-25.8727817,29.2553229
Emalahleni-noord,1034,1072,Witbank,Nkangala,Mpumalanga,South Africa,-25.8727817,29.2553229
Fransville,1034,-------,Witbank,Nkangala,Mpumalanga,South Africa,-25.8754002,29.2418851
Hoeveld Park,1034,-------,Witbank,Nkangala,Mpumalanga,South Africa,-25.8561394,29.2698489
Klarinet Ext 6,1034,1035,Witbank,Nkangala,Mpumalanga,South Africa,-25.8238612,29.217564
Klarinet Uit 6,1034,1035,Witbank,Nkangala,Mpumalanga,South Africa,-25.84289,29.2015645
Klipfontein,1034,-------,Witbank,Nkangala,Mpumalanga,South Africa,-25.8727817,29.2553229
Klipfontein Ext 16,1034,1034,Witbank,Nkangala,Mpumalanga,South Africa,-25.8727817,29.2553229
Klipfontein Ext 41,1034,-------,Witbank,Nkangala,Mpumalanga,South Africa,-25.9150057,29.2360738
Klipfontein Ext 8,1034,-------,Witbank,Nkangala,Mpumalanga,South Africa,-25.8727817,29.2553229
Klipfontein Uit 16,1034,1034,Witbank,Nkangala,Mpumalanga,South Africa,-25.8727817,29.2553229
Klipfontein Uit 41,1034,-------,Witbank,Nkangala,Mpumalanga,South Africa,-25.8727817,29.2553229
Klipfontein Uit 8,1034,-------,Witbank,Nkangala,Mpumalanga,South Africa,-25.8727817,29.2553229
Leraatsfontein,1034,1038,Witbank,Nkangala,Mpumalanga,South Africa,-25.898981,29.2342206
Lynnville,1034,-------,Witbank,Nkangala,Mpumalanga,South Africa,-25.8777283,29.1899385
Lynnville Ext,1034,-------,Witbank,Nkangala,Mpumalanga,South Africa,-25.8777283,29.1899385
Lynnville Uit,1034,-------,Witbank,Nkangala,Mpumalanga,South Africa,-25.8777283,29.1899385
Modelpark,1034,-------,Witbank,Nkangala,Mpumalanga,South Africa,-25.8730341,29.2480594
Schoongezicht,1034,-------,Witbank,Nkangala,Mpumalanga,South Africa,-25.8852171,29.1833985
Tasbet Park,1034,1040,Witbank,Nkangala,Mpumalanga,South Africa,-25.9252816,29.2306255
Tasbet Park Ext,1034,1040,Witbank,Nkangala,Mpumalanga,South Africa,-25.9252816,29.2306255
Tasbet Park Ext 1,1034,1040,Witbank,Nkangala,Mpumalanga,South Africa,-25.9317983,29.2448561
Tasbet Park Ext 12,1034,1035,Witbank,Nkangala,Mpumalanga,South Africa,-25.9252816,29.2306255
Tasbet Park Ext 2,1034,1040,Witbank,Nkangala,Mpumalanga,South Africa,-25.9252816,29.2306255
Tasbet Park Ext 3,1034,1040,Witbank,Nkangala,Mpumalanga,South Africa,-25.9252816,29.2306255
Tasbet Park Ext 6,1034,-------,Witbank,Nkangala,Mpumalanga,South Africa,-25.9317983,29.2448561
Tasbet Park Uit,1034,1040,Witbank,Nkangala,Mpumalanga,South Africa,-25.9252816,29.2306255
Tasbet Park Uit 1,1034,1040,Witbank,Nkangala,Mpumalanga,South Africa,-25.9252816,29.2306255
Tasbet Park Uit 12,1034,1035,Witbank,Nkangala,Mpumalanga,South Africa,-25.9252816,29.2306255
Tasbet Park Uit 2,1034,1040,Witbank,Nkangala,Mpumalanga,South Africa,-25.9252816,29.2306255
Tasbet Park Uit 3,1034,1040,Witbank,Nkangala,Mpumalanga,South Africa,-25.9252816,29.2306255
Tasbet Park Uit 6,1034,-------,Witbank,Nkangala,Mpumalanga,South Africa,-25.9252816,29.2306255
Thushanang,1034,-------,Witbank,Nkangala,Mpumalanga,South Africa,-25.8735679,29.1935717
Ventral Gardens,1034,-------,Witbank,Nkangala,Mpumalanga,South Africa,-25.8727817,29.2553229
Vosman,1034,-------,Witbank,Nkangala,Mpumalanga,South Africa,-25.8670628,29.1276741
Witbank,1034,-------,Witbank,Nkangala,Mpumalanga,South Africa,-25.8727817,29.2553229
Witbank Ext 1,1034,-------,Witbank,Nkangala,Mpumalanga,South Africa,-25.9150057,29.2360738
Witbank Ext 10,1034,-------,Witbank,Nkangala,Mpumalanga,South Africa,-25.9150057,29.2360738
Witbank Ext 12,1034,-------,Witbank,Nkangala,Mpumalanga,South Africa,-25.9150057,29.2360738
Witbank Ext 16,1034,-------,Witbank,Nkangala,Mpumalanga,South Africa,-25.9150057,29.2360738
Witbank Ext 17,1034,1034,Witbank,Nkangala,Mpumalanga,South Africa,-25.9150057,29.2360738
Witbank Ext 18,1034,-------,Witbank,Nkangala,Mpumalanga,South Africa,-25.9150057,29.2360738
Witbank Ext 2,1034,-------,Witbank,Nkangala,Mpumalanga,South Africa,-25.9150057,29.2360738
Witbank Ext 20,1034,-------,Witbank,Nkangala,Mpumalanga,South Africa,-25.9150057,29.2360738
Witbank Ext 23,1034,-------,Witbank,Nkangala,Mpumalanga,South Africa,-25.9150057,29.2360738
Witbank Ext 25,1034,-------,Witbank,Nkangala,Mpumalanga,South Africa,-25.9150057,29.2360738
Witbank Ext 3,1034,-------,Witbank,Nkangala,Mpumalanga,South Africa,-25.9150057,29.2360738
Witbank Ext 4,1034,-------,Witbank,Nkangala,Mpumalanga,South Africa,-25.9150057,29.2360738
Witbank Ext 41,1034,1035,Witbank,Nkangala,Mpumalanga,South Africa,-25.9150057,29.2360738
Witbank Ext 5,1034,-------,Witbank,Nkangala,Mpumalanga,South Africa,-25.9150057,29.2360738
Witbank Ext 60,1034,-------,Witbank,Nkangala,Mpumalanga,South Africa,-25.9150057,29.2360738
Witbank Ext 8,1034,-------,Witbank,Nkangala,Mpumalanga,South Africa,-25.9150057,29.2360738
Witbank Ext 9,1034,-------,Witbank,Nkangala,Mpumalanga,South Africa,-25.9150057,29.2360738
Witbank North,1034,1072,Witbank,Nkangala,Mpumalanga,South Africa,-25.8727817,29.2553229
Witbank Uit 1,1034,-------,Witbank,Nkangala,Mpumalanga,South Africa,-25.8802223,29.2191857
Witbank Uit 10,1034,-------,Witbank,Nkangala,Mpumalanga,South Africa,-25.8727817,29.2553229
Witbank Uit 12,1034,-------,Witbank,Nkangala,Mpumalanga,South Africa,-25.8727817,29.2553229
Witbank Uit 16,1034,-------,Witbank,Nkangala,Mpumalanga,South Africa,-25.8727817,29.2553229
Witbank Uit 17,1034,1034,Witbank,Nkangala,Mpumalanga,South Africa,-25.8727817,29.2553229
Witbank Uit 18,1034,-------,Witbank,Nkangala,Mpumalanga,South Africa,-25.8727817,29.2553229
Witbank Uit 2,1034,-------,Witbank,Nkangala,Mpumalanga,South Africa,-25.8727817,29.2553229
Witbank Uit 20,1034,-------,Witbank,Nkangala,Mpumalanga,South Africa,-25.8727817,29.2553229
Witbank Uit 23,1034,-------,Witbank,Nkangala,Mpumalanga,South Africa,-25.8727817,29.2553229
Witbank Uit 25,1034,-------,Witbank,Nkangala,Mpumalanga,South Africa,-25.8727817,29.2553229
Witbank Uit 3,1034,-------,Witbank,Nkangala,Mpumalanga,South Africa,-25.8727817,29.2553229
Witbank Uit 4,1034,-------,Witbank,Nkangala,Mpumalanga,South Africa,-25.8727817,29.2553229
Witbank Uit 41,1034,1035,Witbank,Nkangala,Mpumalanga,South Africa,-25.8727817,29.2553229
Witbank Uit 5,1034,-------,Witbank,Nkangala,Mpumalanga,South Africa,-25.8727817,29.2553229
Witbank Uit 60,1034,-------,Witbank,Nkangala,Mpumalanga,South Africa,-25.8727817,29.2553229
Witbank Uit 8,1034,-------,Witbank,Nkangala,Mpumalanga,South Africa,-25.8727817,29.2553229
Witbank Uit 9,1034,-------,Witbank,Nkangala,Mpumalanga,South Africa,-25.8727817,29.2553229
Witbank-Noord,1034,1072,Witbank,Nkangala,Mpumalanga,South Africa,-25.8866002,29.2291726
Bankenveld,-------,1035,Witbank,Nkangala,Mpumalanga,South Africa,-25.9064011,29.301075
Del Judor Ext 17,1034,1035,Witbank,Nkangala,Mpumalanga,South Africa,-25.8989046,29.2466067
Del Judor Uit 17,1034,1035,Witbank,Nkangala,Mpumalanga,South Africa,-25.8989046,29.2466067
Duvha Park Ext 2,1034,1035,Witbank,Nkangala,Mpumalanga,South Africa,-25.9467047,29.2504683
Duvha Park Uit 2,1034,1035,Witbank,Nkangala,Mpumalanga,South Africa,-25.9350146,29.2291726
Emalahleni Ext 41,1034,1035,Witbank,Nkangala,Mpumalanga,South Africa,-25.9150057,29.2360738
Emalahleni Ext 49,1034,1035,Witbank,Nkangala,Mpumalanga,South Africa,-25.9150057,29.2360738
Emalahleni Ext 7,1039,1035,Witbank,Nkangala,Mpumalanga,South Africa,-25.9150057,29.2360738
Emalahleni Uit 41,1034,1035,Witbank,Nkangala,Mpumalanga,South Africa,-25.8727817,29.2553229
Emalahleni Uit 49,1034,1035,Witbank,Nkangala,Mpumalanga,South Africa,-25.8727817,29.2553229
Emalahleni Uit 7,1039,1035,Witbank,Nkangala,Mpumalanga,South Africa,-25.8727817,29.2553229
Jackaroo Park,1035,1035,Witbank,Nkangala,Mpumalanga,South Africa,-25.836653,29.2422483
Jackaroopark,1035,1035,Witbank,Nkangala,Mpumalanga,South Africa,-25.836653,29.2422483
Klarinet Ext 3,1039,1035,Witbank,Nkangala,Mpumalanga,South Africa,-25.84289,29.2015645
Klarinet Ext 4,1039,1035,Witbank,Nkangala,Mpumalanga,South Africa,-25.84289,29.2015645
Klarinet Ext 6,1034,1035,Witbank,Nkangala,Mpumalanga,South Africa,-25.8238612,29.217564
Klarinet Uit 3,1039,1035,Witbank,Nkangala,Mpumalanga,South Africa,-25.84289,29.2015645
Klarinet Uit 4,1039,1035,Witbank,Nkangala,Mpumalanga,South Africa,-25.84289,29.2015645
Klarinet Uit 6,1034,1035,Witbank,Nkangala,Mpumalanga,South Africa,-25.84289,29.2015645
Randal Ridge,1035,1035,Witbank,Nkangala,Mpumalanga,South Africa,-25.886154,29.267527
Randalrif,1035,1035,Witbank,Nkangala,Mpumalanga,South Africa,-25.8727817,29.2553229
Tasbet Park Ext 12,1034,1035,Witbank,Nkangala,Mpumalanga,South Africa,-25.9252816,29.2306255
Tasbet Park Uit 12,1034,1035,Witbank,Nkangala,Mpumalanga,South Africa,-25.9252816,29.2306255
Witbank Ext 41,1034,1035,Witbank,Nkangala,Mpumalanga,South Africa,-25.9150057,29.2360738
Witbank Ext 7,1039,1035,Witbank,Nkangala,Mpumalanga,South Africa,-25.9150057,29.2360738
Witbank Uit 41,1034,1035,Witbank,Nkangala,Mpumalanga,South Africa,-25.8727817,29.2553229
Witbank Uit 7,1039,1035,Witbank,Nkangala,Mpumalanga,South Africa,-25.8727817,29.2553229
Clewer,-------,1036,Witbank,Nkangala,Mpumalanga,South Africa,-25.9066199,29.131795
Balmoral,-------,1037,Witbank,Nkangala,Mpumalanga,South Africa,-25.866667,28.966667
Leraatsfontein,1034,1038,Witbank,Nkangala,Mpumalanga,South Africa,-25.898981,29.2342206
Ackerville,1039,1039,Witbank,Nkangala,Mpumalanga,South Africa,-25.8711789,29.1768582
Emalahleni,1039,1039,Witbank,Nkangala,Mpumalanga,South Africa,-25.8727817,29.2553229
Emalahleni Ext 7,1039,1035,Witbank,Nkangala,Mpumalanga,South Africa,-25.9150057,29.2360738
Emalahleni Uit 7,1039,1035,Witbank,Nkangala,Mpumalanga,South Africa,-25.8727817,29.2553229
Hlalanikahle,1039,1045,Witbank,Nkangala,Mpumalanga,South Africa,-25.8408399,29.1187097
Klarinet Ext 3,1039,1035,Witbank,Nkangala,Mpumalanga,South Africa,-25.84289,29.2015645
Klarinet Ext 4,1039,1035,Witbank,Nkangala,Mpumalanga,South Africa,-25.84289,29.2015645
Klarinet Uit 3,1039,1035,Witbank,Nkangala,Mpumalanga,South Africa,-25.84289,29.2015645
Klarinet Uit 4,1039,1035,Witbank,Nkangala,Mpumalanga,South Africa,-25.84289,29.2015645
Kwaguqa Ext 1,1039,1039,Witbank,Nkangala,Mpumalanga,South Africa,-25.9150057,29.2360738
Kwaguqa Ext 11,1039,1039,Witbank,Nkangala,Mpumalanga,South Africa,-25.8599178,29.1034647
Kwaguqa Ext 14,1039,1045,Witbank,Nkangala,Mpumalanga,South Africa,-25.9150057,29.2360738
Kwaguqa Ext 16,1039,1039,Witbank,Nkangala,Mpumalanga,South Africa,-25.9147795,29.2318444
Kwaguqa Ext 18,1039,1039,Witbank,Nkangala,Mpumalanga,South Africa,-25.9150057,29.2360738
Kwaguqa Ext 2,1039,1039,Witbank,Nkangala,Mpumalanga,South Africa,-25.9150057,29.2360738
Kwaguqa Ext 4,1039,1039,Witbank,Nkangala,Mpumalanga,South Africa,-25.8553713,29.1222475
Kwaguqa Uit 1,1039,1039,Witbank,Nkangala,Mpumalanga,South Africa,-25.8623772,29.1187097
Kwaguqa Uit 11,1039,1039,Witbank,Nkangala,Mpumalanga,South Africa,-25.8623772,29.1187097
Kwaguqa Uit 14,1039,1045,Witbank,Nkangala,Mpumalanga,South Africa,-25.8623772,29.1187097
Kwaguqa Uit 16,1039,1039,Witbank,Nkangala,Mpumalanga,South Africa,-25.8623772,29.1187097
Kwaguqa Uit 18,1039,1039,Witbank,Nkangala,Mpumalanga,South Africa,-25.8623772,29.1187097
Kwaguqa Uit 2,1039,1039,Witbank,Nkangala,Mpumalanga,South Africa,-25.8623772,29.1187097
Kwaguqa Uit 4,1039,1039,Witbank,Nkangala,Mpumalanga,South Africa,-25.8623772,29.1187097
Witbank Ext 7,1039,1035,Witbank,Nkangala,Mpumalanga,South Africa,-25.9150057,29.2360738
Witbank Uit 7,1039,1035,Witbank,Nkangala,Mpumalanga,South Africa,-25.8727817,29.2553229
Zwelihle,-------,1039,Witbank,Nkangala,Mpumalanga,South Africa,-34.4310248,19.2147632
Tasbet Park,1034,1040,Witbank,Nkangala,Mpumalanga,South Africa,-25.9252816,29.2306255
Tasbet Park Ext,1034,1040,Witbank,Nkangala,Mpumalanga,South Africa,-25.9252816,29.2306255
Tasbet Park Ext 1,1034,1040,Witbank,Nkangala,Mpumalanga,South Africa,-25.9317983,29.2448561
Tasbet Park Ext 2,1034,1040,Witbank,Nkangala,Mpumalanga,South Africa,-25.9252816,29.2306255
Tasbet Park Ext 3,1034,1040,Witbank,Nkangala,Mpumalanga,South Africa,-25.9252816,29.2306255
Tasbet Park Uit,1034,1040,Witbank,Nkangala,Mpumalanga,South Africa,-25.9252816,29.2306255
Tasbet Park Uit 1,1034,1040,Witbank,Nkangala,Mpumalanga,South Africa,-25.9252816,29.2306255
Tasbet Park Uit 2,1034,1040,Witbank,Nkangala,Mpumalanga,South Africa,-25.9252816,29.2306255
Tasbet Park Uit 3,1034,1040,Witbank,Nkangala,Mpumalanga,South Africa,-25.9252816,29.2306255
Die Heuwel,1034,1042,Witbank,Nkangala,Mpumalanga,South Africa,-25.8608626,29.2422483
River Crescent,-------,1042,Witbank,Nkangala,Mpumalanga,South Africa,-25.87696,29.2474726
Staalveld,-------,1043,Witbank,Nkangala,Mpumalanga,South Africa,-25.8727817,29.2553229
Del Judor,1034,1044,Witbank,Nkangala,Mpumalanga,South Africa,-25.8989046,29.2466067
Del Judor Ext,-------,1044,Witbank,Nkangala,Mpumalanga,South Africa,-25.8989046,29.2466067
Del Judor Ext 11,1044,-------,Witbank,Nkangala,Mpumalanga,South Africa,-25.8989046,29.2466067
Del Judor Ext 2,-------,1044,Witbank,Nkangala,Mpumalanga,South Africa,-25.8989046,29.2466067
Del Judor Ext 4,1034,1044,Witbank,Nkangala,Mpumalanga,South Africa,-25.8989046,29.2466067
Del Judor Uit,-------,1044,Witbank,Nkangala,Mpumalanga,South Africa,-25.8989046,29.2466067
Del Judor Uit 11,1044,-------,Witbank,Nkangala,Mpumalanga,South Africa,-25.8989046,29.2466067
Del Judor Uit 2,-------,1044,Witbank,Nkangala,Mpumalanga,South Africa,-25.8989046,29.2466067
Del Judor Uit 4,1034,1044,Witbank,Nkangala,Mpumalanga,South Africa,-25.8989046,29.2466067
Hlalanikahle,1039,1045,Witbank,Nkangala,Mpumalanga,South Africa,-25.8408399,29.1187097
Hlalanikahle Ext 2,1045,1045,Witbank,Nkangala,Mpumalanga,South Africa,-25.8408399,29.1187097
Hlalanikahle Ext 3,1045,1045,Witbank,Nkangala,Mpumalanga,South Africa,-25.8408399,29.1187097
Hlalanikahle Ext 4,1045,1045,Witbank,Nkangala,Mpumalanga,South Africa,-25.8408399,29.1187097
Hlalanikahle Uit 2,1045,1045,Witbank,Nkangala,Mpumalanga,South Africa,-25.8408399,29.1187097
Hlalanikahle Uit 3,1045,1045,Witbank,Nkangala,Mpumalanga,South Africa,-25.8408399,29.1187097
Hlalanikahle Uit 4,1045,1045,Witbank,Nkangala,Mpumalanga,South Africa,-25.8408399,29.1187097
Kwaguqa Ext 14,1039,1045,Witbank,Nkangala,Mpumalanga,South Africa,-25.9150057,29.2360738
Kwaguqa Uit 14,1039,1045,Witbank,Nkangala,Mpumalanga,South Africa,-25.8623772,29.1187097
Langkloof,-------,1046,Witbank,Nkangala,Mpumalanga,South Africa,-28.6339708,29.0838099
Sehlakwane,-------,1047,Witbank,Nkangala,Mpumalanga,South Africa,-25.1543569,29.7599761
Pine Ridge,-------,1048,Witbank,Nkangala,Mpumalanga,South Africa,-25.8186724,29.2015645
Reyno Ridge,1049,1049,Witbank,Nkangala,Mpumalanga,South Africa,-25.9083833,29.25241759999999
Reyno Ridge Ext,1049,1049,Witbank,Nkangala,Mpumalanga,South Africa,-25.9083833,29.25241759999999
Reyno Ridge Ext 1,1049,1049,Witbank,Nkangala,Mpumalanga,South Africa,-25.9083833,29.25241759999999
Reyno Ridge Ext 10,1049,-------,Witbank,Nkangala,Mpumalanga,South Africa,-25.9083833,29.25241759999999
Reyno Ridge Ext 11,1049,-------,Witbank,Nkangala,Mpumalanga,South Africa,-25.9083833,29.25241759999999
Reyno Ridge Ext 13,1049,-------,Witbank,Nkangala,Mpumalanga,South Africa,-25.9083833,29.25241759999999
Reyno Ridge Ext 2,1049,-------,Witbank,Nkangala,Mpumalanga,South Africa,-25.9083833,29.25241759999999
Reyno Ridge Ext 24,1049,1049,Witbank,Nkangala,Mpumalanga,South Africa,-25.9083833,29.25241759999999
Reyno Ridge Ext 3,1049,-------,Witbank,Nkangala,Mpumalanga,South Africa,-25.9083833,29.25241759999999
Reyno Ridge Ext 4,1049,-------,Witbank,Nkangala,Mpumalanga,South Africa,-25.9083833,29.25241759999999
Reyno Ridge Ext 5,1049,-------,Witbank,Nkangala,Mpumalanga,South Africa,-25.9083833,29.25241759999999
Reyno Ridge Ext 6,1049,-------,Witbank,Nkangala,Mpumalanga,South Africa,-25.8206848,29.2137028
Reyno Ridge Ext 7,1049,-------,Witbank,Nkangala,Mpumalanga,South Africa,-25.9083833,29.25241759999999
Reyno Ridge Ext 9,1049,-------,Witbank,Nkangala,Mpumalanga,South Africa,-25.9083833,29.25241759999999
Reynorif,1049,1049,Witbank,Nkangala,Mpumalanga,South Africa,-25.9117341,29.25034329999999
Reynorif Uit,1049,1049,Witbank,Nkangala,Mpumalanga,South Africa,-25.9117341,29.25034329999999
Reynorif Uit 1,1049,1049,Witbank,Nkangala,Mpumalanga,South Africa,-25.9117341,29.25034329999999
Reynorif Uit 10,1049,-------,Witbank,Nkangala,Mpumalanga,South Africa,-25.9117341,29.25034329999999
Reynorif Uit 11,1049,-------,Witbank,Nkangala,Mpumalanga,South Africa,-25.9117341,29.25034329999999
Reynorif Uit 13,1049,-------,Witbank,Nkangala,Mpumalanga,South Africa,-25.9117341,29.25034329999999
Reynorif Uit 2,1049,-------,Witbank,Nkangala,Mpumalanga,South Africa,-25.9117341,29.25034329999999
Reynorif Uit 24,1049,1049,Witbank,Nkangala,Mpumalanga,South Africa,-25.9117341,29.25034329999999
Reynorif Uit 3,1049,-------,Witbank,Nkangala,Mpumalanga,South Africa,-25.9117341,29.25034329999999
Reynorif Uit 4,1049,-------,Witbank,Nkangala,Mpumalanga,South Africa,-25.9117341,29.25034329999999
Reynorif Uit 5,1049,-------,Witbank,Nkangala,Mpumalanga,South Africa,-25.9083833,29.25241759999999
Reynorif Uit 6,1049,-------,Witbank,Nkangala,Mpumalanga,South Africa,-25.9117341,29.25034329999999
Reynorif Uit 7,1049,-------,Witbank,Nkangala,Mpumalanga,South Africa,-25.9117341,29.25034329999999
Reynorif Uit 9,1049,-------,Witbank,Nkangala,Mpumalanga,South Africa,-25.9117341,29.25034329999999
Clubville,-------,1050,Middelburg,Nkangala,Mpumalanga,South Africa,-25.7797101,29.4396967
Cromeville,-------,1050,Middelburg,Nkangala,Mpumalanga,South Africa,-25.769902,29.4639354
Dennesig,1055,1050,Middelburg,Nkangala,Mpumalanga,South Africa,-25.7360629,29.4730624
Eastdene,1055,1050,Middelburg,Nkangala,Mpumalanga,South Africa,-25.7721279,29.4861164
Gholfsig,1055,1050,Middelburg,Nkangala,Mpumalanga,South Africa,-25.765653,29.439087
Imbali,-------,1050,Middelburg,Nkangala,Mpumalanga,South Africa,-25.7466445,29.4309631
Kanhym Estate,-------,1050,Middelburg,Nkangala,Mpumalanga,South Africa,-25.7660909,29.4577991
Kanonkop,1055,1050,Middelburg,Gert Sibande,Mpumalanga,South Africa,-25.7468094,29.4730624
Middelburg,1055,1050,Mpumalanga,Nkangala,Mpumalanga,South Africa,-25.769902,29.4639354
Mineralia,1050,1050,Middelburg,Nkangala,Mpumalanga,South Africa,-25.7964492,29.4672602
Wonderpark,-------,1050,Middelburg,Nkangala,Mpumalanga,South Africa,-25.761968,29.455336
Arnot,-------,1051,Middelburg,Nkangala,Mpumalanga,South Africa,-25.95,29.8
Nasaret,1055,1052,Middelburg,Nkangala,Mpumalanga,South Africa,-25.7987055,29.5085956
Tosca,-------,1052,Nasaret,Nkangala,Mpumalanga,South Africa,-26,30
Twin City,-------,1052,Nasaret,Nkangala,Mpumalanga,South Africa,-26,30
Bosville,-------,1053,Middelburg,Nkangala,Mpumalanga,South Africa,-25.769902,29.4639354
Mhluzi,1055,1053,Middelburg,Nkangala,Mpumalanga,South Africa,-25.7570668,29.4266385
Mhluzi Ext 3,1055,1053,Middelburg,Nkangala,Mpumalanga,South Africa,-25.7593336,29.4195642
Mhluzi Ext 8,1055,1053,Middelburg,Nkangala,Mpumalanga,South Africa,-25.7593336,29.4195642
Mhluzi Uit 3,1055,1053,Middelburg,Nkangala,Mpumalanga,South Africa,-25.7570668,29.4266385
Mhluzi Uit 8,1055,1053,Middelburg,Nkangala,Mpumalanga,South Africa,-25.7570668,29.4266385
Selons River,-------,1054,Middelburg,Nkangala,Mpumalanga,South Africa,-25.7860719,29.450386
Selonsrivier,-------,1054,Middelburg,Nkangala,Mpumalanga,South Africa,-25.5558155,29.6112232
Aerorand,1055,1070,Middelburg,Nkangala,Mpumalanga,South Africa,-25.7962121,29.4440492
Dennesig,1055,1050,Middelburg,Nkangala,Mpumalanga,South Africa,-25.7360629,29.4730624
Eastdene,1055,1050,Middelburg,Nkangala,Mpumalanga,South Africa,-25.7721279,29.4861164
Garakgwadi,1055,1068,Middelburg,Nkangala,Mpumalanga,South Africa,-25.769902,29.4639354
Garakwadi,1055,1068,Middelburg,Nkangala,Mpumalanga,South Africa,-25.769902,29.4639354
Gholfsig,1055,1050,Middelburg,Nkangala,Mpumalanga,South Africa,-25.765653,29.439087
Hlalamnandi,1055,-------,Middelburg,Nkangala,Mpumalanga,South Africa,-25.769902,29.4639354
Kanonkop,1055,1050,Middelburg,Gert Sibande,Mpumalanga,South Africa,-25.7468094,29.4730624
Khalethu,1055,-------,Middelburg,Nkangala,Mpumalanga,South Africa,-25.769902,29.4639354
Mhluzi,1055,1053,Middelburg,Nkangala,Mpumalanga,South Africa,-25.7570668,29.4266385
Mhluzi Ext,1055,-------,Middelburg,Nkangala,Mpumalanga,South Africa,-25.7593336,29.4195642
Mhluzi Ext 1,1055,-------,Middelburg,Nkangala,Mpumalanga,South Africa,-25.7593336,29.4195642
Mhluzi Ext 2,1055,-------,Middelburg,Nkangala,Mpumalanga,South Africa,-25.7593336,29.4195642
Mhluzi Ext 3,1055,1053,Middelburg,Nkangala,Mpumalanga,South Africa,-25.7593336,29.4195642
Mhluzi Ext 4,1055,-------,Middelburg,Nkangala,Mpumalanga,South Africa,-25.7593336,29.4195642
Mhluzi Ext 5,1055,-------,Middelburg,Nkangala,Mpumalanga,South Africa,-25.7593336,29.4195642
Mhluzi Ext 7,1055,-------,Middelburg,Nkangala,Mpumalanga,South Africa,-25.7663324,29.4157896
Mhluzi Ext 8,1055,1053,Middelburg,Nkangala,Mpumalanga,South Africa,-25.7593336,29.4195642
Mhluzi Uit,1055,-------,Middelburg,Nkangala,Mpumalanga,South Africa,-25.7570668,29.4266385
Mhluzi Uit 1,1055,-------,Middelburg,Nkangala,Mpumalanga,South Africa,-25.7570668,29.4266385
Mhluzi Uit 2,1055,-------,Middelburg,Nkangala,Mpumalanga,South Africa,-25.7570668,29.4266385
Mhluzi Uit 3,1055,1053,Middelburg,Nkangala,Mpumalanga,South Africa,-25.7570668,29.4266385
Mhluzi Uit 4,1055,-------,Middelburg,Nkangala,Mpumalanga,South Africa,-25.7570668,29.4266385
Mhluzi Uit 5,1055,-------,Middelburg,Nkangala,Mpumalanga,South Africa,-25.7570668,29.4266385
Mhluzi Uit 7,1055,-------,Middelburg,Nkangala,Mpumalanga,South Africa,-25.7570668,29.4266385
Mhluzi Uit 8,1055,1053,Middelburg,Nkangala,Mpumalanga,South Africa,-25.7570668,29.4266385
Middelburg,1055,1050,Mpumalanga,Nkangala,Mpumalanga,South Africa,-25.769902,29.4639354
Middelburg Ext 1,1055,-------,Mpumalanga,Nkangala,Mpumalanga,South Africa,-25.769902,29.4639354
Middelburg Ext 2,1055,-------,Mpumalanga,Nkangala,Mpumalanga,South Africa,-25.769902,29.4639354
Middelburg Ext 3,1055,-------,Mpumalanga,Nkangala,Mpumalanga,South Africa,-25.769902,29.4639354
Middelburg Ext 4,1055,-------,Mpumalanga,Nkangala,Mpumalanga,South Africa,-25.769902,29.4639354
Middelburg Ext 5,1055,-------,Mpumalanga,Nkangala,Mpumalanga,South Africa,-25.769902,29.4639354
Middelburg Ext 6,1055,-------,Mpumalanga,Nkangala,Mpumalanga,South Africa,-25.769902,29.4639354
Middelburg South,1055,-------,Middelburg,Nkangala,Mpumalanga,South Africa,-25.769902,29.4639354
Middelburg Uit 1,1055,-------,Mpumalanga,Nkangala,Mpumalanga,South Africa,-25.769902,29.4639354
Middelburg Uit 2,1055,-------,Mpumalanga,Nkangala,Mpumalanga,South Africa,-25.769902,29.4639354
Middelburg Uit 3,1055,-------,Mpumalanga,Nkangala,Mpumalanga,South Africa,-25.769902,29.4639354
Middelburg Uit 4,1055,-------,Mpumalanga,Nkangala,Mpumalanga,South Africa,-25.769902,29.4639354
Middelburg Uit 5,1055,-------,Mpumalanga,Nkangala,Mpumalanga,South Africa,-25.769902,29.4639354
Middelburg Uit 6,1055,-------,Mpumalanga,Nkangala,Mpumalanga,South Africa,-25.769902,29.4639354
Middelburg-Suid,1055,-------,Middelburg,Nkangala,Mpumalanga,South Africa,-25.769902,29.4639354
Mountain View,1055,-------,Middelburg,Nkangala,Mpumalanga,South Africa,-25.7495637,29.4390188
Nasaret,1055,1052,Middelburg,Nkangala,Mpumalanga,South Africa,-25.7987055,29.5085956
Phumula,1055,-------,Middelburg,Nkangala,Mpumalanga,South Africa,-25.7670266,31.0177415
Rockville,1055,-------,Middelburg,Nkangala,Mpumalanga,South Africa,-25.769902,29.4639354
Thembisa,1055,-------,Middelburg,Nkangala,Mpumalanga,South Africa,-26.0092829,28.2181203
Vaalbank,1055,-------,Middelburg,Nkangala,Mpumalanga,South Africa,-25.769902,29.4639354
Stoffberg,-------,1056,Middelburg,Nkangala,Mpumalanga,South Africa,-25.4240247,29.8319025
Monsterus,-------,1057,Monsterus,Ehlanzeni,Mpumalanga,South Africa,-25.565336,30.5279096
Mpudulle,-------,1057,Nebo,Ehlanzeni,Mpumalanga,South Africa,-25.565336,30.5279096
Magopheng,-------,1059,Nebo,Ehlanzeni,Mpumalanga,South Africa,-24.9,29.766667
Mare,-------,1059,Mare,Ehlanzeni,Mpumalanga,South Africa,-25.4834292,30.9743917
Mmotwaneng,-------,1059,Nebo,Ehlanzeni,Mpumalanga,South Africa,-24.9277874,29.62238779999999
Nebo,-------,1059,Witbank,Nkangala,Mpumalanga,South Africa,-25.8727817,29.2553229
Ngwaritsi,-------,1059,Nebo,Ehlanzeni,Mpumalanga,South Africa,-24.9,29.766667
Phatantsoane,-------,1059,Nebo,Ehlanzeni,Mpumalanga,South Africa,-24.9,29.766667
Rietfontein,-------,1059,Nebo,Ehlanzeni,Mpumalanga,South Africa,-25.7090736,28.2204987
Garakgwadi,1055,1068,Middelburg,Nkangala,Mpumalanga,South Africa,-25.769902,29.4639354
Garakwadi,1055,1068,Middelburg,Nkangala,Mpumalanga,South Africa,-25.769902,29.4639354
Mpilo,-------,1069,Middelburg,Nkangala,Mpumalanga,South Africa,-25.769902,29.4639354
Aerorand,1055,1070,Middelburg,Nkangala,Mpumalanga,South Africa,-25.7962121,29.4440492
Manoge,-------,1071,Middelburg,Nkangala,Mpumalanga,South Africa,-25.769902,29.4639354
Emalahleni North,1034,1072,Witbank,Nkangala,Mpumalanga,South Africa,-25.8727817,29.2553229
Emalahleni-noord,1034,1072,Witbank,Nkangala,Mpumalanga,South Africa,-25.8727817,29.2553229
Witbank North,1034,1072,Witbank,Nkangala,Mpumalanga,South Africa,-25.8727817,29.2553229
Witbank-Noord,1034,1072,Witbank,Nkangala,Mpumalanga,South Africa,-25.8866002,29.2291726
Kwaguqa,-------,1073,Kwaguqa,Nkangala,Mpumalanga,South Africa,-25.8623772,29.1187097
Kwaguqa,1073,1073,Witbank,Nkangala,Mpumalanga,South Africa,-25.8623772,29.1187097
Kwaguqa Ext,-------,1073,Kwaguqa,Nkangala,Mpumalanga,South Africa,-25.9150057,29.2360738
Kwaguqa Ext 10,1073,1073,Witbank,Nkangala,Mpumalanga,South Africa,-25.9150057,29.2360738
Kwaguqa Ext 3,1073,1073,Witbank,Nkangala,Mpumalanga,South Africa,-25.9150057,29.2360738
Kwaguqa Ext 5,1073,1073,Witbank,Nkangala,Mpumalanga,South Africa,-25.9150057,29.2360738
Kwaguqa Ext 7,1073,1073,Witbank,Nkangala,Mpumalanga,South Africa,-25.9150057,29.2360738
Kwaguqa Fase 4,1073,1073,Witbank,Nkangala,Mpumalanga,South Africa,-25.8623772,29.1187097
Kwaguqa Phase 4,1073,1073,Witbank,Nkangala,Mpumalanga,South Africa,-25.8623772,29.1187097
Kwaguqa Uit,-------,1073,Kwaguqa,Nkangala,Mpumalanga,South Africa,-25.8623772,29.1187097
Kwaguqa Uit 10,1073,1073,Witbank,Nkangala,Mpumalanga,South Africa,-25.8623772,29.1187097
Kwaguqa Uit 3,1073,1073,Witbank,Nkangala,Mpumalanga,South Africa,-25.8623772,29.1187097
Kwaguqa Uit 5,1073,1073,Witbank,Nkangala,Mpumalanga,South Africa,-25.8623772,29.1187097
Kwaguqa Uit 7,1073,1073,Witbank,Nkangala,Mpumalanga,South Africa,-25.8623772,29.1187097
Mohlodi,-------,1074,Witbank,Nkangala,Mpumalanga,South Africa,-25.8727817,29.2553229
Motseleope,-------,1075,Witbank,Nkangala,Mpumalanga,South Africa,-25.8727817,29.2553229
Motselepoe,-------,1075,Witbank,Nkangala,Mpumalanga,South Africa,-25.8727817,29.2553229
Pakaneng,-------,1076,Witbank,Nkangala,Mpumalanga,South Africa,-25.8727817,29.2553229
Phokoane,-------,1077,Witbank,Nkangala,Mpumalanga,South Africa,-24.8767086,29.73970839999999
Middelburg North,-------,1079,Middelburg,Nkangala,Mpumalanga,South Africa,-25.769902,29.4639354
Middelburg-Noord,-------,1079,Middelburg,Nkangala,Mpumalanga,South Africa,-25.7492519,29.4803011
Kranspoort,-------,1080,Witbank,Nkangala,Mpumalanga,South Africa,-25.4216231,29.4237365
Loding,-------,1081,Witbank,Nkangala,Mpumalanga,South Africa,-25.9091999,29.2371
Mpake,-------,1082,Witbank,Nkangala,Mpumalanga,South Africa,-25.8727817,29.2553229
Meerlus,-------,1090,Witbank,Nkangala,Mpumalanga,South Africa,-26.133333,29.533333
Hendrina,1095,1095,Hendrina,Nkangala,Mpumalanga,South Africa,-26.1598969,29.7252297
Pullens Hope,-------,1096,Pullens Hope,Nkangala,Mpumalanga,South Africa,-26.0203592,29.5948541
Arnot Colliery,-------,1097,Witbank,Nkangala,Mpumalanga,South Africa,-26.257782,29.11507
Rietkuil,-------,1097,Rietkuil,Nkangala,Mpumalanga,South Africa,-25.9467092,29.803397
Kwa Zamokuhle,1098,1098,Hendrina,Nkangala,Mpumalanga,South Africa,-26.133827,29.7339171
Kwazamokuhle,1098,1098,Hendrina,Nkangala,Mpumalanga,South Africa,-26.133827,29.7339171
Kwazamokuhle,-------,1098,Kwazamokuhle,Nkangala,Mpumalanga,South Africa,-26.133827,29.7339171
Kwazamokuhle Ext,1098,1098,Kwazamokuhle,Nkangala,Mpumalanga,South Africa,-26.133827,29.7339171
Kwazamokuhle Uit,1098,1098,Kwazamokuhle,Nkangala,Mpumalanga,South Africa,-26.133827,29.7339171
Belfast,-------,1100,Belfast,Nkangala,Mpumalanga,South Africa,-25.6823172,30.0376335
Belfast Ext,1100,1100,Belfast,Nkangala,Mpumalanga,South Africa,-25.6823172,30.0376335
Belfast Ext 2,1100,1100,Belfast,Nkangala,Mpumalanga,South Africa,-25.6823172,30.0376335
Belfast Ext 3,1100,1100,Belfast,Nkangala,Mpumalanga,South Africa,-25.6823172,30.0376335
Belfast Uit,1100,1100,Belfast,Nkangala,Mpumalanga,South Africa,-25.6823172,30.0376335
Belfast Uit 2,1100,1100,Belfast,Nkangala,Mpumalanga,South Africa,-25.6823172,30.0376335
Belfast Uit 3,1100,1100,Belfast,Nkangala,Mpumalanga,South Africa,-25.6823172,30.0376335
Emakhazeni Ext,1100,1100,Belfast,Nkangala,Mpumalanga,South Africa,-25.6823172,30.0376335
Emakhazeni Ext 2,1100,1100,Belfast,Nkangala,Mpumalanga,South Africa,-25.6823172,30.0376335
Emakhazeni Ext 3,1100,1100,Belfast,Nkangala,Mpumalanga,South Africa,-25.6823172,30.0376335
Emakhazeni Uit,1100,1100,Belfast,Nkangala,Mpumalanga,South Africa,-25.6823172,30.0376335
Emakhazeni Uit 2,1100,1100,Belfast,Nkangala,Mpumalanga,South Africa,-25.6823172,30.0376335
Emakhazeni Uit 3,1100,1100,Belfast,Nkangala,Mpumalanga,South Africa,-25.6823172,30.0376335
Wonderfontein,-------,1101,Belfast,Nkangala,Mpumalanga,South Africa,-25.8074999,29.89417
Siyathuthuka,1102,1102,Belfast,Nkangala,Mpumalanga,South Africa,-25.6787119,29.9942867
Dullstroom,-------,1110,Dullstroom,Nkangala,Mpumalanga,South Africa,-25.4183833,30.1040715
Emnotweni,-------,1110,Lydenburg,Ehlanzeni,Mpumalanga,South Africa,-25.4183833,30.1040715
Tonteldoos,-------,1111,Middelburg,Nkangala,Mpumalanga,South Africa,-25.316667,29.983333
Draaikraal,-------,1112,Witbank,Nkangala,Mpumalanga,South Africa,-25.216667,30.04999999999999
Kellysville,1120,1120,Lydenburg,Ehlanzeni,Mpumalanga,South Africa,-25.0819769,30.4307219
Lydenburg,1120,1120,Lydenburg,Ehlanzeni,Mpumalanga,South Africa,-25.0815817,30.447285
Phiring,-------,1120,Lydenburg,Ehlanzeni,Mpumalanga,South Africa,-24.5272102,30.6961924
Rietfontein,-------,1120,Lydenburg,Ehlanzeni,Mpumalanga,South Africa,-25.0912065,30.4526224
Tsate,-------,1121,Belfast,Nkangala,Mpumalanga,South Africa,-25.6823172,30.0376335
Ohrigstad,-------,1122,Lydenburg,Ehlanzeni,Mpumalanga,South Africa,-24.747064,30.5797128
Mashishing,1123,1123,Lydenburg,Ehlanzeni,Mpumalanga,South Africa,-25.0815817,30.447285
Maboloke,-------,1126,Lydenburg,Ehlanzeni,Mpumalanga,South Africa,-25.0815817,30.447285
Mmutlane,-------,1128,Driekop,Ehlanzeni,Mpumalanga,South Africa,-24.5989062,30.15026989999999
Driekop,-------,1129,Driekop,Ehlanzeni,Mpumalanga,South Africa,-24.5989062,30.15026989999999
Gamashishi,-------,1130,Belfast,Nkangala,Mpumalanga,South Africa,-24.4509435,30.1156226
Roka Mashabela,-------,1131,Driekop,Ehlanzeni,Mpumalanga,South Africa,-24.6339225,29.7391111
Kgautswane,-------,1132,Nelspruit,Ehlanzeni,Mpumalanga,South Africa,-24.6071349,30.5480578
Gamarota,-------,1151,Belfast,Nkangala,Mpumalanga,South Africa,-25.6823172,30.0376335
Maandagshoek,-------,1152,Belfast,Nkangala,Mpumalanga,South Africa,-24.6005612,30.0694123
Riba Cross,-------,1153,Belfast,Nkangala,Mpumalanga,South Africa,-24.6236988,30.2220114
Entokozweni,1170,1170,Machadodorp,Nkangala,Mpumalanga,South Africa,-25.6672835,30.2455033
Machadodorp,1170,1170,Machadodorp,Nkangala,Mpumalanga,South Africa,-25.6672835,30.2455033
Carolina,1185,1185,Carolina,Gert Sibande,Mpumalanga,South Africa,-26.0730802,30.1069594
Selobala,1185,1185,Carolina,Gert Sibande,Mpumalanga,South Africa,-26.0881343,30.1170664
Badplaas,1190,1190,Badplaas,Gert Sibande,Mpumalanga,South Africa,-25.9573638,30.5394232
Elukwatini,1192,1192,Belfast,Gert Sibande,Mpumalanga,South Africa,-25.6823172,30.0376335
Lamagadlela,-------,1193,Belfast,Nkangala,Mpumalanga,South Africa,-25.6823172,30.0376335
Bhevula,-------,1194,Belfast,Nkangala,Mpumalanga,South Africa,-22.9254872,30.9087389
Waterval-Boven,-------,1195,Waterval-Boven,Nkangala,Mpumalanga,South Africa,-25.6429145,30.3406679
Kamagugu,1200,1200,Nelspruit,Ehlanzeni,Mpumalanga,South Africa,-25.4566415,31.0034046
Mbombela,1201,1200,Nelspruit,Ehlanzeni,Mpumalanga,South Africa,-25.4752984,30.9694163
Mbombela Ext,1201,1200,Nelspruit,Ehlanzeni,Mpumalanga,South Africa,-25.4752984,30.9694163
Mbombela Ext 15,1201,1200,Nelspruit,Ehlanzeni,Mpumalanga,South Africa,-25.4752984,30.9694163
Mbombela Ext 2,1201,1200,Nelspruit,Ehlanzeni,Mpumalanga,South Africa,-25.4752984,30.9694163
Mbombela Ext 21,1201,1200,Nelspruit,Ehlanzeni,Mpumalanga,South Africa,-25.4752984,30.9694163
Mbombela Ext 4,1201,1200,Nelspruit,Ehlanzeni,Mpumalanga,South Africa,-25.4752984,30.9694163
Mbombela Ext 5,1201,1200,Nelspruit,Ehlanzeni,Mpumalanga,South Africa,-25.4752984,30.9694163
Mbombela Ext 6,1201,1200,Nelspruit,Ehlanzeni,Mpumalanga,South Africa,-25.4752984,30.9694163
Mbombela Ext 9,1201,1200,Nelspruit,Ehlanzeni,Mpumalanga,South Africa,-25.4752984,30.9694163
Mbombela Uit,1201,1200,Nelspruit,Ehlanzeni,Mpumalanga,South Africa,-25.4752984,30.9694163
Mbombela Uit 15,1201,1200,Nelspruit,Ehlanzeni,Mpumalanga,South Africa,-25.4752984,30.9694163
Mbombela Uit 2,1201,1200,Nelspruit,Ehlanzeni,Mpumalanga,South Africa,-25.4752984,30.9694163
Mbombela Uit 21,1201,1200,Nelspruit,Ehlanzeni,Mpumalanga,South Africa,-25.4752984,30.9694163
Mbombela Uit 4,1201,1200,Nelspruit,Ehlanzeni,Mpumalanga,South Africa,-25.4752984,30.9694163
Mbombela Uit 5,1201,1200,Nelspruit,Ehlanzeni,Mpumalanga,South Africa,-25.4752984,30.9694163
Mbombela Uit 6,1201,1200,Nelspruit,Ehlanzeni,Mpumalanga,South Africa,-25.4752984,30.9694163
Mbombela Uit 9,1201,1200,Nelspruit,Ehlanzeni,Mpumalanga,South Africa,-25.4752984,30.9694163
Nel Acres,-------,1200,Nelspruit,Ehlanzeni,Mpumalanga,South Africa,-25.480646,30.959603
Nelspruit,1201,1200,Nelspruit,Ehlanzeni,Mpumalanga,South Africa,-25.4752984,30.9694163
Nelspruit Ext,1201,1200,Nelspruit,Ehlanzeni,Mpumalanga,South Africa,-25.4752984,30.9694163
Nelspruit Ext 15,1201,1200,Nelspruit,Ehlanzeni,Mpumalanga,South Africa,-25.4752984,30.9694163
Nelspruit Ext 2,1201,1200,Nelspruit,Ehlanzeni,Mpumalanga,South Africa,-25.4752984,30.9694163
Nelspruit Ext 21,1201,1200,Nelspruit,Ehlanzeni,Mpumalanga,South Africa,-25.4752984,30.9694163
Nelspruit Ext 29,1201,1200,Nelspruit,Ehlanzeni,Mpumalanga,South Africa,-25.4752984,30.9694163
Nelspruit Ext 4,1201,1200,Nelspruit,Ehlanzeni,Mpumalanga,South Africa,-25.4752984,30.9694163
Nelspruit Ext 5,1201,1200,Nelspruit,Ehlanzeni,Mpumalanga,South Africa,-25.49454,30.99243
Nelspruit Ext 6,1201,1200,Nelspruit,Ehlanzeni,Mpumalanga,South Africa,-25.4752984,30.9694163
Nelspruit Ext 9,1201,1200,Nelspruit,Ehlanzeni,Mpumalanga,South Africa,-25.4752984,30.9694163
Nelspruit Uit,1201,1200,Nelspruit,Ehlanzeni,Mpumalanga,South Africa,-25.4752984,30.9694163
Nelspruit Uit 15,1201,1200,Nelspruit,Ehlanzeni,Mpumalanga,South Africa,-25.4752984,30.9694163
Nelspruit Uit 2,1201,1200,Nelspruit,Ehlanzeni,Mpumalanga,South Africa,-25.4895,30.99684
Nelspruit Uit 21,1201,1200,Nelspruit,Ehlanzeni,Mpumalanga,South Africa,-25.4752984,30.9694163
Nelspruit Uit 29,1201,1200,Nelspruit,Ehlanzeni,Mpumalanga,South Africa,-25.4752984,30.9694163
Nelspruit Uit 4,1201,1200,Nelspruit,Ehlanzeni,Mpumalanga,South Africa,-25.4752984,30.9694163
Nelspruit Uit 5,1201,1200,Nelspruit,Ehlanzeni,Mpumalanga,South Africa,-25.4752984,30.9694163
Nelspruit Uit 6,1201,1200,Nelspruit,Ehlanzeni,Mpumalanga,South Africa,-25.4752984,30.9694163
Nelspruit Uit 9,1201,1200,Nelspruit,Ehlanzeni,Mpumalanga,South Africa,-25.4895,30.99684
Nelsville,1201,1200,Nelspruit,Ehlanzeni,Mpumalanga,South Africa,-25.479243,31.0091396
Sonheuwel Ext 3,1200,1200,Nelspruit,Ehlanzeni,Mpumalanga,South Africa,-25.4969173,30.9732917
Sonheuwel Uit 3,1200,1200,Nelspruit,Ehlanzeni,Mpumalanga,South Africa,-25.4969173,30.9732917
Stonehenge Ext 1,1200,1200,Nelspruit,Ehlanzeni,Mpumalanga,South Africa,-25.4966176,30.9460402
Stonehenge Ext 6,1200,1200,Nelspruit,Ehlanzeni,Mpumalanga,South Africa,-25.4966176,30.9460402
Stonehenge Uit 1,1200,1200,Nelspruit,Ehlanzeni,Mpumalanga,South Africa,-25.4966176,30.9460402
Stonehenge Uit 6,1200,1200,Nelspruit,Ehlanzeni,Mpumalanga,South Africa,-25.4966176,30.9460402
Valencia Park,1201,1200,Nelspruit,Ehlanzeni,Mpumalanga,South Africa,-25.4677873,30.9983863
Wes-acres Uit 50,1200,1211,Nelspruit,Ehlanzeni,Mpumalanga,South Africa,-25.490287,30.95608099999999
West Acres Ext 13,1201,1200,Nelspruit,Ehlanzeni,Mpumalanga,South Africa,-25.472755,30.967594
West Acres Ext 32,1200,1200,Nelspruit,Ehlanzeni,Mpumalanga,South Africa,-25.490287,30.95608099999999
West Acres Ext 47,1200,1200,Nelspruit,Ehlanzeni,Mpumalanga,South Africa,-25.48573,30.96427
West Acres Ext 50,1200,1211,Nelspruit,Ehlanzeni,Mpumalanga,South Africa,-25.4774184,30.9684542
West Acres Uit 13,1201,1200,Nelspruit,Ehlanzeni,Mpumalanga,South Africa,-25.490287,30.95608099999999
West Acres Uit 32,1200,1200,Nelspruit,Ehlanzeni,Mpumalanga,South Africa,-25.490287,30.95608099999999
West Acres Uit 47,1200,1200,Nelspruit,Ehlanzeni,Mpumalanga,South Africa,-25.490287,30.95608099999999
Mbombela,1201,1200,Nelspruit,Ehlanzeni,Mpumalanga,South Africa,-25.4752984,30.9694163
Mbombela Ext,1201,1200,Nelspruit,Ehlanzeni,Mpumalanga,South Africa,-25.4752984,30.9694163
Mbombela Ext 1,1201,-------,Nelspruit,Ehlanzeni,Mpumalanga,South Africa,-25.4752984,30.9694163
Mbombela Ext 10,1201,-------,Nelspruit,Ehlanzeni,Mpumalanga,South Africa,-25.4752984,30.9694163
Mbombela Ext 15,1201,1200,Nelspruit,Ehlanzeni,Mpumalanga,South Africa,-25.4752984,30.9694163
Mbombela Ext 2,1201,1200,Nelspruit,Ehlanzeni,Mpumalanga,South Africa,-25.4752984,30.9694163
Mbombela Ext 21,1201,1200,Nelspruit,Ehlanzeni,Mpumalanga,South Africa,-25.4752984,30.9694163
Mbombela Ext 4,1201,1200,Nelspruit,Ehlanzeni,Mpumalanga,South Africa,-25.4752984,30.9694163
Mbombela Ext 5,1201,1200,Nelspruit,Ehlanzeni,Mpumalanga,South Africa,-25.4752984,30.9694163
Mbombela Ext 6,1201,1200,Nelspruit,Ehlanzeni,Mpumalanga,South Africa,-25.4752984,30.9694163
Mbombela Ext 9,1201,1200,Nelspruit,Ehlanzeni,Mpumalanga,South Africa,-25.4752984,30.9694163
Mbombela North,1201,1219,Nelspruit,Ehlanzeni,Mpumalanga,South Africa,-25.4752984,30.9694163
Mbombela Uit,1201,1200,Nelspruit,Ehlanzeni,Mpumalanga,South Africa,-25.4752984,30.9694163
Mbombela Uit 1,1201,-------,Nelspruit,Ehlanzeni,Mpumalanga,South Africa,-25.4752984,30.9694163
Mbombela Uit 10,1201,-------,Nelspruit,Ehlanzeni,Mpumalanga,South Africa,-25.4752984,30.9694163
Mbombela Uit 15,1201,1200,Nelspruit,Ehlanzeni,Mpumalanga,South Africa,-25.4752984,30.9694163
Mbombela Uit 2,1201,1200,Nelspruit,Ehlanzeni,Mpumalanga,South Africa,-25.4752984,30.9694163
Mbombela Uit 21,1201,1200,Nelspruit,Ehlanzeni,Mpumalanga,South Africa,-25.4752984,30.9694163
Mbombela Uit 4,1201,1200,Nelspruit,Ehlanzeni,Mpumalanga,South Africa,-25.4752984,30.9694163
Mbombela Uit 5,1201,1200,Nelspruit,Ehlanzeni,Mpumalanga,South Africa,-25.4752984,30.9694163
Mbombela Uit 6,1201,1200,Nelspruit,Ehlanzeni,Mpumalanga,South Africa,-25.4752984,30.9694163
Mbombela Uit 9,1201,1200,Nelspruit,Ehlanzeni,Mpumalanga,South Africa,-25.4752984,30.9694163
Mbombela-Noord,1201,1219,Nelspruit,Ehlanzeni,Mpumalanga,South Africa,-25.4752984,30.9694163
Nelspruit,1201,1200,Nelspruit,Ehlanzeni,Mpumalanga,South Africa,-25.4752984,30.9694163
Nelspruit Ext,1201,1200,Nelspruit,Ehlanzeni,Mpumalanga,South Africa,-25.4752984,30.9694163
Nelspruit Ext 1,1201,-------,Nelspruit,Ehlanzeni,Mpumalanga,South Africa,-25.4396617,30.9669051
Nelspruit Ext 10,1201,-------,Nelspruit,Ehlanzeni,Mpumalanga,South Africa,-25.4752984,30.9694163
Nelspruit Ext 15,1201,1200,Nelspruit,Ehlanzeni,Mpumalanga,South Africa,-25.4752984,30.9694163
Nelspruit Ext 2,1201,1200,Nelspruit,Ehlanzeni,Mpumalanga,South Africa,-25.4752984,30.9694163
Nelspruit Ext 21,1201,1200,Nelspruit,Ehlanzeni,Mpumalanga,South Africa,-25.4752984,30.9694163
Nelspruit Ext 29,1201,1200,Nelspruit,Ehlanzeni,Mpumalanga,South Africa,-25.4752984,30.9694163
Nelspruit Ext 4,1201,1200,Nelspruit,Ehlanzeni,Mpumalanga,South Africa,-25.4752984,30.9694163
Nelspruit Ext 5,1201,1200,Nelspruit,Ehlanzeni,Mpumalanga,South Africa,-25.49454,30.99243
Nelspruit Ext 6,1201,1200,Nelspruit,Ehlanzeni,Mpumalanga,South Africa,-25.4752984,30.9694163
Nelspruit Ext 9,1201,1200,Nelspruit,Ehlanzeni,Mpumalanga,South Africa,-25.4752984,30.9694163
Nelspruit North,1201,1219,Nelspruit,Ehlanzeni,Mpumalanga,South Africa,-25.4752984,30.9694163
Nelspruit Uit,1201,1200,Nelspruit,Ehlanzeni,Mpumalanga,South Africa,-25.4752984,30.9694163
Nelspruit Uit 1,1201,-------,Nelspruit,Ehlanzeni,Mpumalanga,South Africa,-25.4717754,30.9606136
Nelspruit Uit 10,1201,-------,Nelspruit,Ehlanzeni,Mpumalanga,South Africa,-25.4752984,30.9694163
Nelspruit Uit 15,1201,1200,Nelspruit,Ehlanzeni,Mpumalanga,South Africa,-25.4752984,30.9694163
Nelspruit Uit 2,1201,1200,Nelspruit,Ehlanzeni,Mpumalanga,South Africa,-25.4895,30.99684
Nelspruit Uit 21,1201,1200,Nelspruit,Ehlanzeni,Mpumalanga,South Africa,-25.4752984,30.9694163
Nelspruit Uit 29,1201,1200,Nelspruit,Ehlanzeni,Mpumalanga,South Africa,-25.4752984,30.9694163
Nelspruit Uit 4,1201,1200,Nelspruit,Ehlanzeni,Mpumalanga,South Africa,-25.4752984,30.9694163
Nelspruit Uit 5,1201,1200,Nelspruit,Ehlanzeni,Mpumalanga,South Africa,-25.4752984,30.9694163
Nelspruit Uit 6,1201,1200,Nelspruit,Ehlanzeni,Mpumalanga,South Africa,-25.4752984,30.9694163
Nelspruit Uit 9,1201,1200,Nelspruit,Ehlanzeni,Mpumalanga,South Africa,-25.4895,30.99684
Nelspruit-Noord,1201,1219,Nelspruit,Ehlanzeni,Mpumalanga,South Africa,-25.4895,30.99684
Nelsville,1201,1200,Nelspruit,Ehlanzeni,Mpumalanga,South Africa,-25.479243,31.0091396
Sonheuwel,1201,1212,Nelspruit,Ehlanzeni,Mpumalanga,South Africa,-25.4969173,30.9732917
Sonheuwel Ext,1201,-------,Nelspruit,Ehlanzeni,Mpumalanga,South Africa,-25.4969173,30.9732917
Sonheuwel Ext 1,1201,-------,Nelspruit,Ehlanzeni,Mpumalanga,South Africa,-25.4969173,30.9732917
Sonheuwel Ext 2,1201,-------,Nelspruit,Ehlanzeni,Mpumalanga,South Africa,-25.4969173,30.9732917
Sonheuwel Uit,1201,-------,Nelspruit,Ehlanzeni,Mpumalanga,South Africa,-25.4969173,30.9732917
Sonheuwel Uit 1,1201,-------,Nelspruit,Ehlanzeni,Mpumalanga,South Africa,-25.4935565,30.961886
Sonheuwel Uit 2,1201,-------,Nelspruit,Ehlanzeni,Mpumalanga,South Africa,-25.4969173,30.9732917
Steiltes,1201,1213,Nelspruit,Ehlanzeni,Mpumalanga,South Africa,-25.4968993,31.0091871
Steiltes Ext,1201,-------,Nelspruit,Ehlanzeni,Mpumalanga,South Africa,-25.4968993,31.0091871
Steiltes Ext 10,1201,-------,Nelspruit,Ehlanzeni,Mpumalanga,South Africa,-25.4968993,31.0091871
Steiltes Uit,1201,-------,Nelspruit,Ehlanzeni,Mpumalanga,South Africa,-25.4968993,31.0091871
Steiltes Uit 10,1201,-------,Nelspruit,Ehlanzeni,Mpumalanga,South Africa,-25.4968993,31.0091871
Valencia Park,1201,1200,Nelspruit,Ehlanzeni,Mpumalanga,South Africa,-25.4677873,30.9983863
West Acres,1201,1211,Nelspruit,Ehlanzeni,Mpumalanga,South Africa,-25.490287,30.95608099999999
West Acres Ext,1201,-------,Nelspruit,Ehlanzeni,Mpumalanga,South Africa,-25.490287,30.95608099999999
West Acres Ext 1,1201,-------,Nelspruit,Ehlanzeni,Mpumalanga,South Africa,-25.4711898,30.9627009
West Acres Ext 13,1201,1200,Nelspruit,Ehlanzeni,Mpumalanga,South Africa,-25.472755,30.967594
West Acres Ext 14,1201,-------,Nelspruit,Ehlanzeni,Mpumalanga,South Africa,-25.483591,30.98898399999999
West Acres Ext 15,1201,-------,Nelspruit,Ehlanzeni,Mpumalanga,South Africa,-25.490287,30.95608099999999
West Acres Ext 2,1201,-------,Nelspruit,Ehlanzeni,Mpumalanga,South Africa,-25.4711898,30.9627009
West Acres Ext 20,1201,-------,Nelspruit,Ehlanzeni,Mpumalanga,South Africa,-25.4692378,30.9568217
West Acres Ext 24,1201,-------,Nelspruit,Ehlanzeni,Mpumalanga,South Africa,-25.472755,30.967594
West Acres Ext 29,1201,-------,Nelspruit,Ehlanzeni,Mpumalanga,South Africa,-25.4692378,30.9568217
West Acres Ext 3,1201,-------,Nelspruit,Ehlanzeni,Mpumalanga,South Africa,-25.490287,30.95608099999999
West Acres Ext 31,1201,-------,Nelspruit,Ehlanzeni,Mpumalanga,South Africa,-25.490287,30.95608099999999
West Acres Ext 4,1201,-------,Nelspruit,Ehlanzeni,Mpumalanga,South Africa,-25.490287,30.95608099999999
West Acres Ext 5,1201,-------,Nelspruit,Ehlanzeni,Mpumalanga,South Africa,-25.490287,30.95608099999999
West Acres Ext 6,1201,-------,Nelspruit,Ehlanzeni,Mpumalanga,South Africa,-25.490287,30.95608099999999
West Acres Ext 7,1201,-------,Nelspruit,Ehlanzeni,Mpumalanga,South Africa,-25.490287,30.95608099999999
West Acres Ext 8,1201,-------,Nelspruit,Ehlanzeni,Mpumalanga,South Africa,-25.490287,30.95608099999999
West Acres Uit,1201,-------,Nelspruit,Ehlanzeni,Mpumalanga,South Africa,-25.490287,30.95608099999999
West Acres Uit 1,1201,-------,Nelspruit,Ehlanzeni,Mpumalanga,South Africa,-25.490287,30.95608099999999
West Acres Uit 13,1201,1200,Nelspruit,Ehlanzeni,Mpumalanga,South Africa,-25.490287,30.95608099999999
West Acres Uit 14,1201,-------,Nelspruit,Ehlanzeni,Mpumalanga,South Africa,-25.490287,30.95608099999999
West Acres Uit 15,1201,-------,Nelspruit,Ehlanzeni,Mpumalanga,South Africa,-25.490287,30.95608099999999
West Acres Uit 2,1201,-------,Nelspruit,Ehlanzeni,Mpumalanga,South Africa,-25.48573,30.96427
West Acres Uit 20,1201,-------,Nelspruit,Ehlanzeni,Mpumalanga,South Africa,-25.490287,30.95608099999999
West Acres Uit 24,1201,-------,Nelspruit,Ehlanzeni,Mpumalanga,South Africa,-25.490287,30.95608099999999
West Acres Uit 29,1201,-------,Nelspruit,Ehlanzeni,Mpumalanga,South Africa,-25.490287,30.95608099999999
West Acres Uit 3,1201,-------,Nelspruit,Ehlanzeni,Mpumalanga,South Africa,-25.490287,30.95608099999999
West Acres Uit 31,1201,-------,Nelspruit,Ehlanzeni,Mpumalanga,South Africa,-25.490287,30.95608099999999
West Acres Uit 4,1201,-------,Nelspruit,Ehlanzeni,Mpumalanga,South Africa,-25.4692378,30.9568217
West Acres Uit 5,1201,-------,Nelspruit,Ehlanzeni,Mpumalanga,South Africa,-25.490287,30.95608099999999
West Acres Uit 6,1201,-------,Nelspruit,Ehlanzeni,Mpumalanga,South Africa,-25.490287,30.95608099999999
West Acres Uit 7,1201,-------,Nelspruit,Ehlanzeni,Mpumalanga,South Africa,-25.490287,30.95608099999999
West Acres Uit 8,1201,-------,Nelspruit,Ehlanzeni,Mpumalanga,South Africa,-25.490287,30.95608099999999
Barvale,-------,1202,Nelspruit,Ehlanzeni,Mpumalanga,South Africa,-25.4752984,30.9694163
Matsulu,1203,1203,Nelspruit,Ehlanzeni,Mpumalanga,South Africa,-25.507063,31.3484448
Karino,-------,1204,Nelspruit,Ehlanzeni,Mpumalanga,South Africa,-25.4721893,31.0908452
Mataffin,-------,1205,Nelspruit,Ehlanzeni,Mpumalanga,South Africa,-25.4566854,30.94507489999999
Sonpark,-------,1206,Nelspruit,Ehlanzeni,Mpumalanga,South Africa,-25.47982,30.96979
Schagen,1207,1207,Nelspruit,Ehlanzeni,Mpumalanga,South Africa,-25.43444,30.79111
Elandshoek,-------,1208,Nelspruit,Ehlanzeni,Mpumalanga,South Africa,-25.5,30.716667
Ngodwana,1209,1209,Nelspruit,Ehlanzeni,Mpumalanga,South Africa,-25.5692281,30.678943
Wes-acres Uit 50,1200,1211,Nelspruit,Ehlanzeni,Mpumalanga,South Africa,-25.490287,30.95608099999999
West Acres,1201,1211,Nelspruit,Ehlanzeni,Mpumalanga,South Africa,-25.490287,30.95608099999999
West Acres Ext 50,1200,1211,Nelspruit,Ehlanzeni,Mpumalanga,South Africa,-25.4774184,30.9684542
Sonheuwel,1201,1212,Nelspruit,Ehlanzeni,Mpumalanga,South Africa,-25.4969173,30.9732917
Steiltes,1201,1213,Nelspruit,Ehlanzeni,Mpumalanga,South Africa,-25.4968993,31.0091871
Kanyamazane,1214,1214,Kanyamazane,Ehlanzeni,Mpumalanga,South Africa,-25.4645736,31.1796292
Kanyamazane Ext,-------,1214,Kanyamazane,Ehlanzeni,Mpumalanga,South Africa,-25.4645736,31.1796292
Kanyamazane Ext 4,1214,1214,Kanyamazane,Ehlanzeni,Mpumalanga,South Africa,-25.4645736,31.1796292
Kanyamazane Ext 5,1214,1214,Kanyamazane,Ehlanzeni,Mpumalanga,South Africa,-25.4645736,31.1796292
Kanyamazane Ext 6,1214,1214,Kanyamazane,Ehlanzeni,Mpumalanga,South Africa,-25.4793289,31.1749633
Kanyamazane Park,-------,1214,Kanyamazane,Ehlanzeni,Mpumalanga,South Africa,-25.4231598,31.2406751
Kanyamazane Uit,-------,1214,Kanyamazane,Ehlanzeni,Mpumalanga,South Africa,-25.4645736,31.1796292
Kanyamazane Uit 4,1214,1214,Kanyamazane,Ehlanzeni,Mpumalanga,South Africa,-25.4645736,31.1796292
Kanyamazane Uit 5,1214,1214,Kanyamazane,Ehlanzeni,Mpumalanga,South Africa,-25.4645736,31.1796292
Kanyamazane Uit 6,1214,1214,Kanyamazane,Ehlanzeni,Mpumalanga,South Africa,-25.4645736,31.1796292
Lekazi,-------,1214,Kanyamazane,Ehlanzeni,Mpumalanga,South Africa,-25.4477828,31.1709354
Lekazi Ext,-------,1214,Kanyamazane,Ehlanzeni,Mpumalanga,South Africa,-25.4477828,31.1709354
Lekazi Uit,-------,1214,Kanyamazane,Ehlanzeni,Mpumalanga,South Africa,-25.4477828,31.1709354
Pienaar,-------,1214,Pienaar,Ehlanzeni,Mpumalanga,South Africa,-25.413773,31.1753341
Daantjie,-------,1215,Daantjie,Ehlanzeni,Mpumalanga,South Africa,-25.4253309,31.1996708
Msogwaba,-------,1215,Kanyamazane,Ehlanzeni,Mpumalanga,South Africa,-25.4260949,31.162448
Sibuyile,-------,1216,Kanyamazane,Ehlanzeni,Mpumalanga,South Africa,-25.4645736,31.1796292
Luphisa,-------,1217,Kanyamazane,Ehlanzeni,Mpumalanga,South Africa,-25.3924999,31.29528
The Village,-------,1218,Nelspruit,Ehlanzeni,Mpumalanga,South Africa,-25.4752984,30.9694163
Mbombela North,1201,1219,Nelspruit,Ehlanzeni,Mpumalanga,South Africa,-25.4752984,30.9694163
Mbombela-Noord,1201,1219,Nelspruit,Ehlanzeni,Mpumalanga,South Africa,-25.4752984,30.9694163
Nelspruit North,1201,1219,Nelspruit,Ehlanzeni,Mpumalanga,South Africa,-25.4752984,30.9694163
Nelspruit-Noord,1201,1219,Nelspruit,Ehlanzeni,Mpumalanga,South Africa,-25.4895,30.99684
Legogwe,-------,1222,Nelspruit,Ehlanzeni,Mpumalanga,South Africa,-25.4752984,30.9694163
Rolle,-------,1223,Nelspruit,Ehlanzeni,Mpumalanga,South Africa,-25.4895,30.99684
Soeknog,-------,1227,Acornhoek,Ehlanzeni,Mpumalanga,South Africa,-24.7566785,30.9732917
Kingsview,-------,1240,White River,Ehlanzeni,Mpumalanga,South Africa,-25.320283,31.0177415
Kingsview Ext 1,1240,1240,Hazyview,Ehlanzeni,Mpumalanga,South Africa,-25.320283,31.0177415
Kingsview Ext 3,1240,1240,White River,Ehlanzeni,Mpumalanga,South Africa,-25.320283,31.0177415
Kingsview Uit 1,1240,1240,Hazyview,Ehlanzeni,Mpumalanga,South Africa,-25.320283,31.0177415
Kingsview Uit 3,1240,1240,White River,Ehlanzeni,Mpumalanga,South Africa,-25.3207,31.01777
Mganduzweni,1240,1240,White River,Ehlanzeni,Mpumalanga,South Africa,-25.2271,31.10448
Nsikazi,1240,1240,Nsikazi,Ehlanzeni,Mpumalanga,South Africa,-25.2758023,31.2368819
Phola,1240,1240,Hazyview,Ehlanzeni,Mpumalanga,South Africa,-25.161628,31.1338071
White River,1240,1240,White River,Ehlanzeni,Mpumalanga,South Africa,-25.3299288,31.0163079
White River Ext,1240,1240,White River,Ehlanzeni,Mpumalanga,South Africa,-25.3299288,31.0163079
White River Ext 1,1240,1240,White River,Ehlanzeni,Mpumalanga,South Africa,-25.3434,30.99771
White River Ext 10,1240,1240,White River,Ehlanzeni,Mpumalanga,South Africa,-25.3345893,31.0077058
White River Ext 11,1240,1240,White River,Ehlanzeni,Mpumalanga,South Africa,-25.3345893,31.0077058
White River Ext 12,1240,1240,White River,Ehlanzeni,Mpumalanga,South Africa,-25.3345893,31.0077058
White River Ext 13,1240,1240,White River,Ehlanzeni,Mpumalanga,South Africa,-25.3345893,31.0077058
White River Ext 14,1240,1240,White River,Ehlanzeni,Mpumalanga,South Africa,-25.3345893,31.0077058
White River Ext 15,1240,1240,White River,Ehlanzeni,Mpumalanga,South Africa,-25.3299288,31.0163079
White River Ext 16,1240,1240,White River,Ehlanzeni,Mpumalanga,South Africa,-25.3345893,31.0077058
White River Ext 17,1240,1240,White River,Ehlanzeni,Mpumalanga,South Africa,-25.3345893,31.0077058
White River Ext 18,1240,1240,White River,Ehlanzeni,Mpumalanga,South Africa,-25.3299288,31.0163079
White River Ext 19,1240,1240,White River,Ehlanzeni,Mpumalanga,South Africa,-25.3345893,31.0077058
White River Ext 2,1240,1240,White River,Ehlanzeni,Mpumalanga,South Africa,-25.3345893,31.0077058
White River Ext 20,1240,1240,White River,Ehlanzeni,Mpumalanga,South Africa,-25.3345893,31.0077058
White River Ext 21,1240,1240,White River,Ehlanzeni,Mpumalanga,South Africa,-25.3299288,31.0163079
White River Ext 22,1240,1240,White River,Ehlanzeni,Mpumalanga,South Africa,-25.3299288,31.0163079
White River Ext 23,1240,1240,White River,Ehlanzeni,Mpumalanga,South Africa,-25.3345893,31.0077058
White River Ext 24,1240,1240,White River,Ehlanzeni,Mpumalanga,South Africa,-25.3299288,31.0163079
White River Ext 25,1240,1240,White River,Ehlanzeni,Mpumalanga,South Africa,-25.3299288,31.0163079
White River Ext 26,1240,1240,White River,Ehlanzeni,Mpumalanga,South Africa,-25.3345893,31.0077058
White River Ext 27,1240,1240,White River,Ehlanzeni,Mpumalanga,South Africa,-25.3345893,31.0077058
White River Ext 28,1240,1240,White River,Ehlanzeni,Mpumalanga,South Africa,-25.3345893,31.0077058
White River Ext 29,1240,1240,White River,Ehlanzeni,Mpumalanga,South Africa,-25.3345893,31.0077058
White River Ext 3,1240,1240,White River,Ehlanzeni,Mpumalanga,South Africa,-25.3299288,31.0163079
White River Ext 30,1240,1240,White River,Ehlanzeni,Mpumalanga,South Africa,-25.3345893,31.0077058
White River Ext 31,1240,1240,White River,Ehlanzeni,Mpumalanga,South Africa,-25.3345893,31.0077058
White River Ext 32,1240,1240,White River,Ehlanzeni,Mpumalanga,South Africa,-25.3345893,31.0077058
White River Ext 33,1240,1240,White River,Ehlanzeni,Mpumalanga,South Africa,-25.3345893,31.0077058
White River Ext 34,1240,1240,White River,Ehlanzeni,Mpumalanga,South Africa,-25.3345893,31.0077058
White River Ext 35,1240,1240,White River,Ehlanzeni,Mpumalanga,South Africa,-25.3345893,31.0077058
White River Ext 36,1240,1240,White River,Ehlanzeni,Mpumalanga,South Africa,-25.3345893,31.0077058
White River Ext 37,1240,1240,White River,Ehlanzeni,Mpumalanga,South Africa,-25.3345893,31.0077058
White River Ext 4,1240,1240,White River,Ehlanzeni,Mpumalanga,South Africa,-25.3299288,31.0163079
White River Ext 49,1240,1240,White River,Ehlanzeni,Mpumalanga,South Africa,-25.3299288,31.0163079
White River Ext 5,1240,1240,White River,Ehlanzeni,Mpumalanga,South Africa,-25.3299288,31.0163079
White River Ext 6,1240,1240,White River,Ehlanzeni,Mpumalanga,South Africa,-25.3345893,31.0077058
White River Ext 7,1240,1240,White River,Ehlanzeni,Mpumalanga,South Africa,-25.3345893,31.0077058
White River Ext 8,1240,1240,White River,Ehlanzeni,Mpumalanga,South Africa,-25.3434,30.99771
White River Ext 9,1240,1240,White River,Ehlanzeni,Mpumalanga,South Africa,-25.3299288,31.0163079
White River Industrial Area,1240,1240,White River,Ehlanzeni,Mpumalanga,South Africa,-25.3345893,31.0077058
Witrivier,-------,1240,White River,Ehlanzeni,Mpumalanga,South Africa,-25.3299288,31.0163079
Witrivier Industriele Gebied,1240,1240,White River,Ehlanzeni,Mpumalanga,South Africa,NA,NA
Witrivier Uit,1240,1240,White River,Ehlanzeni,Mpumalanga,South Africa,NA,NA
Witrivier Uit 1,1240,1240,White River,Ehlanzeni,Mpumalanga,South Africa,NA,NA
Witrivier Uit 10,1240,1240,White River,Ehlanzeni,Mpumalanga,South Africa,NA,NA
Witrivier Uit 11,1240,1240,White River,Ehlanzeni,Mpumalanga,South Africa,NA,NA
Witrivier Uit 12,1240,1240,White River,Ehlanzeni,Mpumalanga,South Africa,NA,NA
Witrivier Uit 13,1240,1240,White River,Ehlanzeni,Mpumalanga,South Africa,NA,NA
Witrivier Uit 14,1240,1240,White River,Ehlanzeni,Mpumalanga,South Africa,NA,NA
Witrivier Uit 15,1240,1240,White River,Ehlanzeni,Mpumalanga,South Africa,NA,NA
Witrivier Uit 16,1240,1240,White River,Ehlanzeni,Mpumalanga,South Africa,NA,NA
Witrivier Uit 17,1240,1240,White River,Ehlanzeni,Mpumalanga,South Africa,NA,NA
Witrivier Uit 18,1240,1240,White River,Ehlanzeni,Mpumalanga,South Africa,NA,NA
Witrivier Uit 19,1240,1240,White River,Ehlanzeni,Mpumalanga,South Africa,NA,NA
Witrivier Uit 2,1240,1240,White River,Ehlanzeni,Mpumalanga,South Africa,NA,NA
Witrivier Uit 20,1240,1240,White River,Ehlanzeni,Mpumalanga,South Africa,NA,NA
Witrivier Uit 21,1240,1240,White River,Ehlanzeni,Mpumalanga,South Africa,NA,NA
Witrivier Uit 22,1240,1240,White River,Ehlanzeni,Mpumalanga,South Africa,NA,NA
Witrivier Uit 23,1240,1240,White River,Ehlanzeni,Mpumalanga,South Africa,NA,NA
Witrivier Uit 24,1240,1240,White River,Ehlanzeni,Mpumalanga,South Africa,NA,NA
Witrivier Uit 25,1240,1240,White River,Ehlanzeni,Mpumalanga,South Africa,NA,NA
Witrivier Uit 26,1240,1240,White River,Ehlanzeni,Mpumalanga,South Africa,NA,NA
Witrivier Uit 27,1240,1240,White River,Ehlanzeni,Mpumalanga,South Africa,NA,NA
Witrivier Uit 28,1240,1240,White River,Ehlanzeni,Mpumalanga,South Africa,NA,NA
Witrivier Uit 29,1240,1240,White River,Ehlanzeni,Mpumalanga,South Africa,NA,NA
Witrivier Uit 3,1240,1240,White River,Ehlanzeni,Mpumalanga,South Africa,NA,NA
Witrivier Uit 30,1240,1240,White River,Ehlanzeni,Mpumalanga,South Africa,NA,NA
Witrivier Uit 31,1240,1240,White River,Ehlanzeni,Mpumalanga,South Africa,NA,NA
Witrivier Uit 32,1240,1240,White River,Ehlanzeni,Mpumalanga,South Africa,NA,NA
Witrivier Uit 33,1240,1240,White River,Ehlanzeni,Mpumalanga,South Africa,NA,NA
Witrivier Uit 34,1240,1240,White River,Ehlanzeni,Mpumalanga,South Africa,NA,NA
Witrivier Uit 35,1240,1240,White River,Ehlanzeni,Mpumalanga,South Africa,NA,NA
Witrivier Uit 36,1240,1240,White River,Ehlanzeni,Mpumalanga,South Africa,NA,NA
Witrivier Uit 37,1240,1240,White River,Ehlanzeni,Mpumalanga,South Africa,NA,NA
Witrivier Uit 4,1240,1240,White River,Ehlanzeni,Mpumalanga,South Africa,NA,NA
Witrivier Uit 49,1240,1240,White River,Ehlanzeni,Mpumalanga,South Africa,NA,NA
Witrivier Uit 5,1240,1240,White River,Ehlanzeni,Mpumalanga,South Africa,-25.3324181,31.0198333
Witrivier Uit 6,1240,1240,White River,Ehlanzeni,Mpumalanga,South Africa,NA,NA
Witrivier Uit 7,1240,1240,White River,Ehlanzeni,Mpumalanga,South Africa,NA,NA
Witrivier Uit 8,1240,1240,White River,Ehlanzeni,Mpumalanga,South Africa,NA,NA
Witrivier Uit 9,1240,1240,White River,Ehlanzeni,Mpumalanga,South Africa,NA,NA
Kiepersol,-------,1241,Nelspruit,Ehlanzeni,Mpumalanga,South Africa,-25.066667,31.033333
Hazyview,-------,1242,Hazyview,Ehlanzeni,Mpumalanga,South Africa,-25.0519121,31.1366715
Kabokweni,1245,1245,White River,Ehlanzeni,Mpumalanga,South Africa,-25.3454367,31.1266458
Cork,-------,1246,Mkhuhlu,Ehlanzeni,Mpumalanga,South Africa,-24.9542057,31.3169891
Mkhuhlu,-------,1246,Hazyview,Ehlanzeni,Mpumalanga,South Africa,-24.9865602,31.2382884
Gutshwa,1247,1247,Kabokweni,Ehlanzeni,Mpumalanga,South Africa,-25.266667,31.2
Numbi,-------,1248,Nelspruit,Ehlanzeni,Mpumalanga,South Africa,-25.1283767,31.162448
Nyongane,-------,1249,Nelspruit,Ehlanzeni,Mpumalanga,South Africa,-25.0525871,31.1910819
Chweni,-------,1250,Kabokweni,Ehlanzeni,Mpumalanga,South Africa,-25.3454367,31.1266458
Makoko,-------,1251,Kabokweni,Ehlanzeni,Mpumalanga,South Africa,-25.3454367,31.1266458
Embonisweni,-------,1252,Kabokweni,Ehlanzeni,Mpumalanga,South Africa,-25.3393131,31.0947294
Mahushu,-------,1253,Hazyview,Ehlanzeni,Mpumalanga,South Africa,-25.1310434,31.1280781
Swalala,-------,1254,White River,Ehlanzeni,Mpumalanga,South Africa,-25.1815807,31.1166193
Cunning Moore,-------,1255,Bushbuckridge,Ehlanzeni,Mpumalanga,South Africa,-24.8996852,31.208259
Malekutu,-------,1256,White River,Ehlanzeni,Mpumalanga,South Africa,-25.3434,30.99771
Legogote,-------,1257,Legogote,Ehlanzeni,Mpumalanga,South Africa,-25.2234739,31.1080244
Madras,-------,1258,Madras,Ehlanzeni,Mpumalanga,South Africa,-24.9833329,31.15
Harmony Hill,-------,1260,Sabie,Ehlanzeni,Mpumalanga,South Africa,-25.0987334,30.7917399
Sabie,1260,1260,Sabie,Ehlanzeni,Mpumalanga,South Africa,-25.0998099,30.7807809
Sabie Ext,-------,1260,Sabie,Ehlanzeni,Mpumalanga,South Africa,-25.0952176,30.7867129
Sabie Ext 1,-------,1260,Sabie,Ehlanzeni,Mpumalanga,South Africa,-25.0952176,30.7867129
Sabie Ext 2,-------,1260,Sabie,Ehlanzeni,Mpumalanga,South Africa,-25.0952176,30.7867129
Sabie Ext 3,-------,1260,Sabie,Ehlanzeni,Mpumalanga,South Africa,-25.0952176,30.7867129
Sabie Ext 4,-------,1260,Sabie,Ehlanzeni,Mpumalanga,South Africa,-25.0952176,30.7867129
Sabie Ext 5,-------,1260,Sabie,Ehlanzeni,Mpumalanga,South Africa,-25.0952176,30.7867129
Sabie Ext 6,-------,1260,Sabie,Ehlanzeni,Mpumalanga,South Africa,-25.0952176,30.7867129
Sabie Ext 7,-------,1260,Sabie,Ehlanzeni,Mpumalanga,South Africa,-25.0952176,30.7867129
Sabie Uit,-------,1260,Sabie,Ehlanzeni,Mpumalanga,South Africa,-25.0952176,30.7867129
Sabie Uit 1,-------,1260,Sabie,Ehlanzeni,Mpumalanga,South Africa,-25.0952176,30.7867129
Sabie Uit 2,-------,1260,Sabie,Ehlanzeni,Mpumalanga,South Africa,-25.0952176,30.7867129
Sabie Uit 3,-------,1260,Sabie,Ehlanzeni,Mpumalanga,South Africa,-25.0952176,30.7867129
Sabie Uit 4,-------,1260,Sabie,Ehlanzeni,Mpumalanga,South Africa,-25.0952176,30.7867129
Sabie Uit 5,-------,1260,Sabie,Ehlanzeni,Mpumalanga,South Africa,-25.0952176,30.7867129
Sabie Uit 6,-------,1260,Sabie,Ehlanzeni,Mpumalanga,South Africa,-25.0952176,30.7867129
Sabie Uit 7,-------,1260,Sabie,Ehlanzeni,Mpumalanga,South Africa,-25.0952176,30.7867129
Simile,-------,1260,Sabie,Ehlanzeni,Mpumalanga,South Africa,-25.0815369,30.7824039
Simile Loc,-------,1260,Sabie,Ehlanzeni,Mpumalanga,South Africa,-25.0815369,30.7824039
Bourke's Luck,-------,1270,Graskop,Ehlanzeni,Mpumalanga,South Africa,-24.6727584,30.8070925
Graskop,1270,1270,Graskop,Ehlanzeni,Mpumalanga,South Africa,-24.9327665,30.84415199999999
Thabatlou,-------,1271,Graskop,Ehlanzeni,Mpumalanga,South Africa,-24.62753,30.79323
Leroro,-------,1273,Graskop,Ehlanzeni,Mpumalanga,South Africa,-24.94343,30.84031999999999
Leroro DGD,-------,1273,Graskop,Ehlanzeni,Mpumalanga,South Africa,-24.6173788,30.79389429999999
Leroro TSP,-------,1273,Graskop,Ehlanzeni,Mpumalanga,South Africa,-24.6173788,30.79389429999999
Matibidi,-------,1274,Graskop,Ehlanzeni,Mpumalanga,South Africa,-24.6258027,30.7565467
Bosbokrand,-------,1280,Bosbokrand,Ehlanzeni,Mpumalanga,South Africa,-24.8398416,31.0464101
Bosbokrand,1280,1280,Bushbuckridge,Ehlanzeni,Mpumalanga,South Africa,-24.8398416,31.0464101
Bushbuckridge,1280,1280,Bushbuckridge,Ehlanzeni,Mpumalanga,South Africa,-24.8398416,31.0464101
Moloro,1280,1280,Acornhoek,Ehlanzeni,Mpumalanga,South Africa,-24.6127569,30.9732917
Wales,1280,1280,Acornhoek,Ehlanzeni,Mpumalanga,South Africa,-24.7074013,30.9790281
Lillydale,-------,1281,Ximhungwe,Ehlanzeni,Mpumalanga,South Africa,-24.8705135,31.3679363
Ximhungwe,-------,1281,Nelspruit,Ehlanzeni,Mpumalanga,South Africa,-25.48164,30.98383
Shatale,-------,1282,Bushbuckridge,Ehlanzeni,Mpumalanga,South Africa,-24.7623592,31.0434548
Maxakeni,-------,1283,Bushbuckridge,Ehlanzeni,Mpumalanga,South Africa,-24.8398416,31.0464101
Marite,-------,1284,Bushbuckridge,Ehlanzeni,Mpumalanga,South Africa,-24.9575298,31.109108
Mafemani,-------,1285,Bushbuckridge,Ehlanzeni,Mpumalanga,South Africa,-24.8044557,31.0872521
Buyisonto,-------,1286,Bosbokrand,Ehlanzeni,Mpumalanga,South Africa,-24.7765,31.134
Croquet Lawn,-------,1287,Ximhungwe,Ehlanzeni,Mpumalanga,South Africa,-24.8545414,31.2883857
Zoeknog,-------,1288,Nelspruit,Ehlanzeni,Mpumalanga,South Africa,-24.7566785,30.9732917
Justicia,-------,1289,Justicia,Ehlanzeni,Mpumalanga,South Africa,-24.8850827,31.40847309999999
Pelgrimsrus,-------,1290,Sabie,Ehlanzeni,Mpumalanga,South Africa,-24.8911913,30.7543917
Pilgrim's Rest,-------,1290,Sabie,Ehlanzeni,Mpumalanga,South Africa,-24.8911913,30.7543917
Pilgrimsrus,-------,1290,Sabie,Ehlanzeni,Mpumalanga,South Africa,-24.8911913,30.7543917
Lilydale,-------,1291,Lilydale,Ehlanzeni,Mpumalanga,South Africa,-24.8705135,31.3679363
Kaapmuiden,-------,1295,Nelspruit,Ehlanzeni,Mpumalanga,South Africa,-25.533333,31.316667
Asiatic,-------,1300,Barberton,Ehlanzeni,Mpumalanga,South Africa,-25.7752265,31.0449768
Asiatic Ext,1300,1300,Barberton,Ehlanzeni,Mpumalanga,South Africa,-27.3796932,30.1262704
Asiatic Ext 1,1300,1300,Barberton,Ehlanzeni,Mpumalanga,South Africa,-25.7752265,31.0449768
Asiatic Uit,1300,1300,Barberton,Ehlanzeni,Mpumalanga,South Africa,-25.7752265,31.0449768
Asiatic Uit 1,1300,1300,Barberton,Ehlanzeni,Mpumalanga,South Africa,-27.3796932,30.1262704
Barberton,1300,1300,Barberton,Ehlanzeni,Mpumalanga,South Africa,-25.7772077,31.0478433
Barberton Ext,1300,1300,Barberton,Ehlanzeni,Mpumalanga,South Africa,-25.7772077,31.0478433
Barberton Ext 1,1300,1300,Barberton,Ehlanzeni,Mpumalanga,South Africa,-25.7772077,31.0478433
Barberton Ext 2,1300,1300,Barberton,Ehlanzeni,Mpumalanga,South Africa,-25.7772077,31.0478433
Barberton Ext 3,1300,1300,Barberton,Ehlanzeni,Mpumalanga,South Africa,-25.7772077,31.0478433
Barberton Ext 4,1300,1300,Barberton,Ehlanzeni,Mpumalanga,South Africa,-25.7772077,31.0478433
Barberton Ext 5,1300,1300,Barberton,Ehlanzeni,Mpumalanga,South Africa,-25.7772077,31.0478433
Barberton Ext 6,1300,1300,Barberton,Ehlanzeni,Mpumalanga,South Africa,-25.7772077,31.0478433
Barberton Ext 7,1300,1300,Barberton,Ehlanzeni,Mpumalanga,South Africa,-25.7772077,31.0478433
Barberton Ext 9,1300,1300,Barberton,Ehlanzeni,Mpumalanga,South Africa,-25.7772077,31.0478433
Barberton Uit,1300,1300,Barberton,Ehlanzeni,Mpumalanga,South Africa,-25.7772077,31.0478433
Barberton Uit 1,1300,1300,Barberton,Ehlanzeni,Mpumalanga,South Africa,-25.7772077,31.0478433
Barberton Uit 2,1300,1300,Barberton,Ehlanzeni,Mpumalanga,South Africa,-25.7772077,31.0478433
Barberton Uit 3,1300,1300,Barberton,Ehlanzeni,Mpumalanga,South Africa,-25.7772077,31.0478433
Barberton Uit 4,1300,1300,Barberton,Ehlanzeni,Mpumalanga,South Africa,-25.7772077,31.0478433
Barberton Uit 5,1300,1300,Barberton,Ehlanzeni,Mpumalanga,South Africa,-25.7772077,31.0478433
Barberton Uit 6,1300,1300,Barberton,Ehlanzeni,Mpumalanga,South Africa,-25.7772077,31.0478433
Barberton Uit 7,1300,1300,Barberton,Ehlanzeni,Mpumalanga,South Africa,-25.7772077,31.0478433
Barberton Uit 9,1300,1300,Barberton,Ehlanzeni,Mpumalanga,South Africa,-25.7772077,31.0478433
Bray Street,-------,1300,Barberton,Ehlanzeni,Mpumalanga,South Africa,-25.7946894,31.0454739
Braystraat,-------,1300,Barberton,Ehlanzeni,Mpumalanga,South Africa,-25.7752265,31.0449768
New Village,-------,1300,Barberton,Ehlanzeni,Mpumalanga,South Africa,-25.7734474,31.0327933
New Village Ext,-------,1300,Barberton,Ehlanzeni,Mpumalanga,South Africa,-25.7734474,31.0327933
New Village Ext 1,-------,1300,Barberton,Ehlanzeni,Mpumalanga,South Africa,-25.7734474,31.0327933
New Village Uit,-------,1300,Barberton,Ehlanzeni,Mpumalanga,South Africa,-25.7734474,31.0327933
New Village Uit 1,-------,1300,Barberton,Ehlanzeni,Mpumalanga,South Africa,-25.7734474,31.0327933
Spearville,-------,1300,Barberton,Ehlanzeni,Mpumalanga,South Africa,-25.7754514,31.0299265
Ekulindeni,-------,1301,Belfast,Gert Sibande,Mpumalanga,South Africa,-25.9968503,31.0736389
Tonetti,-------,1303,Barberton,Ehlanzeni,Mpumalanga,South Africa,-25.7752265,31.0449768
Noordkaap,-------,1304,Nelspruit,Ehlanzeni,Mpumalanga,South Africa,-25.65,31.066667
Crysbestos,-------,1307,Barberton,Ehlanzeni,Mpumalanga,South Africa,-25.7752265,31.0449768
Emjindini,-------,1309,Barberton,Ehlanzeni,Mpumalanga,South Africa,-25.763061,31.0120069
Kwa Mhola,-------,1309,Barberton,Ehlanzeni,Mpumalanga,South Africa,-25.7689,31.0215699
Phumula Loc,-------,1309,Barberton,Ehlanzeni,Mpumalanga,South Africa,-25.7670266,31.0177415
Malelane,-------,1320,Malelane,Ehlanzeni,Mpumalanga,South Africa,-25.4860587,31.548418
Marloth Park,-------,1321,Malelane,Ehlanzeni,Mpumalanga,South Africa,-25.3679673,31.77653089999999
Marlothpark,-------,1321,Malelane,Ehlanzeni,Mpumalanga,South Africa,-25.3679673,31.77653089999999
Hectorspruit,-------,1330,Hectorspruit,Ehlanzeni,Mpumalanga,South Africa,-25.4397991,31.6810647
Ntunda,-------,1330,Ntunda,Ehlanzeni,Mpumalanga,South Africa,-25.7297982,31.7565894
Bosfontein,-------,1331,Shongwe Mission,Ehlanzeni,Mpumalanga,South Africa,-25.68583,31.4941699
Buffelspruit,-------,1331,Shongwe Mission,Ehlanzeni,Mpumalanga,South Africa,-25.68583,31.4941699
Schoemansdal,-------,1331,Shongwe Mission,Ehlanzeni,Mpumalanga,South Africa,-25.68583,31.4941699
Shongwe Mission,-------,1331,Malelane,Ehlanzeni,Mpumalanga,South Africa,-25.68583,31.4941699
Sidlamafa,-------,1332,Shongwe Mission,Ehlanzeni,Mpumalanga,South Africa,-25.68583,31.4941699
Imbongozi,-------,1333,Imbongozi,Ehlanzeni,Mpumalanga,South Africa,-25.565336,30.5279096
Magogeni,-------,1334,Nelspruit,Ehlanzeni,Mpumalanga,South Africa,-25.7934353,31.6026364
Mbambiso,-------,1335,Shongwe Mission,Ehlanzeni,Mpumalanga,South Africa,-25.74363,31.60632
Schulzendal,-------,1336,Shongwe Mission,Ehlanzeni,Mpumalanga,South Africa,-25.68583,31.4941699
Emabondvweni,-------,1337,Shongwe Mission,Ehlanzeni,Mpumalanga,South Africa,-25.68583,31.4941699
Langeloop,-------,1337,Shongwe Mission,Ehlanzeni,Mpumalanga,South Africa,-25.68583,31.49416999999999
Komatipoort,1340,1340,Komatipoort,Ehlanzeni,Mpumalanga,South Africa,-25.450971,31.95868699999999
Kwalugedlane,-------,1341,Komatipoort,Ehlanzeni,Mpumalanga,South Africa,-25.44246,31.98575
Masibekela,-------,1342,Komatipoort,Ehlanzeni,Mpumalanga,South Africa,-25.44246,31.98575
Imbuzini,-------,1343,Komatipoort,Ehlanzeni,Mpumalanga,South Africa,-25.44246,31.98575
Mazolwandle,-------,1344,Komatipoort,Ehlanzeni,Mpumalanga,South Africa,-25.450971,31.95868699999999
Nsizwane,-------,1345,Komatipoort,Ehlanzeni,Mpumalanga,South Africa,-25.450971,31.95868699999999
Uthokozani,-------,1346,Uthokozani,Ehlanzeni,Mpumalanga,South Africa,-25.3292772,31.064272
Steenbok,-------,1347,Kwalugedlane,Ehlanzeni,Mpumalanga,South Africa,-25.7355632,31.8961047
Hoyi,-------,1348,Kwalugedlane,Ehlanzeni,Mpumalanga,South Africa,-25.7914037,31.8484329
Sihlangu,-------,1349,Nelspruit,Ehlanzeni,Mpumalanga,South Africa,-25.85,31.783333
Skukuza,-------,1350,Nelspruit,Ehlanzeni,Mpumalanga,South Africa,-24.9948298,31.59693039999999
Clanor,-------,1351,Skukuza,Ehlanzeni,Mpumalanga,South Africa,-24.9948298,31.59693039999999
Mzinti,-------,1352,Kwalugedlane,Ehlanzeni,Mpumalanga,South Africa,-25.6878052,31.7359893
Malamala,-------,1353,Skukuza,Ehlanzeni,Mpumalanga,South Africa,-24.8154238,31.5439549
Mananga,-------,1354,Skukuza,Ehlanzeni,Mpumalanga,South Africa,-24.9726053,31.4770647
Mbangwane,-------,1355,Nelspruit,Ehlanzeni,Mpumalanga,South Africa,-25.8286731,31.8932592
Dludluma,-------,1356,Skukuza,Ehlanzeni,Mpumalanga,South Africa,-25.6597737,31.9569504
Kwa-Sibhejane,-------,1357,Kwa-Sibhejane,Ehlanzeni,Mpumalanga,South Africa,-25.565336,30.5279096
Phiva,-------,1358,Phiva,Ehlanzeni,Mpumalanga,South Africa,-25.6410653,31.7736823
Mdladla,-------,1359,Mdladla,Ehlanzeni,Mpumalanga,South Africa,-25.6392531,31.7259762
Acornhoek,1360,1360,Nelspruit,Ehlanzeni,Mpumalanga,South Africa,-24.6056556,31.0874925
Brooklyn,-------,1360,Acornhoek,Ehlanzeni,Mpumalanga,South Africa,-24.5972342,31.000537
Buffelshoek,1360,1360,Acornhoek,Ehlanzeni,Mpumalanga,South Africa,-24.6327485,31.1309426
Dingledale,-------,1360,Acornhoek,Ehlanzeni,Mpumalanga,South Africa,-24.7036983,31.1192259
Humulani,-------,1360,Acornhoek,Ehlanzeni,Mpumalanga,South Africa,-24.60678,31.0717
Ka Josefa,-------,1360,Acornhoek,Ehlanzeni,Mpumalanga,South Africa,-24.6056556,31.0874925
Maanawe,-------,1360,Acornhoek,Ehlanzeni,Mpumalanga,South Africa,-24.6056556,31.0874925
Mack And Grands,-------,1360,Acornhoek,Ehlanzeni,Mpumalanga,South Africa,-24.6056556,31.0874925
Malitshego,-------,1360,Acornhoek,Ehlanzeni,Mpumalanga,South Africa,-24.6056556,31.0874925
Malungana,-------,1360,Acornhoek,Ehlanzeni,Mpumalanga,South Africa,-24.6056556,31.0874925
Ngqumathini,-------,1360,Acornhoek,Ehlanzeni,Mpumalanga,South Africa,-24.6056556,31.0874925
Phaahledi,-------,1360,Acornhoek,Ehlanzeni,Mpumalanga,South Africa,-24.6056556,31.0874925
Timbavati,-------,1360,Acornhoek,Ehlanzeni,Mpumalanga,South Africa,-24.5618977,31.1505425
Cottondale,-------,1361,Acornhoek,Ehlanzeni,Mpumalanga,South Africa,-24.6185529,31.1638798
Manyeleti,-------,1362,Hluvukani,Ehlanzeni,Mpumalanga,South Africa,-24.6479532,31.5262986
Gottenburg,-------,1363,Hluvukani,Ehlanzeni,Mpumalanga,South Africa,-24.6211253,31.4299042
Hluvukani,-------,1363,Hluvukani,Ehlanzeni,Mpumalanga,South Africa,-24.6466,31.3484448
Ga Pharia,-------,1364,Hluvukani,Ehlanzeni,Mpumalanga,South Africa,32.1656221,-82.9000751
Ga-pharia,-------,1364,Hluvukani,Ehlanzeni,Mpumalanga,South Africa,32.1656221,-82.9000751
Ludlow,-------,1365,Thulamahashe,Ehlanzeni,Mpumalanga,South Africa,-24.7241579,31.2097022
Thulamahashe,1365,1365,Acornhoek,Ehlanzeni,Mpumalanga,South Africa,-24.7241579,31.2097022
Mugena,-------,1366,Thulamahashe,Ehlanzeni,Mpumalanga,South Africa,46.05,8.883333
Khokhovela,-------,1367,Acornhoek,Ehlanzeni,Mpumalanga,South Africa,-24.62583,31.2654979
Agincourt,-------,1368,Ximhungwe,Ehlanzeni,Mpumalanga,South Africa,-24.827888,31.219709
Dumphries,-------,1369,Thulamahashe,Ehlanzeni,Mpumalanga,South Africa,-24.7241579,31.2097022
Casteel,1370,1370,Acornhoek,Ehlanzeni,Mpumalanga,South Africa,-24.7228758,31.0163079
Liphungu,-------,1372,Liphungu,Ehlanzeni,Mpumalanga,South Africa,-25.565336,30.5279096
Songeni,-------,1374,Songeni,Ehlanzeni,Mpumalanga,South Africa,-24.6771105,31.1638798
Rooiboklaagte,-------,1375,Rooiboklaagte,Ehlanzeni,Mpumalanga,South Africa,-24.6558033,31.065041
Tonga View,-------,1377,Kwalugedlane,Ehlanzeni,Mpumalanga,South Africa,-25.6910074,31.7694094
Murhotso,-------,1378,Acornhoek,Ehlanzeni,Mpumalanga,South Africa,-24.5664297,31.1439449
Rietkol,-------,2200,Sundra,Nkangala,Mpumalanga,South Africa,-26.1978577,28.54186
Sundra,-------,2200,Witbank,Nkangala,Mpumalanga,South Africa,-26.1978577,28.54186
Botleng,2210,2210,Delmas,Nkangala,Mpumalanga,South Africa,-26.1044823,28.699391
Botleng Ext 1,-------,2210,Delmas,Nkangala,Mpumalanga,South Africa,-26.1047864,28.6949727
Botleng Ext 2,-------,2210,Delmas,Nkangala,Mpumalanga,South Africa,-26.1047864,28.6949727
Botleng Ext 3,-------,2210,Delmas,Nkangala,Mpumalanga,South Africa,-26.1047864,28.6949727
Botleng Ext 4,-------,2210,Delmas,Nkangala,Mpumalanga,South Africa,-26.1047864,28.6949727
Botleng Ext 5,-------,2210,Delmas,Nkangala,Mpumalanga,South Africa,-26.1047864,28.6949727
Botleng Ext 6,-------,2210,Delmas,Nkangala,Mpumalanga,South Africa,-26.1047864,28.6949727
Botleng Uit 1,-------,2210,Delmas,Nkangala,Mpumalanga,South Africa,-26.1044823,28.699391
Botleng Uit 2,-------,2210,Delmas,Nkangala,Mpumalanga,South Africa,-26.1044823,28.699391
Botleng Uit 3,-------,2210,Delmas,Nkangala,Mpumalanga,South Africa,-26.1044823,28.699391
Botleng Uit 4,-------,2210,Delmas,Nkangala,Mpumalanga,South Africa,-26.1044823,28.699391
Botleng Uit 5,-------,2210,Delmas,Nkangala,Mpumalanga,South Africa,-26.1044823,28.699391
Botleng Uit 6,-------,2210,Delmas,Nkangala,Mpumalanga,South Africa,-26.1044823,28.699391
Delmas,-------,2210,Delmas,Nkangala,Mpumalanga,South Africa,-26.1508165,28.597305
Delmas,2210,2210,Witbank,Nkangala,Mpumalanga,South Africa,-26.1403469,28.6786903
Delmas Ext 1,2210,2210,Delmas,Nkangala,Mpumalanga,South Africa,-26.1508165,28.597305
Delmas Ext 14,2210,2210,Delmas,Nkangala,Mpumalanga,South Africa,-26.1508165,28.597305
Delmas Ext 2,2210,2210,Delmas,Nkangala,Mpumalanga,South Africa,-26.1508165,28.597305
Delmas Ext 3,2210,2210,Delmas,Nkangala,Mpumalanga,South Africa,-26.1047864,28.6949727
Delmas Ext 4,2210,2210,Delmas,Nkangala,Mpumalanga,South Africa,-26.1403469,28.6786903
Delmas Uit 1,2210,2210,Delmas,Nkangala,Mpumalanga,South Africa,-26.1508165,28.597305
Delmas Uit 14,2210,2210,Delmas,Nkangala,Mpumalanga,South Africa,-26.1508165,28.597305
Delmas Uit 2,2210,2210,Delmas,Nkangala,Mpumalanga,South Africa,-26.1508165,28.597305
Delmas Uit 3,2210,2210,Delmas,Nkangala,Mpumalanga,South Africa,-26.1508165,28.597305
Delmas Uit 4,2210,2210,Delmas,Nkangala,Mpumalanga,South Africa,-26.1385641,28.67791979999999
Mandela Squater Camp,-------,2210,Delmas,Nkangala,Mpumalanga,South Africa,-26.1403469,28.6786903
Droogefontein,-------,2211,Sundra,Nkangala,Mpumalanga,South Africa,-26.1978577,28.54186
Eloff,-------,2211,Delmas,Nkangala,Mpumalanga,South Africa,-26.1694834,28.604599
Greenworld,-------,2213,Delmas,Gert Sibande,Mpumalanga,South Africa,-26.1403469,28.6786903
Kendal,2225,2225,Witbank,Nkangala,Mpumalanga,South Africa,-26.066667,28.95
Voltargo,-------,2226,Witbank,Nkangala,Mpumalanga,South Africa,-25.8727817,29.2553229
Ogies,2230,2230,Witbank,Nkangala,Mpumalanga,South Africa,-26.0473904,29.06053889999999
Rietspruit,-------,2231,Kriel,Nkangala,Mpumalanga,South Africa,-26.2235764,29.0994642
Khuthala,-------,2232,Ogies,Nkangala,Mpumalanga,South Africa,-26.123808,29.0040029
Phola,2233,2233,Ogies,Nkangala,Mpumalanga,South Africa,-26.0040319,29.0372643
New Clydesdale,-------,2245,Van Dyksdrif,Nkangala,Mpumalanga,South Africa,-26.1358262,29.3172131
Van Dyksdrif,-------,2245,Van Dyksdrif,Nkangala,Mpumalanga,South Africa,-26.09556,29.32
Blinkpan,-------,2250,Witbank,Nkangala,Mpumalanga,South Africa,-26.1,29.433333
Koornfontein,-------,2250,Blinkpan,Nkangala,Mpumalanga,South Africa,-26.1,29.433333
Devon,2260,2260,Evander,Gert Sibande,Mpumalanga,South Africa,-26.3591403,28.79267
Leandra,2265,2265,Leslie,Gert Sibande,Mpumalanga,South Africa,-26.3677064,28.9193829
Leandra Ext 10,2265,2265,Leslie,Gert Sibande,Mpumalanga,South Africa,-26.3677064,28.9193829
Leandra Uit 10,2265,2265,Leslie,Gert Sibande,Mpumalanga,South Africa,-26.3677064,28.9193829
Lebohang,2265,2265,Leslie,Gert Sibande,Mpumalanga,South Africa,-26.3677064,28.9193829
Lebohang Ext 10,2265,2265,Leslie,Gert Sibande,Mpumalanga,South Africa,-26.3677064,28.9193829
Lebohang Ext 11,2265,2265,Leslie,Gert Sibande,Mpumalanga,South Africa,-26.3677064,28.9193829
Lebohang Ext 12,2265,2265,Leslie,Gert Sibande,Mpumalanga,South Africa,-26.3677064,28.9193829
Lebohang Ext 15,2265,2265,Leslie,Gert Sibande,Mpumalanga,South Africa,-26.3677064,28.9193829
Lebohang Ext 17,2265,2265,Leslie,Gert Sibande,Mpumalanga,South Africa,-26.3677064,28.9193829
Lebohang Ext 4,2265,2265,Leslie,Gert Sibande,Mpumalanga,South Africa,-26.3292313,27.8318755
Lebohang Ext 5,2265,2265,Leslie,Gert Sibande,Mpumalanga,South Africa,-26.3677064,28.9193829
Lebohang Ext 6,2265,2265,Leslie,Gert Sibande,Mpumalanga,South Africa,-26.3296299,27.8267467
Lebohang Ext 9,2265,2265,Leslie,Gert Sibande,Mpumalanga,South Africa,-26.3306231,27.8736326
Lebohang Uit 10,2265,2265,Leslie,Gert Sibande,Mpumalanga,South Africa,-26.3677064,28.9193829
Lebohang Uit 11,2265,2265,Leslie,Gert Sibande,Mpumalanga,South Africa,-26.3677064,28.9193829
Lebohang Uit 12,2265,2265,Leslie,Gert Sibande,Mpumalanga,South Africa,-26.3677064,28.9193829
Lebohang Uit 15,2265,2265,Leslie,Gert Sibande,Mpumalanga,South Africa,-26.3677064,28.9193829
Lebohang Uit 17,2265,2265,Leslie,Gert Sibande,Mpumalanga,South Africa,-26.3677064,28.9193829
Lebohang Uit 4,2265,2265,Leslie,Gert Sibande,Mpumalanga,South Africa,-26.3677064,28.9193829
Lebohang Uit 5,2265,2265,Leslie,Gert Sibande,Mpumalanga,South Africa,-26.3677064,28.9193829
Lebohang Uit 6,2265,2265,Leslie,Gert Sibande,Mpumalanga,South Africa,-26.3677064,28.9193829
Lebohang Uit 9,2265,2265,Leslie,Gert Sibande,Mpumalanga,South Africa,-26.3677064,28.9193829
Leslie,2265,2265,Leslie,Gert Sibande,Mpumalanga,South Africa,-26.3677064,28.9193829
Eendrag,2266,2266,Evander,Gert Sibande,Mpumalanga,South Africa,-26.4745919,29.1103414
Kinross,2270,2270,Evander,Gert Sibande,Mpumalanga,South Africa,-26.4745919,29.1103414
Kinross Ext 25,2270,2270,Evander,Gert Sibande,Mpumalanga,South Africa,-26.4745919,29.1103414
Kinross Uit 25,2270,2270,Evander,Gert Sibande,Mpumalanga,South Africa,-26.4745919,29.1103414
Ethubelihle,-------,2271,Kriel,Nkangala,Mpumalanga,South Africa,-26.2155045,29.2916352
Kriel,2271,2271,Kriel,Nkangala,Mpumalanga,South Africa,-26.2551061,29.2633978
Thubelihle,2271,2276,Kriel,Nkangala,Mpumalanga,South Africa,-26.2155045,29.2916352
Kwanala,-------,2272,Kriel,Nkangala,Mpumalanga,South Africa,-26.2486699,29.2
Matco,-------,2275,Kriel,Nkangala,Mpumalanga,South Africa,-26.2551061,29.2633978
Thubelihle,2271,2276,Kriel,Nkangala,Mpumalanga,South Africa,-26.2155045,29.2916352
Afghanistan Ext 25,2280,2280,Evander,Gert Sibande,Mpumalanga,South Africa,-26.4745919,29.1103414
Afghanistan Uit 25,2280,2280,Evander,Gert Sibande,Mpumalanga,South Africa,-26.4745919,29.1103414
Evander,2280,2280,Evander,Gert Sibande,Mpumalanga,South Africa,-26.4745919,29.1103414
Tornaka,2284,-------,Evander,Gert Sibande,Mpumalanga,South Africa,-26.4745919,29.1103414
Embalenhle,2285,2285,Evander,Gert Sibande,Mpumalanga,South Africa,-26.4745919,29.1103414
Embalenhle,-------,2285,Embalenhle,Gert Sibande,Mpumalanga,South Africa,-26.5524312,29.0750837
Embalenhle Ext 1,2285,2285,Embalenhle,Gert Sibande,Mpumalanga,South Africa,-26.5524727,29.0663729
Embalenhle Ext 10,2285,2285,Embalenhle,Gert Sibande,Mpumalanga,South Africa,-26.5524312,29.0750837
Embalenhle Ext 11,2285,2285,Embalenhle,Gert Sibande,Mpumalanga,South Africa,-26.5524312,29.0750837
Embalenhle Ext 12,2285,2285,Embalenhle,Gert Sibande,Mpumalanga,South Africa,-26.5524312,29.0750837
Embalenhle Ext 13,2285,2285,Embalenhle,Gert Sibande,Mpumalanga,South Africa,-26.5524312,29.0750837
Embalenhle Ext 14,2285,2285,Embalenhle,Gert Sibande,Mpumalanga,South Africa,-26.5722929,29.096822
Embalenhle Ext 15,2285,2285,Embalenhle,Gert Sibande,Mpumalanga,South Africa,-26.5524312,29.0750837
Embalenhle Ext 16,2285,2285,Embalenhle,Gert Sibande,Mpumalanga,South Africa,-26.5524312,29.0750837
Embalenhle Ext 17,2285,2285,Embalenhle,Gert Sibande,Mpumalanga,South Africa,-26.5524312,29.0750837
Embalenhle Ext 18,2285,2285,Embalenhle,Gert Sibande,Mpumalanga,South Africa,-26.5524312,29.0750837
Embalenhle Ext 19,2285,2285,Embalenhle,Gert Sibande,Mpumalanga,South Africa,-26.564,29.071383
Embalenhle Ext 2,2285,2285,Embalenhle,Gert Sibande,Mpumalanga,South Africa,-26.5524312,29.0750837
Embalenhle Ext 20,2285,2285,Evander,Gert Sibande,Mpumalanga,South Africa,-26.4745919,29.1103414
Embalenhle Ext 21,2285,2285,Embalenhle,Gert Sibande,Mpumalanga,South Africa,-26.5524312,29.0750837
Embalenhle Ext 22,2285,2285,Embalenhle,Gert Sibande,Mpumalanga,South Africa,-26.5652178,29.0674377
Embalenhle Ext 25,2285,2285,Embalenhle,Gert Sibande,Mpumalanga,South Africa,-26.5524312,29.0750837
Embalenhle Ext 26,2285,2285,Embalenhle,Gert Sibande,Mpumalanga,South Africa,-26.568969,29.092094
Embalenhle Ext 3,2285,2285,Embalenhle,Gert Sibande,Mpumalanga,South Africa,-26.5524312,29.0750837
Embalenhle Ext 4,2285,2285,Embalenhle,Gert Sibande,Mpumalanga,South Africa,-26.5353253,29.0862127
Embalenhle Ext 5,2285,2285,Embalenhle,Gert Sibande,Mpumalanga,South Africa,-26.5524312,29.0750837
Embalenhle Ext 6,2285,2285,Embalenhle,Gert Sibande,Mpumalanga,South Africa,-26.5524312,29.0750837
Embalenhle Ext 7,2285,2285,Embalenhle,Gert Sibande,Mpumalanga,South Africa,-26.5524312,29.0750837
Embalenhle Ext 8,2285,2285,Embalenhle,Gert Sibande,Mpumalanga,South Africa,-26.5524312,29.0750837
Embalenhle Ext 9,2285,2285,Embalenhle,Gert Sibande,Mpumalanga,South Africa,-26.5524312,29.0750837
Embalenhle Uit 1,2285,2285,Embalenhle,Gert Sibande,Mpumalanga,South Africa,-26.5524312,29.0750837
Embalenhle Uit 10,2285,2285,Embalenhle,Gert Sibande,Mpumalanga,South Africa,-26.5524312,29.0750837
Embalenhle Uit 11,2285,2285,Embalenhle,Gert Sibande,Mpumalanga,South Africa,-26.5524312,29.0750837
Embalenhle Uit 12,2285,2285,Embalenhle,Gert Sibande,Mpumalanga,South Africa,-26.5524312,29.0750837
Embalenhle Uit 13,2285,2285,Embalenhle,Gert Sibande,Mpumalanga,South Africa,-26.5524312,29.0750837
Embalenhle Uit 14,2285,2285,Embalenhle,Gert Sibande,Mpumalanga,South Africa,-26.5524312,29.0750837
Embalenhle Uit 15,2285,2285,Embalenhle,Gert Sibande,Mpumalanga,South Africa,-26.5524312,29.0750837
Embalenhle Uit 16,2285,2285,Embalenhle,Gert Sibande,Mpumalanga,South Africa,-26.5524312,29.0750837
Embalenhle Uit 17,2285,2285,Embalenhle,Gert Sibande,Mpumalanga,South Africa,-26.5524312,29.0750837
Embalenhle Uit 18,2285,2285,Embalenhle,Gert Sibande,Mpumalanga,South Africa,-26.5524312,29.0750837
Embalenhle Uit 19,2285,2285,Embalenhle,Gert Sibande,Mpumalanga,South Africa,-26.5524312,29.0750837
Embalenhle Uit 2,2285,2285,Embalenhle,Gert Sibande,Mpumalanga,South Africa,-26.5524312,29.0750837
Embalenhle Uit 20,2285,2285,Evander,Gert Sibande,Mpumalanga,South Africa,-26.4745919,29.1103414
Embalenhle Uit 21,2285,2285,Embalenhle,Gert Sibande,Mpumalanga,South Africa,-26.5524312,29.0750837
Embalenhle Uit 22,2285,2285,Embalenhle,Gert Sibande,Mpumalanga,South Africa,-26.5524312,29.0750837
Embalenhle Uit 25,2285,2285,Embalenhle,Gert Sibande,Mpumalanga,South Africa,-26.5524312,29.0750837
Embalenhle Uit 26,2285,2285,Embalenhle,Gert Sibande,Mpumalanga,South Africa,-26.5524312,29.0750837
Embalenhle Uit 3,2285,2285,Embalenhle,Gert Sibande,Mpumalanga,South Africa,-26.5524312,29.0750837
Embalenhle Uit 4,2285,2285,Embalenhle,Gert Sibande,Mpumalanga,South Africa,-26.5524312,29.0750837
Embalenhle Uit 5,2285,2285,Embalenhle,Gert Sibande,Mpumalanga,South Africa,-26.5524312,29.0750837
Embalenhle Uit 6,2285,2285,Embalenhle,Gert Sibande,Mpumalanga,South Africa,-26.5524312,29.0750837
Embalenhle Uit 7,2285,2285,Embalenhle,Gert Sibande,Mpumalanga,South Africa,-26.5524312,29.0750837
Embalenhle Uit 8,2285,2285,Embalenhle,Gert Sibande,Mpumalanga,South Africa,-26.5524312,29.0750837
Embalenhle Uit 9,2285,2285,Embalenhle,Gert Sibande,Mpumalanga,South Africa,-26.5524312,29.0750837
Langverwagt,-------,2285,Evander,Gert Sibande,Mpumalanga,South Africa,-26.4745919,29.1103414
Langverwagt Ext 17,2285,-------,Evander,Gert Sibande,Mpumalanga,South Africa,-25.9150057,29.2360738
Langverwagt Uit 17,2285,-------,Evander,Gert Sibande,Mpumalanga,South Africa,-26.4745919,29.1103414
Mbalentle,2285,-------,Evander,Gert Sibande,Mpumalanga,South Africa,-26.4745919,29.1103414
White City,2285,-------,Embalenhle,Gert Sibande,Mpumalanga,South Africa,-25.7707677,31.0332413
White City Ext,2285,-------,Embalenhle,Gert Sibande,Mpumalanga,South Africa,-25.7707677,31.0332413
White City Uit,2285,-------,Embalenhle,Gert Sibande,Mpumalanga,South Africa,-25.7707677,31.0332413
Trichardt,2300,2300,Secunda,Gert Sibande,Mpumalanga,South Africa,-26.4844792,29.2233608
Trichardt Ext 1,2300,2300,Secunda,Gert Sibande,Mpumalanga,South Africa,-26.5054901,29.2077258
Trichardt Uit 1,2300,2300,Secunda,Gert Sibande,Mpumalanga,South Africa,-26.5054901,29.2077258
Charl Cilliers,-------,2301,Secunda,Gert Sibande,Mpumalanga,South Africa,-26.6630456,29.1870318
Colliery,-------,2302,Colliery,Gert Sibande,Mpumalanga,South Africa,-26.2034929,29.0159368
Colliery,2302,2302,Secunda,Gert Sibande,Mpumalanga,South Africa,-26.4352762,29.2111007
Driefontein,-------,2302,Secunda,Gert Sibande,Mpumalanga,South Africa,-26.505477,29.19514599999999
Hoeveldrif,-------,2302,Secunda,Gert Sibande,Mpumalanga,South Africa,-26.488404,29.226375
Palms,-------,2302,Secunda,Gert Sibande,Mpumalanga,South Africa,-26.5157792,29.1913918
Secunda,2302,2302,Secunda,Gert Sibande,Mpumalanga,South Africa,-26.5157792,29.1913918
Secunda Ext 16,2302,2302,Secunda,Gert Sibande,Mpumalanga,South Africa,-26.5157792,29.1913918
Secunda Ext 22,2302,2302,Secunda,Gert Sibande,Mpumalanga,South Africa,-26.5157792,29.1913918
Secunda Ext 23,2302,2302,Secunda,Gert Sibande,Mpumalanga,South Africa,-26.5157792,29.1913918
Secunda Ext 32,2302,-------,Secunda,Gert Sibande,Mpumalanga,South Africa,-26.5157792,29.1913918
Secunda Uit 16,2302,2302,Secunda,Gert Sibande,Mpumalanga,South Africa,-26.5157792,29.1913918
Secunda Uit 22,2302,2302,Secunda,Gert Sibande,Mpumalanga,South Africa,-26.5157792,29.1913918
Secunda Uit 23,2302,2302,Secunda,Gert Sibande,Mpumalanga,South Africa,-26.5157792,29.1913918
Secunda Uit 32,2302,-------,Secunda,Gert Sibande,Mpumalanga,South Africa,-26.5157792,29.1913918
Bethal,2309,2310,Bethal,Gert Sibande,Mpumalanga,South Africa,-26.4578664,29.466654
Bethal Ext 1,2309,-------,Bethal,Gert Sibande,Mpumalanga,South Africa,-26.4578664,29.466654
Bethal Uit 1,2309,-------,Bethal,Gert Sibande,Mpumalanga,South Africa,-26.4578664,29.466654
Emzinoni,2309,-------,Bethal,Gert Sibande,Mpumalanga,South Africa,-26.5019664,29.4324423
Bethal,2309,2310,Bethal,Gert Sibande,Mpumalanga,South Africa,-26.4578664,29.466654
Bethal Ext 5,2310,2310,Bethal,Gert Sibande,Mpumalanga,South Africa,-26.4578664,29.466654
Bethal Uit 5,2310,2310,Bethal,Gert Sibande,Mpumalanga,South Africa,-26.4578664,29.466654
Cauville,-------,2310,Cauville,Gert Sibande,Mpumalanga,South Africa,48.9475,-0.5719999
Cauville,2310,2310,Bethal,Gert Sibande,Mpumalanga,South Africa,48.9475,-0.5719999
Emzinoni Ext 1,2311,-------,Bethal,Gert Sibande,Mpumalanga,South Africa,-26.5019664,29.4324423
Emzinoni Ext 2,2311,-------,Bethal,Gert Sibande,Mpumalanga,South Africa,-26.5019664,29.4324423
Emzinoni Ext 22,2311,2311,Bethal,Gert Sibande,Mpumalanga,South Africa,-26.5019664,29.4324423
Emzinoni Ext 23,2311,-------,Bethal,Gert Sibande,Mpumalanga,South Africa,-26.5019664,29.4324423
Emzinoni Ext 3,2311,-------,Bethal,Gert Sibande,Mpumalanga,South Africa,-26.5019664,29.4324423
Emzinoni Ext 5,2311,2312,Bethal,Gert Sibande,Mpumalanga,South Africa,-26.5019664,29.4324423
Emzinoni Ext 6,2311,2312,Bethal,Gert Sibande,Mpumalanga,South Africa,-26.5019664,29.4324423
Emzinoni Uit 1,2311,-------,Bethal,Gert Sibande,Mpumalanga,South Africa,-26.5019664,29.4324423
Emzinoni Uit 2,2311,-------,Bethal,Gert Sibande,Mpumalanga,South Africa,-26.5019664,29.4324423
Emzinoni Uit 22,2311,2311,Bethal,Gert Sibande,Mpumalanga,South Africa,-26.5019664,29.4324423
Emzinoni Uit 23,2311,-------,Bethal,Gert Sibande,Mpumalanga,South Africa,-26.5019664,29.4324423
Emzinoni Uit 3,2311,-------,Bethal,Gert Sibande,Mpumalanga,South Africa,-26.5019664,29.4324423
Emzinoni Uit 5,2311,2312,Bethal,Gert Sibande,Mpumalanga,South Africa,-26.5019664,29.4324423
Emzinoni Uit 6,2311,2312,Bethal,Gert Sibande,Mpumalanga,South Africa,-26.5019664,29.4324423
Emzinoni Ext 4,2312,2312,Bethal,Gert Sibande,Mpumalanga,South Africa,-26.5019664,29.4324423
Emzinoni Ext 5,2311,2312,Bethal,Gert Sibande,Mpumalanga,South Africa,-26.5019664,29.4324423
Emzinoni Ext 6,2311,2312,Bethal,Gert Sibande,Mpumalanga,South Africa,-26.5019664,29.4324423
Emzinoni Uit 4,2312,2312,Bethal,Gert Sibande,Mpumalanga,South Africa,-26.5019664,29.4324423
Emzinoni Uit 5,2311,2312,Bethal,Gert Sibande,Mpumalanga,South Africa,-26.5019664,29.4324423
Emzinoni Uit 6,2311,2312,Bethal,Gert Sibande,Mpumalanga,South Africa,-26.5019664,29.4324423
Morgenzon,-------,2315,Morgenzon,Gert Sibande,Mpumalanga,South Africa,-26.7383609,29.6180407
Davel,-------,2320,Bethal,Gert Sibande,Mpumalanga,South Africa,-26.4477834,29.4770961
Top Shayela,-------,2329,Top Shayela,Gert Sibande,Mpumalanga,South Africa,-25.565336,30.5279096
Breyten,2330,2330,Ermelo,Gert Sibande,Mpumalanga,South Africa,-26.3019685,29.9827252
Kwazanele,-------,2330,Breyten,Gert Sibande,Mpumalanga,South Africa,-26.3136635,29.9841704
Chrissiesmeer,2332,2332,Ermelo,Gert Sibande,Mpumalanga,South Africa,-26.2794984,30.2195374
Warburton,-------,2333,Ermelo,Gert Sibande,Mpumalanga,South Africa,-26.2290894,30.476427
The Brook,-------,2334,Ermelo,Gert Sibande,Mpumalanga,South Africa,-26.5123582,29.9856157
Mpuluzi,2335,2335,Mpuluzi,Gert Sibande,Mpumalanga,South Africa,-26.2806964,30.5932054
Dundonald,-------,2336,Ermelo,Gert Sibande,Mpumalanga,South Africa,-26.2432327,30.8297947
Dundonald Ext 2,2336,-------,Dundonald,Gert Sibande,Mpumalanga,South Africa,-26.2432327,30.8297947
Dundonald Uit 2,2336,-------,Dundonald,Gert Sibande,Mpumalanga,South Africa,-26.2432327,30.8297947
Glenmore,2336,-------,Dundonald,Gert Sibande,Mpumalanga,South Africa,-26.2432327,30.8297947
Lochiel,2337,2337,Ermelo,Gert Sibande,Mpumalanga,South Africa,-26.1549591,30.8096918
Fernie,-------,2339,Ermelo,Gert Sibande,Mpumalanga,South Africa,-26.3872812,30.7881492
Zwallow Nest,-------,2340,Ermelo,Gert Sibande,Mpumalanga,South Africa,-26.5123582,29.9856157
Zwallow's Nest,-------,2340,Ermelo,Gert Sibande,Mpumalanga,South Africa,-26.5123582,29.9856157
Salebona,-------,2341,Ermelo,Gert Sibande,Mpumalanga,South Africa,-26.5123582,29.9856157
Fernie North,-------,2342,Mpuluzi,Gert Sibande,Mpumalanga,South Africa,-26.3872812,30.7881492
Fernie-noord,-------,2342,Mpuluzi,Gert Sibande,Mpumalanga,South Africa,-26.3872812,30.7881492
Ermelo,2351,2350,Ermelo,Gert Sibande,Mpumalanga,South Africa,-26.527048,29.9913964
Ermelo Ext 33,2351,2350,Ermelo,Nkangala,Mpumalanga,South Africa,-26.527048,29.9913964
Ermelo Uit 33,2351,2350,Ermelo,Nkangala,Mpumalanga,South Africa,-26.527048,29.9913964
Cassim Park,2351,-------,Ermelo,Gert Sibande,Mpumalanga,South Africa,-26.5260353,29.9668265
De Bruinpark,2351,-------,Ermelo,Gert Sibande,Mpumalanga,South Africa,-26.533994,29.973653
Ermelo,2351,2350,Ermelo,Gert Sibande,Mpumalanga,South Africa,-26.527048,29.9913964
Ermelo Ext 1,2351,-------,Ermelo,Gert Sibande,Mpumalanga,South Africa,-26.527048,29.9913964
Ermelo Ext 14,2351,-------,Ermelo,Gert Sibande,Mpumalanga,South Africa,-26.527048,29.9913964
Ermelo Ext 2,2351,-------,Ermelo,Gert Sibande,Mpumalanga,South Africa,-26.4987272,29.9684191
Ermelo Ext 33,2351,2350,Ermelo,Nkangala,Mpumalanga,South Africa,-26.527048,29.9913964
Ermelo Ext 4,2351,-------,Ermelo,Gert Sibande,Mpumalanga,South Africa,-26.527048,29.9913964
Ermelo Ext 6,2351,-------,Ermelo,Gert Sibande,Mpumalanga,South Africa,-26.3296299,27.8267467
Ermelo Uit 1,2351,-------,Ermelo,Gert Sibande,Mpumalanga,South Africa,-26.527048,29.9913964
Ermelo Uit 14,2351,-------,Ermelo,Gert Sibande,Mpumalanga,South Africa,-26.527048,29.9913964
Ermelo Uit 2,2351,-------,Ermelo,Gert Sibande,Mpumalanga,South Africa,-26.527048,29.9913964
Ermelo Uit 33,2351,2350,Ermelo,Nkangala,Mpumalanga,South Africa,-26.527048,29.9913964
Ermelo Uit 4,2351,-------,Ermelo,Gert Sibande,Mpumalanga,South Africa,-26.527048,29.9913964
Ermelo Uit 6,2351,-------,Ermelo,Gert Sibande,Mpumalanga,South Africa,-26.527048,29.9913964
Everestpark,2351,-------,Ermelo,Gert Sibande,Mpumalanga,South Africa,-26.5123582,29.9856157
George Bothapark,2351,2351,Ermelo,Gert Sibande,Mpumalanga,South Africa,-26.5123582,29.9856157
John Vorsterpark,2351,-------,Ermelo,Gert Sibande,Mpumalanga,South Africa,-26.5123582,29.9856157
Katshabalala,2351,-------,Ermelo,Gert Sibande,Mpumalanga,South Africa,-26.5123582,29.9856157
Klipbou,2351,-------,Ermelo,Gert Sibande,Mpumalanga,South Africa,-26.5123582,29.9856157
Nederlandpark,2351,-------,Ermelo,Gert Sibande,Mpumalanga,South Africa,-26.5401063,29.9935334
Phumula,2351,-------,Ermelo,Nkangala,Mpumalanga,South Africa,-26.50027,29.96569
Sun City,2351,2351,Ermelo,Nkangala,Mpumalanga,South Africa,-26.5123582,29.9856157
Tembisa,2351,-------,Ermelo,Gert Sibande,Mpumalanga,South Africa,-26.5000945,29.9711923
Wesselton,2351,2353,Ermelo,Gert Sibande,Mpumalanga,South Africa,-26.4987272,29.9684191
Wesselton Ext 1,2351,-------,Ermelo,Gert Sibande,Mpumalanga,South Africa,-26.4987272,29.9684191
Wesselton Ext 2,2351,-------,Ermelo,Gert Sibande,Mpumalanga,South Africa,-26.4987272,29.9684191
Wesselton Ext 3,2351,-------,Ermelo,Gert Sibande,Mpumalanga,South Africa,-26.4987272,29.9684191
Wesselton Ext 4,2351,-------,Ermelo,Gert Sibande,Mpumalanga,South Africa,-26.4987272,29.9684191
Wesselton Ext 5,2351,2351,Ermelo,Nkangala,Mpumalanga,South Africa,-26.4987272,29.9684191
Wesselton Ext 6,2351,-------,Ermelo,Gert Sibande,Mpumalanga,South Africa,-26.4987272,29.9684191
Wesselton Uit 1,2351,-------,Ermelo,Gert Sibande,Mpumalanga,South Africa,-26.4987272,29.9684191
Wesselton Uit 2,2351,-------,Ermelo,Gert Sibande,Mpumalanga,South Africa,-26.4987272,29.9684191
Wesselton Uit 3,2351,-------,Ermelo,Gert Sibande,Mpumalanga,South Africa,-26.4987272,29.9684191
Wesselton Uit 4,2351,-------,Ermelo,Gert Sibande,Mpumalanga,South Africa,-26.4987272,29.9684191
Wesselton Uit 5,2351,2351,Ermelo,Nkangala,Mpumalanga,South Africa,-26.4987272,29.9684191
Wesselton Uit 6,2351,-------,Ermelo,Gert Sibande,Mpumalanga,South Africa,-26.4987272,29.9684191
Sheepmoor,2352,2352,Ermelo,Gert Sibande,Mpumalanga,South Africa,-26.7191657,30.30030349999999
Wesselton,2351,2353,Ermelo,Gert Sibande,Mpumalanga,South Africa,-26.4987272,29.9684191
Camden,2355,-------,Nucam,Gert Sibande,Mpumalanga,South Africa,-26.6,30.083333
Nucam,2355,2355,Ermelo,Gert Sibande,Mpumalanga,South Africa,-26.5123582,29.9856157
Oshoek,-------,2356,Ermelo,Gert Sibande,Mpumalanga,South Africa,-26.2219248,30.9532123
Oshoek Border Post,2356,-------,Secunda,Gert Sibande,Mpumalanga,South Africa,-26.2127255,30.9885731
Litjelembube,-------,2357,Ermelo,Gert Sibande,Mpumalanga,South Africa,-26.1623802,30.9032874
Lothair,2370,2370,Ermelo,Gert Sibande,Mpumalanga,South Africa,-26.4051075,30.447285
Amsterdam,-------,2375,Mpumalanga,Gert Sibande,Mpumalanga,South Africa,-26.6321249,30.6688797
Diepdale,2375,-------,Amsterdam,Gert Sibande,Mpumalanga,South Africa,-26.6321249,30.6688797
Ethandokukhanya,-------,2380,Piet Retief,Gert Sibande,Mpumalanga,South Africa,-27.0305746,30.7780948
Kempville,-------,2380,Piet Retief,Gert Sibande,Mpumalanga,South Africa,-27.0233599,30.8025113
New Location,-------,2380,Piet Retief,Gert Sibande,Mpumalanga,South Africa,-27.0244602,30.792458
Nuwe Lokasie,-------,2380,Piet Retief,Gert Sibande,Mpumalanga,South Africa,-27.0244602,30.792458
Phola Park,2380,-------,Piet Retief,Gert Sibande,Mpumalanga,South Africa,-25.4074463,28.7518671
Piet Retief,2380,2380,Piet Retief,Gert Sibande,Mpumalanga,South Africa,-27.0244602,30.792458
Rietville,2380,-------,Piet Retief,Gert Sibande,Mpumalanga,South Africa,-27.0244602,30.792458
Sgodiphola,2380,-------,Piet Retief,Gert Sibande,Mpumalanga,South Africa,-27.0233985,30.7831221
Iswepe,-------,2382,Piet Retief,Gert Sibande,Mpumalanga,South Africa,-26.8406009,30.5351057
Inthuthuko,-------,2383,Piet Retief,Gert Sibande,Mpumalanga,South Africa,-27.0244602,30.792458
Msibi,-------,2384,Piet Retief,Gert Sibande,Mpumalanga,South Africa,-27.0257503,30.7763592
Commondale,-------,2385,Piet Retief,Gert Sibande,Mpumalanga,South Africa,-27.2958,30.88103
Dirkiesdorp,-------,2386,Piet Retief,Gert Sibande,Mpumalanga,South Africa,-27.1749878,30.40263179999999
Moolman,-------,2387,Piet Retief,Gert Sibande,Mpumalanga,South Africa,-27.158524,30.863905
Entumbane,-------,2388,Piet Retief,Gert Sibande,Mpumalanga,South Africa,-27.0244602,30.792458
Emgulatshani,-------,2389,Piet Retief,Gert Sibande,Mpumalanga,South Africa,-27.0244602,30.792458
Balfour,-------,2410,Balfour,Gert Sibande,Mpumalanga,South Africa,-26.6536509,28.5914696
Balfour,2410,2410,Mpumalanga,Gert Sibande,Mpumalanga,South Africa,-26.6536509,28.5914696
Balfour Ext 6,2410,2410,Balfour,Gert Sibande,Mpumalanga,South Africa,-26.3296299,27.8267467
Balfour North,2410,2410,Balfour,Gert Sibande,Mpumalanga,South Africa,-26.6525,28.58778
Balfour Uit 6,2410,2410,Balfour,Gert Sibande,Mpumalanga,South Africa,-26.6536509,28.5914696
Balfour-Noord,2410,2410,Balfour,Gert Sibande,Mpumalanga,South Africa,-26.6432184,28.5951785
Siyathemba,2410,2410,Balfour,Gert Sibande,Mpumalanga,South Africa,-26.6518804,28.6118927
Siyathemba Ext 5,2410,2410,Balfour,Gert Sibande,Mpumalanga,South Africa,-26.6518804,28.6118927
Siyathemba Uit 5,2410,2410,Balfour,Gert Sibande,Mpumalanga,South Africa,-26.6518804,28.6118927
Greylingstad,2415,2415,Greylingstad,Gert Sibande,Mpumalanga,South Africa,-26.7355051,28.7460373
Grootvlei,-------,2420,Grootvlei,Gert Sibande,Mpumalanga,South Africa,-26.8023883,28.5272661
Val,-------,2425,Standerton,Gert Sibande,Mpumalanga,South Africa,-26.7973661,28.9333951
Cosmos Park,2429,-------,Standerton,Gert Sibande,Mpumalanga,South Africa,-26.9438212,29.2204548
Flora Park,2429,-------,Standerton,Gert Sibande,Mpumalanga,South Africa,-26.9258248,29.2407955
Florapark,2429,-------,Standerton,Gert Sibande,Mpumalanga,South Africa,-26.9258248,29.2407955
Kosmos Park,2429,-------,Standerton,Gert Sibande,Mpumalanga,South Africa,-26.9190435,29.2233608
Kosmos Park Ext 3,2429,-------,Standerton,Gert Sibande,Mpumalanga,South Africa,-26.9190435,29.2233608
Kosmos Park Uit 3,2429,-------,Standerton,Gert Sibande,Mpumalanga,South Africa,-26.9190435,29.2233608
Kosmospark,2429,-------,Standerton,Gert Sibande,Mpumalanga,South Africa,-26.9190435,29.2233608
Meyerville,2429,2430,Standerton,Gert Sibande,Mpumalanga,South Africa,-26.9673841,29.2466067
Azalia,2430,-------,Standerton,Gert Sibande,Mpumalanga,South Africa,-26.9481696,29.2190018
Flora Park Ext 3,2430,-------,Standerton,Gert Sibande,Mpumalanga,South Africa,-26.9258248,29.2407955
Florapark Uit 3,2430,-------,Standerton,Gert Sibande,Mpumalanga,South Africa,-26.9258248,29.2407955
Kosmos Park Ext 4,-------,2430,Standerton,Gert Sibande,Mpumalanga,South Africa,-26.9190435,29.2233608
Kosmos Park Uit 4,-------,2430,Standerton,Gert Sibande,Mpumalanga,South Africa,-26.9190435,29.2233608
Meyerville,2429,2430,Standerton,Gert Sibande,Mpumalanga,South Africa,-26.9673841,29.2466067
Standerton,2430,2430,Standerton,Gert Sibande,Mpumalanga,South Africa,-26.9438212,29.2204548
Standerton Ext 1,2430,2430,Standerton,Gert Sibande,Mpumalanga,South Africa,-26.9438212,29.2204548
Standerton Ext 6,2431,2430,Standerton,Gert Sibande,Mpumalanga,South Africa,-26.9438212,29.2204548
Standerton Uit 1,2430,2430,Standerton,Gert Sibande,Mpumalanga,South Africa,-26.9438212,29.2204548
Standerton Uit 6,2431,2430,Standerton,Gert Sibande,Mpumalanga,South Africa,-26.9438212,29.2204548
Sakhile,-------,2431,Sakhile,Gert Sibande,Mpumalanga,South Africa,-26.9765846,29.205924
Sakhile,2431,2431,Standerton,Gert Sibande,Mpumalanga,South Africa,-26.9765846,29.205924
Sakhile Ext 1,2431,2431,Standerton,Gert Sibande,Mpumalanga,South Africa,-26.9765846,29.205924
Sakhile Ext 2,2431,2431,Standerton,Gert Sibande,Mpumalanga,South Africa,-26.9765846,29.205924
Sakhile Ext 3,2431,-------,Standerton,Gert Sibande,Mpumalanga,South Africa,-26.9765846,29.205924
Sakhile Ext 4,2431,2431,Standerton,Gert Sibande,Mpumalanga,South Africa,-26.977173,29.208297
Sakhile Ext 5,2431,2431,Standerton,Gert Sibande,Mpumalanga,South Africa,-26.9765846,29.205924
Sakhile Ext 6,2431,-------,Standerton,Gert Sibande,Mpumalanga,South Africa,-26.9765846,29.205924
Sakhile Ext 7,2431,-------,Standerton,Gert Sibande,Mpumalanga,South Africa,-26.9765846,29.205924
Sakhile Uit 1,2431,2431,Standerton,Gert Sibande,Mpumalanga,South Africa,-26.9765846,29.205924
Sakhile Uit 2,2431,2431,Standerton,Gert Sibande,Mpumalanga,South Africa,-26.9765846,29.205924
Sakhile Uit 3,2431,-------,Standerton,Gert Sibande,Mpumalanga,South Africa,-26.9765846,29.205924
Sakhile Uit 4,2431,2431,Standerton,Gert Sibande,Mpumalanga,South Africa,-26.9765846,29.205924
Sakhile Uit 5,2431,2431,Standerton,Gert Sibande,Mpumalanga,South Africa,-26.9765846,29.205924
Sakhile Uit 6,2431,-------,Standerton,Gert Sibande,Mpumalanga,South Africa,-26.9765846,29.205924
Sakhile Uit 7,2431,-------,Standerton,Gert Sibande,Mpumalanga,South Africa,-26.9765846,29.205924
Standerton Ext 6,2431,2430,Standerton,Gert Sibande,Mpumalanga,South Africa,-26.9438212,29.2204548
Standerton Uit 6,2431,2430,Standerton,Gert Sibande,Mpumalanga,South Africa,-26.9438212,29.2204548
Holmdene,-------,2432,Standerton,Gert Sibande,Mpumalanga,South Africa,-26.84611,29.07167
Stanfieldhill,-------,2433,Standerton,Gert Sibande,Mpumalanga,South Africa,-26.9438212,29.2204548
Thuthukani,2434,2434,Standerton,Gert Sibande,Mpumalanga,South Africa,-26.7844127,29.3032533
Platrand,-------,2435,Standerton,Gert Sibande,Mpumalanga,South Africa,-27.11722,29.45389
Linnies,-------,2436,Standerton,Gert Sibande,Mpumalanga,South Africa,-26.9438212,29.2204548
Perdekop,2465,2465,Volksrust,Gert Sibande,Mpumalanga,South Africa,-27.1646691,29.6238368
Jubapark,-------,2470,Volksrust,Gert Sibande,Mpumalanga,South Africa,-27.3620258,29.8873054
Jubapark Ext 2,-------,2470,Volksrust,Gert Sibande,Mpumalanga,South Africa,-26.3235936,27.8296775
Jubapark Uit 2,-------,2470,Volksrust,Gert Sibande,Mpumalanga,South Africa,-27.3620258,29.8873054
Mountain View,-------,2470,Volksrust,Gert Sibande,Mpumalanga,South Africa,-27.3416803,29.8909636
Volksrust,2470,2470,Volksrust,Gert Sibande,Mpumalanga,South Africa,-27.3620258,29.8873054
Vukuzakhe,-------,2470,Volksrust,Gert Sibande,Mpumalanga,South Africa,-27.3666216,29.9017673
Ouvolk,2471,2471,Volksrust,Gert Sibande,Mpumalanga,South Africa,-27.3620258,29.8873054
Esizameleni,-------,2480,Wakkerstroom,Gert Sibande,Mpumalanga,South Africa,-27.3495088,30.1603737
Wakkerstroom,2480,2480,Wakkerstroom,Gert Sibande,Mpumalanga,South Africa,-27.3540722,30.1242853
Amersfoort,2490,2490,Amersfoort,Gert Sibande,Mpumalanga,South Africa,-27.0102809,29.8410174
Ezamokuhle,-------,2490,Amersfoort,Gert Sibande,Mpumalanga,South Africa,-26.9992634,29.8482509
Vlakpoort,2491,2491,Volksrust,Gert Sibande,Mpumalanga,South Africa,-27.14306,29.9775
