Location,Street_code,Box_code,Area,Municipality,Province,Country,Lat,Lon
Jericho,0189,0189,Brits,Bojanala Platinum,North West,South Africa,-25.3390709,27.8047648
Ramokokastad,0321,0195,Mogwase,Bojanala Platinum,North West,South Africa,-25.1577234,27.4350821
Ya Rona,-------,0202,Rustenburg,Bojanala Platinum,North West,South Africa,-25.662867,27.240549
Ya-rona,-------,0202,Rustenburg,Bojanala Platinum,North West,South Africa,-25.662867,27.240549
Moiletswane,-------,0203,Moiletswane,Bojanala Platinum,North West,South Africa,-25.3807817,27.9263647
Legonyane,-------,0210,Brits,Bojanala Platinum,North West,South Africa,-25.266667,27.783333
Hartbeespoort,-------,0216,Hartbeespoort,Bojanala Platinum,North West,South Africa,-25.7477324,27.8871784
Meerhof,0216,0216,Hartbeespoort,Bojanala Platinum,North West,South Africa,-25.7588757,27.897071
Melodie,0216,0216,Hartbeespoort,Bojanala Platinum,North West,South Africa,-25.7263202,27.8927138
Melodie Ext 16,0216,0216,Hartbeespoort,Bojanala Platinum,North West,South Africa,-25.7263202,27.8927138
Melodie Ext 28,0216,0216,Hartbeespoort,Bojanala Platinum,North West,South Africa,-25.7263202,27.8927138
Melodie Uit 16,0216,0216,Hartbeespoort,Bojanala Platinum,North West,South Africa,-25.7263202,27.8927138
Melodie Uit 28,0216,0216,Hartbeespoort,Bojanala Platinum,North West,South Africa,-25.7263202,27.8927138
Schoemansville,0216,0216,Hartbeespoort,Bojanala Platinum,North West,South Africa,-25.7267748,27.8750976
Letlhakaneng,-------,0217,Brits,Bojanala Platinum,North West,South Africa,-25.3915178,27.8208852
Sephai,-------,0220,Brits,Bojanala Platinum,North West,South Africa,-25.2503857,27.8062304
Skeerpoort,-------,0232,Brits,Bojanala Platinum,North West,South Africa,-25.8168363,27.7406357
Broederstroom,-------,0240,Brits,Bojanala Platinum,North West,South Africa,-25.8020308,27.8762004
Brits,0250,0250,Brits,Bojanala Platinum,North West,South Africa,-25.6099895,27.7959713
Brits Ext,0250,-------,Brits,Bojanala Platinum,North West,South Africa,-25.59853,27.8252814
Brits Ext 10,0250,-------,Brits,Bojanala Platinum,North West,South Africa,-25.6099895,27.7959713
Brits Ext 11,0250,-------,Brits,Bojanala Platinum,North West,South Africa,-25.59853,27.8252814
Brits Ext 17,0250,-------,Brits,Bojanala Platinum,North West,South Africa,-25.6099895,27.7959713
Brits Ext 18,0250,-------,Brits,Bojanala Platinum,North West,South Africa,-25.59853,27.8252814
Brits Ext 19,0250,-------,Brits,Bojanala Platinum,North West,South Africa,-25.6427799,27.77722
Brits Ext 20,0250,-------,Brits,Bojanala Platinum,North West,South Africa,-25.6099895,27.7959713
Brits Ext 22,0250,-------,Brits,Bojanala Platinum,North West,South Africa,-25.6427799,27.77722
Brits Ext 8,0250,-------,Brits,Bojanala Platinum,North West,South Africa,-25.6099895,27.7959713
Brits Ext 9,0250,-------,Brits,Bojanala Platinum,North West,South Africa,-25.6099895,27.7959713
Brits Industrial,0250,-------,Brits,Bojanala Platinum,North West,South Africa,-25.6435052,27.8047648
Brits Industrieel,0250,-------,Brits,Bojanala Platinum,North West,South Africa,-25.6435052,27.8047648
Brits Uit,0250,-------,Brits,Bojanala Platinum,North West,South Africa,-25.6427799,27.77722
Brits Uit 10,0250,-------,Brits,Bojanala Platinum,North West,South Africa,-25.6427799,27.77722
Brits Uit 11,0250,-------,Brits,Bojanala Platinum,North West,South Africa,-25.6427799,27.77722
Brits Uit 17,0250,-------,Brits,Bojanala Platinum,North West,South Africa,-25.5703435,27.9915262
Brits Uit 18,0250,-------,Brits,Bojanala Platinum,North West,South Africa,-25.6427799,27.77722
Brits Uit 19,0250,-------,Brits,Bojanala Platinum,North West,South Africa,-25.6427799,27.77722
Brits Uit 20,0250,-------,Brits,Bojanala Platinum,North West,South Africa,-25.6427799,27.77722
Brits Uit 22,0250,-------,Brits,Bojanala Platinum,North West,South Africa,-25.59853,27.8252814
Brits Uit 8,0250,-------,Brits,Bojanala Platinum,North West,South Africa,-25.59853,27.8252814
Brits Uit 9,0250,-------,Brits,Bojanala Platinum,North West,South Africa,-25.6427799,27.77722
Elands Ridge,0250,-------,Brits,Bojanala Platinum,North West,South Africa,-25.628951,27.884888
Elandsrand,0250,-------,Brits,Bojanala Platinum,North West,South Africa,-25.6155833,27.8150234
Hartebeesfontein,0250,0250,Brits,Bojanala Platinum,North West,South Africa,-26.7649439,26.4252906
Lethakanene,-------,0250,Brits,Bojanala Platinum,North West,South Africa,-25.6099895,27.7959713
Oukasie,0250,0250,Brits,Bojanala Platinum,North West,South Africa,-25.6078743,27.7930401
De Wildt,-------,0251,Brits,Bojanala Platinum,North West,South Africa,-25.6249426,27.9461849
Visserhoek,-------,0251,Visserhoek,Bojanala Platinum,North West,South Africa,-25.6572669,27.9548916
Reddingshoop,-------,0252,Brits,Bojanala Platinum,North West,South Africa,-25.6099895,27.7959713
Rashoop,-------,0253,Brits,Bojanala Platinum,North West,South Africa,-25.525,27.77833
Beestekraal,-------,0255,Brits,Bojanala Platinum,North West,South Africa,-25.37818,27.595579
De Kroon,-------,0257,Brits,Bojanala Platinum,North West,South Africa,-25.6542134,27.797411
Sonop,-------,0258,Brits,Bojanala Platinum,North West,South Africa,-25.648867,27.6992152
Vorentoe,-------,0259,Brits,Bojanala Platinum,North West,South Africa,-25.590465,27.695592
Ifafi,0260,0260,Brits,Bojanala Platinum,North West,South Africa,-25.7446961,27.9000006
Ifafi Ext 6,0260,0260,Brits,Bojanala Platinum,North West,South Africa,-25.7446961,27.9000006
Ifafi Uit 6,0260,0260,Brits,Bojanala Platinum,North West,South Africa,-25.7446961,27.9000006
Kosmos,-------,0261,Brits,Bojanala Platinum,North West,South Africa,-25.7399239,27.8443304
Lethabong,0263,0263,Lethabong,Bojanala Platinum,North West,South Africa,-25.4320134,27.8355388
Letlhabile,0264,0264,Brits,Bojanala Platinum,North West,South Africa,-25.4952031,27.839967
Letlhabile,-------,0264,Letlhabile,Bojanala Platinum,North West,South Africa,-25.4952031,27.839967
Letlhabile Block A,0267,0264,Brits,Bojanala Platinum,North West,South Africa,-25.4573191,27.8367751
Letlhabile Block B,0264,0264,Brits,Bojanala Platinum,North West,South Africa,-25.4952031,27.839967
Letlhabile Block C,0264,0264,Brits,Bojanala Platinum,North West,South Africa,-25.4952031,27.839967
Letlhabile Block E,0264,0264,Brits,Bojanala Platinum,North West,South Africa,-25.4952031,27.839967
Letlhabile Block F,0264,-------,Brits,Bojanala Platinum,North West,South Africa,-25.4952031,27.839967
Letlhabile Blok A,0267,0264,Brits,Bojanala Platinum,North West,South Africa,-25.4573191,27.8367751
Letlhabile Blok B,0264,0264,Brits,Bojanala Platinum,North West,South Africa,-25.4952031,27.839967
Letlhabile Blok C,0264,0264,Brits,Bojanala Platinum,North West,South Africa,-25.4952031,27.839967
Letlhabile Blok E,0264,0264,Brits,Bojanala Platinum,North West,South Africa,-25.4952031,27.839967
Letlhabile Blok F,0264,-------,Brits,Bojanala Platinum,North West,South Africa,-25.4952031,27.839967
Letlhabile Ext 7,0264,0264,Brits,Bojanala Platinum,North West,South Africa,-25.4952031,27.839967
Letlhabile Uit 7,0264,0264,Brits,Bojanala Platinum,North West,South Africa,-25.4952031,27.839967
Letlhabile Zone 6,0264,0264,Brits,Bojanala Platinum,North West,South Africa,-25.4952031,27.839967
Letlhabile Zone 7,0264,0264,Brits,Bojanala Platinum,North West,South Africa,-25.4952031,27.839967
Mamogaleskraal,-------,0265,Brits,Bojanala Platinum,North West,South Africa,-25.6099895,27.7959713
Mamogalieskraal,-------,0265,Brits,Bojanala Platinum,North West,South Africa,-25.5254272,27.8274937
Rabokala,0266,0266,Rabokala,Bojanala Platinum,North West,South Africa,-25.4913992,27.9102538
Atlanta,-------,0267,Brits,Bojanala Platinum,North West,South Africa,-25.366667,27.733333
Letlhabile Block A,0267,0264,Brits,Bojanala Platinum,North West,South Africa,-25.4573191,27.8367751
Letlhabile Blok A,0267,0264,Brits,Bojanala Platinum,North West,South Africa,-25.4573191,27.8367751
Mothotlung,0268,0268,Brits,Bojanala Platinum,North West,South Africa,-25.5961361,27.8701813
Bapong,0269,0269,Brits,Bojanala Platinum,North West,South Africa,-25.7168075,27.6728185
Newtown Section,0269,-------,Brits,Bojanala Platinum,North West,South Africa,-25.6099895,27.7959713
Bethanie,0270,0270,Brits,Bojanala Platinum,North West,South Africa,-25.5537951,27.6053432
Moseje Section,0270,0270,Brits,Bojanala Platinum,North West,South Africa,-25.6099895,27.7959713
Moseje Seksie,0270,0270,Brits,Bojanala Platinum,North West,South Africa,-25.6099895,27.7959713
Baraseba,-------,0271,Brits,Bojanala Platinum,North West,South Africa,-25.5534348,27.533441
Makolokoe,-------,0273,Brits,Bojanala Platinum,North West,South Africa,-25.6275846,27.6170798
Modderspruit,0274,0274,Brits,Bojanala Platinum,North West,South Africa,-25.7237345,27.6522851
Modikwe,-------,0275,Brits,Bojanala Platinum,North West,South Africa,-25.5245513,27.5349086
Segwaelane,0276,0276,Brits,Bojanala Platinum,North West,South Africa,-25.6635466,27.6141457
Ga Rasai,-------,0277,Brits,Bojanala Platinum,North West,South Africa,-25.1598678,27.6889503
Ga-rasai,-------,0277,Brits,Bojanala Platinum,North West,South Africa,-25.1598678,27.6889503
Platinum Mall,-------,0278,Brits,Bojanala Platinum,North West,South Africa,-25.6393362,27.7872788
Xanadu,0279,0279,Hartbeespoort,Bojanala Platinum,North West,South Africa,-25.7437682,27.9175771
Xanadu Crossing,-------,0279,Hartbeespoort,Bojanala Platinum,North West,South Africa,-25.7441759,27.9210701
Xanadu Kruising,-------,0279,Hartbeespoort,Bojanala Platinum,North West,South Africa,-25.7437682,27.9175771
Damdoryn,-------,0280,Rustenburg,Bojanala Platinum,North West,South Africa,-25.6544483,27.255854
Buffelspoort,-------,0284,Marikana,Bojanala Platinum,North West,South Africa,-25.7916874,27.4827997
Marikana,0284,0284,Marikana,Bojanala Platinum,North West,South Africa,-25.684548,27.5378439
Platinum Mine,-------,0284,Marikana,Bojanala Platinum,North West,South Africa,-25.707515,27.526401
Maumong,-------,0285,Marikana,Bojanala Platinum,North West,South Africa,-25.5847697,27.4527023
Rankelenyane,-------,0286,Marikana,Bojanala Platinum,North West,South Africa,-25.5711688,27.4189288
Tlapa,-------,0287,Rustenburg,Bojanala Platinum,North West,South Africa,-25.611576,27.313765
Bleskop,0292,0292,Rustenburg,Bojanala Platinum,North West,South Africa,-25.697396,27.363851
Boschdal,0299,-------,Rustenburg,Bojanala Platinum,North West,South Africa,-25.7039186,27.2216796
Cashan,0299,-------,Rustenburg,Bojanala Platinum,North West,South Africa,-25.7025672,27.2470353
Cashan Ext 1,0299,-------,Rustenburg,Bojanala Platinum,North West,South Africa,-25.703665,27.254788
Cashan Ext 13,0299,-------,Rustenburg,Bojanala Platinum,North West,South Africa,-25.7025672,27.2470353
Cashan Ext 19,0299,-------,Rustenburg,Bojanala Platinum,North West,South Africa,-25.7025672,27.2470353
Cashan Ext 2,0299,-------,Rustenburg,Bojanala Platinum,North West,South Africa,-25.7025672,27.2470353
Cashan Ext 20,0299,0300,Rustenburg,Bojanala Platinum,North West,South Africa,-25.7298406,27.2093827
Cashan Ext 21,0299,-------,Rustenburg,Bojanala Platinum,North West,South Africa,-25.68436,27.22795
Cashan Ext 3,0299,-------,Rustenburg,Bojanala Platinum,North West,South Africa,-25.7025672,27.2470353
Cashan Ext 33,0299,0300,Rustenburg,Bojanala Platinum,North West,South Africa,-25.7025672,27.2470353
Cashan Ext 4,0299,-------,Rustenburg,Bojanala Platinum,North West,South Africa,-25.7025672,27.2470353
Cashan Ext 5,0299,-------,Rustenburg,Bojanala Platinum,North West,South Africa,-25.708733,27.240709
Cashan Ext 6,0299,-------,Rustenburg,Bojanala Platinum,North West,South Africa,-25.7025672,27.2470353
Cashan Uit 1,0299,-------,Rustenburg,Bojanala Platinum,North West,South Africa,-25.6365149,27.216167
Cashan Uit 13,0299,-------,Rustenburg,Bojanala Platinum,North West,South Africa,-25.7025672,27.2470353
Cashan Uit 19,0299,-------,Rustenburg,Bojanala Platinum,North West,South Africa,-25.7025672,27.2470353
Cashan Uit 2,0299,-------,Rustenburg,Bojanala Platinum,North West,South Africa,-25.7025672,27.2470353
Cashan Uit 20,0299,0300,Rustenburg,Bojanala Platinum,North West,South Africa,-25.7025672,27.2470353
Cashan Uit 21,0299,-------,Rustenburg,Bojanala Platinum,North West,South Africa,-25.7025672,27.2470353
Cashan Uit 3,0299,-------,Rustenburg,Bojanala Platinum,North West,South Africa,-25.7025672,27.2470353
Cashan Uit 33,0299,0300,Rustenburg,Bojanala Platinum,North West,South Africa,-25.7025672,27.2470353
Cashan Uit 4,0299,-------,Rustenburg,Bojanala Platinum,North West,South Africa,-25.7025672,27.2470353
Cashan Uit 5,0299,-------,Rustenburg,Bojanala Platinum,North West,South Africa,-25.7025672,27.2470353
Cashan Uit 6,0299,-------,Rustenburg,Bojanala Platinum,North West,South Africa,-25.7025672,27.2470353
East End,0299,-------,Rustenburg,Bojanala Platinum,North West,South Africa,-25.6567209,27.254168
Freedom Park,0299,-------,Rustenburg,Bojanala Platinum,North West,South Africa,-25.563139,27.2352765
Freedom Park Ext 2,0299,-------,Rustenburg,Bojanala Platinum,North West,South Africa,-25.563139,27.2352765
Freedompark,0299,-------,Rustenburg,Bojanala Platinum,North West,South Africa,-25.563139,27.2352765
Freedompark Uit 2,0299,-------,Rustenburg,Bojanala Platinum,North West,South Africa,-25.563139,27.2352765
Geelhoutpark,0299,-------,Rustenburg,Bojanala Platinum,North West,South Africa,-25.678122,27.2058765
Geelhoutpark Ext 1,0299,-------,Rustenburg,Bojanala Platinum,North West,South Africa,-25.678122,27.2058765
Geelhoutpark Ext 4,0299,-------,Rustenburg,Bojanala Platinum,North West,South Africa,-25.678122,27.2058765
Geelhoutpark Ext 6,0299,-------,Rustenburg,Bojanala Platinum,North West,South Africa,-25.678122,27.2058765
Geelhoutpark Ext 9,0299,-------,Rustenburg,Bojanala Platinum,North West,South Africa,-25.678122,27.2058765
Geelhoutpark Uit 1,0299,-------,Rustenburg,Bojanala Platinum,North West,South Africa,-25.6365149,27.216167
Geelhoutpark Uit 4,0299,-------,Rustenburg,Bojanala Platinum,North West,South Africa,-25.678122,27.2058765
Geelhoutpark Uit 6,0299,-------,Rustenburg,Bojanala Platinum,North West,South Africa,-25.678122,27.2058765
Geelhoutpark Uit 9,0299,-------,Rustenburg,Bojanala Platinum,North West,South Africa,-25.678122,27.2058765
Karlienpark,0299,-------,Rustenburg,Bojanala Platinum,North West,South Africa,-25.6410993,27.2374814
Kloofsig,0299,-------,Rustenburg,Bojanala Platinum,North West,South Africa,-25.6812979,27.215379
Klooftuine,0299,-------,Rustenburg,Bojanala Platinum,North West,South Africa,-25.6544483,27.255854
Lefaragatle,0299,0309,Rustenburg,Bojanala Platinum,North West,South Africa,-25.6100978,27.3150126
Lefaragatlha,0299,0309,Rustenburg,Bojanala Platinum,North West,South Africa,-25.615025,27.1941153
Meriting,0299,-------,Rustenburg,Bojanala Platinum,North West,South Africa,-25.5868739,27.2529145
Meriting Ext 1,0299,0300,Rustenburg,Bojanala Platinum,North West,South Africa,-25.604384,27.2630463
Meriting Uit 1,0299,0300,Rustenburg,Bojanala Platinum,North West,South Africa,-25.596362,27.2565889
Oos Einde,-------,0299,Rustenburg,Bojanala Platinum,North West,South Africa,-25.662036,27.2587935
Oos-Einde,0299,-------,Rustenburg,Bojanala Platinum,North West,South Africa,-25.662036,27.2587935
Paardekraal,0299,0308,Rustenburg,Bojanala Platinum,North West,South Africa,-25.64267,27.28583
Paardekraal Ext 1,0299,-------,Rustenburg,Bojanala Platinum,North West,South Africa,-25.64267,27.28583
Paardekraal Ext 3,0299,-------,Rustenburg,Bojanala Platinum,North West,South Africa,-25.64267,27.28583
Paardekraal Ext 5,-------,0299,Rustenburg,Bojanala Platinum,North West,South Africa,-25.64267,27.28583
Paardekraal Uit 1,0299,-------,Rustenburg,Bojanala Platinum,North West,South Africa,-25.64267,27.28583
Paardekraal Uit 3,0299,-------,Rustenburg,Bojanala Platinum,North West,South Africa,-25.64267,27.28583
Paardekraal Uit 5,-------,0299,Rustenburg,Bojanala Platinum,North West,South Africa,-25.64267,27.28583
Proteapark,0299,0305,Rustenburg,Bojanala Platinum,North West,South Africa,-25.6878486,27.2117569
Proteapark Ext 1,0299,-------,Rustenburg,Bojanala Platinum,North West,South Africa,-25.7004,27.22001
Proteapark Uit 1,0299,-------,Rustenburg,Bojanala Platinum,North West,South Africa,-25.6365149,27.216167
Ridderpark,0299,0303,Rustenburg,Bojanala Platinum,North West,South Africa,-25.6567012,27.2539791
Rustenburg,0299,0300,Rustenburg,Bojanala Platinum,North West,South Africa,-25.6544483,27.255854
Rustenburg Ext 2,0299,-------,Rustenburg,Bojanala Platinum,North West,South Africa,-25.6544483,27.255854
Rustenburg Ext 3,0299,-------,Rustenburg,Bojanala Platinum,North West,South Africa,-25.6544483,27.255854
Rustenburg Ext 4,0299,-------,Rustenburg,Bojanala Platinum,North West,South Africa,-25.6544483,27.255854
Rustenburg Ext 5,0299,-------,Rustenburg,Bojanala Platinum,North West,South Africa,-25.6544483,27.255854
Rustenburg Ext 6,0299,-------,Rustenburg,Bojanala Platinum,North West,South Africa,-25.6544483,27.255854
Rustenburg North,0299,-------,Rustenburg,Bojanala Platinum,North West,South Africa,-25.6558572,27.2352765
Rustenburg Uit 2,0299,-------,Rustenburg,Bojanala Platinum,North West,South Africa,-25.6544483,27.255854
Rustenburg Uit 3,0299,-------,Rustenburg,Bojanala Platinum,North West,South Africa,-25.6544483,27.255854
Rustenburg Uit 4,0299,-------,Rustenburg,Bojanala Platinum,North West,South Africa,-25.6544483,27.255854
Rustenburg Uit 5,0299,-------,Rustenburg,Bojanala Platinum,North West,South Africa,-25.6544483,27.255854
Rustenburg Uit 6,0299,-------,Rustenburg,Bojanala Platinum,North West,South Africa,-25.6544483,27.255854
Rustenburg West,0299,-------,Rustenburg,Bojanala Platinum,North West,South Africa,-25.6544483,27.255854
Rustenburg-Noord,0299,-------,Rustenburg,Bojanala Platinum,North West,South Africa,-25.6584383,27.2371741
Rustenburg-Wes,0299,-------,Rustenburg,Bojanala Platinum,North West,South Africa,-25.6767631,27.2205989
Safari Gardens,0299,-------,Rustenburg,Bojanala Platinum,North West,South Africa,-25.7017306,27.2308668
Safari Gardens Ext 1,0299,-------,Rustenburg,Bojanala Platinum,North West,South Africa,-25.692313,27.224561
Safari Gardens Ext 10,0299,-------,Rustenburg,Bojanala Platinum,North West,South Africa,-25.692313,27.224561
Safari Gardens Ext 11,0299,-------,Rustenburg,Bojanala Platinum,North West,South Africa,-25.7017306,27.2308668
Safari Gardens Ext 12,0299,-------,Rustenburg,Bojanala Platinum,North West,South Africa,-25.7017306,27.2308668
Safari Gardens Ext 13,0299,-------,Rustenburg,Bojanala Platinum,North West,South Africa,-25.6997129,27.2310512
Safari Gardens Ext 14,0299,-------,Rustenburg,Bojanala Platinum,North West,South Africa,-25.6997129,27.2310512
Safari Gardens Ext 15,0299,-------,Rustenburg,Bojanala Platinum,North West,South Africa,-25.7017306,27.2308668
Safari Gardens Ext 2,0299,-------,Rustenburg,Bojanala Platinum,North West,South Africa,-25.692313,27.224561
Safari Gardens Ext 3,0299,-------,Rustenburg,Bojanala Platinum,North West,South Africa,-25.6997129,27.2310512
Safari Gardens Ext 4,0299,-------,Rustenburg,Bojanala Platinum,North West,South Africa,-25.692313,27.224561
Safari Gardens Ext 6,0299,-------,Rustenburg,Bojanala Platinum,North West,South Africa,-25.6937332,27.2251675
Safari Gardens Ext 7,0299,-------,Rustenburg,Bojanala Platinum,North West,South Africa,-25.6937332,27.2251675
Safari Gardens Ext 8,0299,-------,Rustenburg,Bojanala Platinum,North West,South Africa,-25.6997129,27.2310512
Safari Gardens Ext 9,0299,-------,Rustenburg,Bojanala Platinum,North West,South Africa,-25.692313,27.224561
Safari Tuine,-------,0299,Rustenburg,Bojanala Platinum,North West,South Africa,-25.7017306,27.2308668
Safari Tuine Uit 1,0299,-------,Rustenburg,Bojanala Platinum,North West,South Africa,-25.6365149,27.216167
Safari Tuine Uit 10,0299,-------,Rustenburg,Bojanala Platinum,North West,South Africa,-25.7017306,27.2308668
Safari Tuine Uit 11,0299,-------,Rustenburg,Bojanala Platinum,North West,South Africa,-25.7017306,27.2308668
Safari Tuine Uit 12,0299,-------,Rustenburg,Bojanala Platinum,North West,South Africa,-25.7017306,27.2308668
Safari Tuine Uit 13,0299,-------,Rustenburg,Bojanala Platinum,North West,South Africa,-25.7017306,27.2308668
Safari Tuine Uit 14,0299,-------,Rustenburg,Bojanala Platinum,North West,South Africa,-25.7017306,27.2308668
Safari Tuine Uit 15,0299,-------,Rustenburg,Bojanala Platinum,North West,South Africa,-25.7017306,27.2308668
Safari Tuine Uit 2,0299,-------,Rustenburg,Bojanala Platinum,North West,South Africa,-25.7017306,27.2308668
Safari Tuine Uit 3,0299,-------,Rustenburg,Bojanala Platinum,North West,South Africa,-25.7017306,27.2308668
Safari Tuine Uit 4,0299,-------,Rustenburg,Bojanala Platinum,North West,South Africa,-25.7017306,27.2308668
Safari Tuine Uit 6,0299,-------,Rustenburg,Bojanala Platinum,North West,South Africa,-25.697698,27.219899
Safari Tuine Uit 7,0299,-------,Rustenburg,Bojanala Platinum,North West,South Africa,-25.7017306,27.2308668
Safari Tuine Uit 8,0299,-------,Rustenburg,Bojanala Platinum,North West,South Africa,-25.7017306,27.2308668
Safari Tuine Uit 9,0299,-------,Rustenburg,Bojanala Platinum,North West,South Africa,-25.7017306,27.2308668
Safarituine,0299,-------,Rustenburg,Bojanala Platinum,North West,South Africa,-25.7017306,27.2308668
Tlhabane,0299,0309,Rustenburg,Bojanala Platinum,North West,South Africa,-25.6289231,27.2132269
Tlhabane West,0299,0309,Rustenburg,Bojanala Platinum,North West,South Africa,-25.6465762,27.199996
Tlhabane West Ext 1,0299,0309,Rustenburg,Bojanala Platinum,North West,South Africa,-25.6465762,27.199996
Tlhabane West Ext 2,0299,-------,Rustenburg,Bojanala Platinum,North West,South Africa,-25.6465762,27.199996
Tlhabane-Wes,0299,0309,Rustenburg,Bojanala Platinum,North West,South Africa,-25.6465762,27.199996
Tlhabane-wes Uit 1,0299,0309,Rustenburg,Bojanala Platinum,North West,South Africa,-25.596362,27.2565889
Tlhabane-wes Uit 2,0299,-------,Rustenburg,Bojanala Platinum,North West,South Africa,-25.6289231,27.2132269
Waterfall East,0299,-------,Rustenburg,Bojanala Platinum,North West,South Africa,-25.6878925,27.261835
Waterfall East Ext 9,0299,-------,Rustenburg,Bojanala Platinum,North West,South Africa,-25.6878925,27.261835
Waterfall Village,0299,0300,Rustenburg,Bojanala Platinum,North West,South Africa,-25.7090598,27.2501449
Waterfall-Oos,0299,-------,Rustenburg,Bojanala Platinum,North West,South Africa,-25.6544483,27.255854
Waterfall-Oos Uit 9,0299,-------,Rustenburg,Bojanala Platinum,North West,South Africa,-25.7073739,27.2515662
Yellowwoodpark,0299,-------,Rustenburg,Bojanala Platinum,North West,South Africa,-25.6544483,27.255854
Yellowwoodpark Ext 1,0299,-------,Rustenburg,Bojanala Platinum,North West,South Africa,-25.6544483,27.255854
Yellowwoodpark Ext 4,0299,-------,Rustenburg,Bojanala Platinum,North West,South Africa,-25.6544483,27.255854
Yellowwoodpark Ext 6,0299,0299,Rustenburg,Bojanala Platinum,North West,South Africa,-25.6544483,27.255854
Yellowwoodpark Ext 9,0299,-------,Rustenburg,Bojanala Platinum,North West,South Africa,-26.3306231,27.8736326
Yellowwoodpark Uit 1,0299,-------,Rustenburg,Bojanala Platinum,North West,South Africa,-25.6544483,27.255854
Yellowwoodpark Uit 4,0299,-------,Rustenburg,Bojanala Platinum,North West,South Africa,-25.6544483,27.255854
Yellowwoodpark Uit 6,0299,0299,Rustenburg,Bojanala Platinum,North West,South Africa,-25.6544483,27.255854
Yellowwoodpark Uit 9,0299,-------,Rustenburg,Bojanala Platinum,North West,South Africa,-25.6544483,27.255854
Zinniaville,0299,0302,Rustenburg,Bojanala Platinum,North West,South Africa,-25.6481548,27.2396862
Boitekong Ext 15,0300,0308,Boitekong,Bojanala Platinum,North West,South Africa,-25.642132,27.2764294
Boitekong Ext 22,0300,0308,Boitekong,Bojanala Platinum,North West,South Africa,-25.642132,27.2764294
Boitekong Uit 15,0300,0308,Boitekong,Bojanala Platinum,North West,South Africa,-25.642132,27.2764294
Boitekong Uit 22,0300,0308,Boitekong,Bojanala Platinum,North West,South Africa,-25.642132,27.2764294
Cashan Ext 20,0299,0300,Rustenburg,Bojanala Platinum,North West,South Africa,-25.7298406,27.2093827
Cashan Ext 33,0299,0300,Rustenburg,Bojanala Platinum,North West,South Africa,-25.7025672,27.2470353
Cashan Uit 20,0299,0300,Rustenburg,Bojanala Platinum,North West,South Africa,-25.7025672,27.2470353
Cashan Uit 33,0299,0300,Rustenburg,Bojanala Platinum,North West,South Africa,-25.7025672,27.2470353
Meriting Ext 1,0299,0300,Rustenburg,Bojanala Platinum,North West,South Africa,-25.604384,27.2630463
Meriting Uit 1,0299,0300,Rustenburg,Bojanala Platinum,North West,South Africa,-25.596362,27.2565889
Modikoe,-------,0300,Modikoe,Bojanala Platinum,North West,South Africa,-25.5245513,27.5349086
Rustenburg,0299,0300,Rustenburg,Bojanala Platinum,North West,South Africa,-25.6544483,27.255854
Waterfall Village,0299,0300,Rustenburg,Bojanala Platinum,North West,South Africa,-25.7090598,27.2501449
Boshoek,-------,0301,Rustenburg,Bojanala Platinum,North West,South Africa,-25.471227,27.0941178
Zinniaville,0299,0302,Rustenburg,Bojanala Platinum,North West,South Africa,-25.6481548,27.2396862
Ridderpark,0299,0303,Rustenburg,Bojanala Platinum,North West,South Africa,-25.6567012,27.2539791
Platwal,-------,0304,Platwal,Bojanala Platinum,North West,South Africa,28.1472852,77.3259878
Proteapark,0299,0305,Rustenburg,Bojanala Platinum,North West,South Africa,-25.6878486,27.2117569
Siyabonga,-------,0306,Rustenburg,Bojanala Platinum,North West,South Africa,-25.6204299,27.2542497
Entabeni,-------,0307,Rustenburg,Bojanala Platinum,North West,South Africa,-25.6109067,27.31629
Ntabeni,-------,0307,Rustenburg,Bojanala Platinum,North West,South Africa,-25.6109067,27.31629
Boitekong,0309,0308,Rustenburg,Bojanala Platinum,North West,South Africa,-25.642132,27.2764294
Boitekong,-------,0308,Boitekong,Bojanala Platinum,North West,South Africa,-25.642132,27.2764294
Boitekong Ext 1,0309,0308,Boitekong,Bojanala Platinum,North West,South Africa,-25.642132,27.2764294
Boitekong Ext 12,0308,0308,Rustenburg,Bojanala Platinum,North West,South Africa,-25.6868099,27.2346
Boitekong Ext 13,0309,0308,Boitekong,Bojanala Platinum,North West,South Africa,-25.642132,27.2764294
Boitekong Ext 15,0300,0308,Boitekong,Bojanala Platinum,North West,South Africa,-25.642132,27.2764294
Boitekong Ext 2,0309,0308,Boitekong,Bojanala Platinum,North West,South Africa,-25.642132,27.2764294
Boitekong Ext 22,0300,0308,Boitekong,Bojanala Platinum,North West,South Africa,-25.642132,27.2764294
Boitekong Ext 23,0309,0308,Boitekong,Bojanala Platinum,North West,South Africa,-25.642132,27.2764294
Boitekong Ext 3,0309,0308,Boitekong,Bojanala Platinum,North West,South Africa,-25.642132,27.2764294
Boitekong Ext 4,0309,0308,Boitekong,Bojanala Platinum,North West,South Africa,-25.642132,27.2764294
Boitekong Ext 5,0309,0308,Boitekong,Bojanala Platinum,North West,South Africa,-25.642132,27.2764294
Boitekong Ext 6,0309,0308,Boitekong,Bojanala Platinum,North West,South Africa,-25.642132,27.2764294
Boitekong Uit 1,0309,0308,Boitekong,Bojanala Platinum,North West,South Africa,-25.642132,27.2764294
Boitekong Uit 12,0308,0308,Rustenburg,Bojanala Platinum,North West,South Africa,-25.642132,27.2764294
Boitekong Uit 13,0309,0308,Boitekong,Bojanala Platinum,North West,South Africa,-25.642132,27.2764294
Boitekong Uit 15,0300,0308,Boitekong,Bojanala Platinum,North West,South Africa,-25.642132,27.2764294
Boitekong Uit 2,0309,0308,Boitekong,Bojanala Platinum,North West,South Africa,-25.642132,27.2764294
Boitekong Uit 22,0300,0308,Boitekong,Bojanala Platinum,North West,South Africa,-25.642132,27.2764294
Boitekong Uit 23,0309,0308,Boitekong,Bojanala Platinum,North West,South Africa,-25.642132,27.2764294
Boitekong Uit 3,0309,0308,Boitekong,Bojanala Platinum,North West,South Africa,-25.642132,27.2764294
Boitekong Uit 4,0309,0308,Boitekong,Bojanala Platinum,North West,South Africa,-25.6090865,27.2617951
Boitekong Uit 5,0309,0308,Boitekong,Bojanala Platinum,North West,South Africa,-25.642132,27.2764294
Boitekong Uit 6,0309,0308,Boitekong,Bojanala Platinum,North West,South Africa,-25.642132,27.2764294
Freedom Park Phase 1,0308,0308,Rustenburg,Bojanala Platinum,North West,South Africa,-25.563139,27.2352765
Freedompark Fase 1,0308,0308,Rustenburg,Bojanala Platinum,North West,South Africa,-25.563139,27.2352765
Meriting Ext 2,0308,-------,Rustenburg,Bojanala Platinum,North West,South Africa,-25.5868739,27.2529145
Meriting Uit 2,0308,-------,Rustenburg,Bojanala Platinum,North West,South Africa,-25.5868739,27.2529145
Paardekraal,-------,0308,Paardekraal,Bojanala Platinum,North West,South Africa,-25.64267,27.28583
Paardekraal,0299,0308,Rustenburg,Bojanala Platinum,North West,South Africa,-25.64267,27.28583
Ramochana,0308,0308,Rustenburg,Bojanala Platinum,North West,South Africa,-25.6544483,27.255854
Sunrise Park,0308,0308,Rustenburg,Bojanala Platinum,North West,South Africa,-25.6396242,27.2824005
Sunrise Park Ext 10,0308,0308,Rustenburg,Bojanala Platinum,North West,South Africa,-25.632714,27.2799925
Sunrise Park Ext 9,0308,0308,Rustenburg,Bojanala Platinum,North West,South Africa,-25.6310318,27.27734
Sunrisepark,0308,0308,Rustenburg,Bojanala Platinum,North West,South Africa,-25.632714,27.2799925
Sunrisepark Uit 10,0308,0308,Rustenburg,Bojanala Platinum,North West,South Africa,-25.632714,27.2799925
Sunrisepark Uit 9,0308,0308,Rustenburg,Bojanala Platinum,North West,South Africa,-25.632714,27.2799925
Boitekong,0309,0308,Rustenburg,Bojanala Platinum,North West,South Africa,-25.642132,27.2764294
Boitekong Ext 1,0309,0308,Boitekong,Bojanala Platinum,North West,South Africa,-25.642132,27.2764294
Boitekong Ext 13,0309,0308,Boitekong,Bojanala Platinum,North West,South Africa,-25.642132,27.2764294
Boitekong Ext 2,0309,0308,Boitekong,Bojanala Platinum,North West,South Africa,-25.642132,27.2764294
Boitekong Ext 23,0309,0308,Boitekong,Bojanala Platinum,North West,South Africa,-25.642132,27.2764294
Boitekong Ext 3,0309,0308,Boitekong,Bojanala Platinum,North West,South Africa,-25.642132,27.2764294
Boitekong Ext 4,0309,0308,Boitekong,Bojanala Platinum,North West,South Africa,-25.642132,27.2764294
Boitekong Ext 5,0309,0308,Boitekong,Bojanala Platinum,North West,South Africa,-25.642132,27.2764294
Boitekong Ext 6,0309,0308,Boitekong,Bojanala Platinum,North West,South Africa,-25.642132,27.2764294
Boitekong Ext 8,0309,-------,Boitekong,Bojanala Platinum,North West,South Africa,-25.642132,27.2764294
Boitekong Ext 9,0309,0309,Boitekong,Bojanala Platinum,North West,South Africa,-25.6310318,27.27734
Boitekong Uit 1,0309,0308,Boitekong,Bojanala Platinum,North West,South Africa,-25.642132,27.2764294
Boitekong Uit 13,0309,0308,Boitekong,Bojanala Platinum,North West,South Africa,-25.642132,27.2764294
Boitekong Uit 2,0309,0308,Boitekong,Bojanala Platinum,North West,South Africa,-25.642132,27.2764294
Boitekong Uit 23,0309,0308,Boitekong,Bojanala Platinum,North West,South Africa,-25.642132,27.2764294
Boitekong Uit 3,0309,0308,Boitekong,Bojanala Platinum,North West,South Africa,-25.642132,27.2764294
Boitekong Uit 4,0309,0308,Boitekong,Bojanala Platinum,North West,South Africa,-25.6090865,27.2617951
Boitekong Uit 5,0309,0308,Boitekong,Bojanala Platinum,North West,South Africa,-25.642132,27.2764294
Boitekong Uit 6,0309,0308,Boitekong,Bojanala Platinum,North West,South Africa,-25.642132,27.2764294
Boitekong Uit 8,0309,-------,Boitekong,Bojanala Platinum,North West,South Africa,-25.642132,27.2764294
Boitekong Uit 9,0309,0309,Boitekong,Bojanala Platinum,North West,South Africa,-25.642132,27.2764294
Lefaragatle,-------,0309,Lefaragatle,Bojanala Platinum,North West,South Africa,-25.615025,27.1941153
Lefaragatle,0299,0309,Rustenburg,Bojanala Platinum,North West,South Africa,-25.6100978,27.3150126
Lefaragatlha,0299,0309,Rustenburg,Bojanala Platinum,North West,South Africa,-25.615025,27.1941153
Sunrise Park Ext 11,0309,0309,Rustenburg,Bojanala Platinum,North West,South Africa,-25.6310318,27.27734
Sunrise Park Ext 15,0309,0309,Rustenburg,Bojanala Platinum,North West,South Africa,-25.6310318,27.27734
Sunrisepark Uit 11,0309,0309,Rustenburg,Bojanala Platinum,North West,South Africa,-25.6396242,27.2824005
Sunrisepark Uit 15,0309,0309,Rustenburg,Bojanala Platinum,North West,South Africa,-25.632714,27.2799925
Tlhabane,0299,0309,Rustenburg,Bojanala Platinum,North West,South Africa,-25.6289231,27.2132269
Tlhabane West,0299,0309,Rustenburg,Bojanala Platinum,North West,South Africa,-25.6465762,27.199996
Tlhabane West Ext 1,0299,0309,Rustenburg,Bojanala Platinum,North West,South Africa,-25.6465762,27.199996
Tlhabane-Wes,0299,0309,Rustenburg,Bojanala Platinum,North West,South Africa,-25.6465762,27.199996
Tlhabane-wes Uit 1,0299,0309,Rustenburg,Bojanala Platinum,North West,South Africa,-25.596362,27.2565889
Chaneng,0310,0310,Rustenburg,Bojanala Platinum,North West,South Africa,-25.4192939,27.1229421
Photsaneng,-------,0311,Rustenburg,Bojanala Platinum,North West,South Africa,-25.6799175,27.37464
Wildebeesfontein South,-------,0312,Rustenburg,Bojanala Platinum,North West,South Africa,-25.565003,27.2565889
Wildebeesfontein-suid,-------,0312,Rustenburg,Bojanala Platinum,North West,South Africa,-25.565003,27.2565889
Mabeskraal,0313,0313,Rustenburg,Bojanala Platinum,North West,South Africa,-25.1922514,26.8026767
Mogwase,0314,0314,Rustenburg,Bojanala Platinum,North West,South Africa,-25.6090865,27.2617951
Moedwil,-------,0315,Rustenburg,Bojanala Platinum,North West,South Africa,-25.6596098,27.2281624
Ledig,-------,0316,Ledig,Bojanala Platinum,North West,South Africa,-25.3635147,27.058813
Ledig,0316,0316,Rustenburg,Bojanala Platinum,North West,South Africa,-25.3751318,27.0619252
Sun City,-------,0316,Rustenburg,Bojanala Platinum,North West,South Africa,-25.3469687,27.100195
Wonderkop,0317,0317,Marikana,Bojanala Platinum,North West,South Africa,-25.6684853,27.523167
Makokono,-------,0318,Saulspoort,Bojanala Platinum,North West,South Africa,-25.1550768,27.1757068
Modderkuil,-------,0318,Modderkuil,Bojanala Platinum,North West,South Africa,-25.1241553,27.1976738
Saulspoort,0318,0318,Rustenburg,Bojanala Platinum,North West,South Africa,-25.1550768,27.1757068
Kanana,0320,0320,Rustenburg,Bojanala Platinum,North West,South Africa,-25.5719776,27.2999415
Rankuyana,0320,0320,Rustenburg,Bojanala Platinum,North West,South Africa,-25.6544483,27.255854
Phalane,0321,-------,Rustenburg,Bojanala Platinum,North West,South Africa,-25.68846,27.25415
Ramokokastad,0321,0195,Mogwase,Bojanala Platinum,North West,South Africa,-25.1577234,27.4350821
Luka,0322,0322,Rustenburg,Bojanala Platinum,North West,South Africa,-25.6134681,27.3174211
Boschfontein,0323,0323,Rustenburg,Bojanala Platinum,North West,South Africa,-25.7703639,27.2717105
Waterfall Mall,-------,0323,Rustenburg,Bojanala Platinum,North West,South Africa,-25.7073739,27.2515662
Waterglen,-------,0324,Rustenburg,Bojanala Platinum,North West,South Africa,-25.7444753,27.2625929
Mooinooi,-------,0325,Mooinooi,Bojanala Platinum,North West,South Africa,-25.7538196,27.5583897
Mogono,-------,0328,Rustenburg,Bojanala Platinum,North West,South Africa,-25.4864195,27.1823534
Trans,-------,0329,Rustenburg,Bojanala Platinum,North West,South Africa,-25.6544483,27.255854
Witgoud,-------,0330,Rustenburg,Bojanala Platinum,North West,South Africa,-25.5742747,27.2387485
Monakato,0331,0331,Rustenburg,Bojanala Platinum,North West,South Africa,-25.3525676,27.2720205
Monakato Ext 1,0331,0331,Rustenburg,Bojanala Platinum,North West,South Africa,-25.3525676,27.2720205
Monakato Uit 1,0331,0331,Rustenburg,Bojanala Platinum,North West,South Africa,-25.6477013,27.2136907
Syferbult,-------,0332,Rustenburg,Bojanala Platinum,North West,South Africa,-26.005,27.32833
Tsitsing,0333,0333,Rustenburg,Bojanala Platinum,North West,South Africa,-25.4680385,27.3219816
Boons,-------,0334,Rustenburg,Bojanala Platinum,North West,South Africa,-25.9833329,27.233333
Phokeng,0335,0335,Rustenburg,Bojanala Platinum,North West,South Africa,-25.5926646,27.1558867
Samela Section,0335,0335,Rustenburg,Bojanala Platinum,North West,South Africa,-25.6544483,27.255854
Samela Seksie,0335,0335,Rustenburg,Bojanala Platinum,North West,South Africa,-25.6544483,27.255854
Baleema,-------,0336,Rustenburg,Bojanala Platinum,North West,South Africa,-25.6684977,27.2423725
Bapo Ii,0337,0337,Rustenburg,Bojanala Platinum,North West,South Africa,-25.6544483,27.255854
Baratheo,0338,0338,Rustenburg,Bojanala Platinum,North West,South Africa,-25.6544483,27.255854
Kameelboom,-------,0340,Rustenburg,Bojanala Platinum,North West,South Africa,-25.6876934,27.2250976
Kraalhoek,-------,0341,Rustenburg,Bojanala Platinum,North West,South Africa,-24.9172562,27.0764662
Vlakdrif,-------,0342,Rustenburg,Bojanala Platinum,North West,South Africa,-25.99389,27.44
Rhenosterkraal,-------,0344,Rustenburg,Bojanala Platinum,North West,South Africa,-24.9970562,26.9808454
Toemaskop,-------,0345,Rustenburg,Bojanala Platinum,North West,South Africa,-25.6544483,27.255854
Maanhaarrand,-------,0346,Rustenburg,Bojanala Platinum,North West,South Africa,-25.916667,27.45
Derby,-------,0347,Rustenburg,Bojanala Platinum,North West,South Africa,-25.9416885,27.0205594
Koster,0348,0348,Koster,Bojanala Platinum,North West,South Africa,-25.8650327,26.8851448
Reagile,0348,0348,Koster,Bojanala Platinum,North West,South Africa,-25.8497201,26.8866172
Baphalane,-------,0349,Rustenburg,Bojanala Platinum,North West,South Africa,-25.14933,27.44617
Kroondal,-------,0350,Rustenburg,Bojanala Platinum,North West,South Africa,-25.7250235,27.3080231
Manamakgotheng,-------,0351,Swartklip,Bojanala Platinum,North West,South Africa,-25.127026,27.1911749
Phatsima,-------,0351,Phatsima,Bojanala Platinum,North West,South Africa,-25.3935132,27.0176165
Phatsima,0351,0351,Swartklip,Bojanala Platinum,North West,South Africa,-25.3935132,27.0176165
Sandfontein,0353,0353,Rustenburg,Bophirima,North West,South Africa,-25.1861971,27.2646723
Thapelo,-------,0353,Rustenburg,Bophirima,North West,South Africa,-25.686809,27.2346
Mabele a Podi,-------,0354,Rustenburg,Bojanala Platinum,North West,South Africa,-25.2863885,27.199996
Mabele-a-podi,-------,0354,Rustenburg,Bojanala Platinum,North West,South Africa,-25.2863885,27.199996
Segakwaneng,-------,0355,Rustenburg,Bojanala Platinum,North West,South Africa,-25.6544483,27.255854
Module,-------,0356,Rustenburg,Bojanala Platinum,North West,South Africa,-25.6544483,27.255854
Witrandjies,0356,0356,Rustenburg,Bojanala Platinum,North West,South Africa,-25.68846,27.25415
Bataung,-------,0357,Mafikeng,Central,North West,South Africa,-25.855978,25.64031
Mononono,-------,0358,Rustenburg,Bojanala Platinum,North West,South Africa,-25.68846,27.25415
Majakaneng,0359,-------,Rustenburg,Bojanala Platinum,North West,South Africa,-25.740673,27.6757516
Mabodisa,-------,0364,Rustenburg,Bojanala Platinum,North West,South Africa,-25.6544483,27.255854
Maile,-------,0365,Rustenburg,Bojanala Platinum,North West,South Africa,-25.405783,27.2514447
Maologane,-------,0366,Rustenburg,Bojanala Platinum,North West,South Africa,-25.2757215,26.9425594
Matlametlo,-------,0367,Rustenburg,Bojanala Platinum,North West,South Africa,-24.78998,26.93555
Sekama,-------,0369,Koster,Bojanala Platinum,North West,South Africa,-25.8650327,26.8851448
Swartklip,0370,0370,Swartklip,Bojanala Platinum,North West,South Africa,-24.9374049,27.153812
Mokgalwana,-------,0371,Mogwase,Bojanala Platinum,North West,South Africa,-24.8024999,27.00067
Mogoditshane,-------,0372,Mogwase,Bojanala Platinum,North West,South Africa,-24.9833329,26.883333
Molorwe,-------,0373,Molorwe,Bojanala Platinum,North West,South Africa,-25.0907117,26.8954511
Lesetlheng,0374,0374,Saulspoort,Bojanala Platinum,North West,South Africa,-25.1497245,27.117651
Hlatini,-------,0375,Swartklip,Bojanala Platinum,North West,South Africa,-24.9458762,27.1676501
Ramatshaba,0376,0376,Ramatshaba,Bojanala Platinum,North West,South Africa,-25.1334999,27.05
Motlhabe,-------,0377,Motlhabe,Bojanala Platinum,North West,South Africa,-25.0661929,26.9440313
Marapallo,-------,0378,Rustenburg,Bojanala Platinum,North West,South Africa,-25.4666667,26.5811111
Mmorogong,-------,0379,Mogwase,Bojanala Platinum,North West,South Africa,-25.1246277,27.382212
Bojating,-------,0388,Mogwase,Bojanala Platinum,North West,South Africa,-25.1998332,27.3880872
Kommisiedrif,-------,0389,Kommisiedrif,Bojanala Platinum,North West,South Africa,-26.6638599,25.2837585
Moyanshe,-------,0390,Rustenburg,Bojanala Platinum,North West,South Africa,-25.6544483,27.255854
Phadi,-------,0391,Phadi,Bojanala Platinum,North West,South Africa,-26.6638599,25.2837585
Mosenthal,-------,0393,Rustenburg,Bojanala Platinum,North West,South Africa,-25.6544483,27.255854
Makgope,-------,0394,Mogwase,Bojanala Platinum,North West,South Africa,-25.1159137,26.8925065
Mantsho,-------,0396,Mogwase,Bojanala Platinum,North West,South Africa,-25.066667,26.816667
Mapaputle,-------,0397,Mogwase,Bojanala Platinum,North West,South Africa,-24.999278,26.8306605
Nkogolwe,-------,0398,Mogwase,Bojanala Platinum,North West,South Africa,-25.0305317,26.7540648
Ngweding,-------,0399,Saulspoort,Bojanala Platinum,North West,South Africa,-25.0657075,26.9955437
Lefatlheng,-------,0403,Lefatlheng,Bojanala Platinum,North West,South Africa,-25.2849658,28.226347
Swartdam,-------,0405,Swartdam,Bojanala Platinum,North West,South Africa,-25.301781,28.046419
Mmotla,-------,0407,Mmotla,Bojanala Platinum,North West,South Africa,-26.6638599,25.2837585
Ga-habedi,-------,0410,Temba,Bojanala Platinum,North West,South Africa,-25.1702702,27.9058596
Maubane,-------,0412,Mphe-Batho,Bojanala Platinum,North West,South Africa,-25.290314,28.2789735
Mphe-Batho,-------,0412,Mphe-Batho,Bojanala Platinum,North West,South Africa,-25.168689,27.167436
Dikebu,-------,0415,Rantebeng,Bojanala Platinum,North West,South Africa,-25.2029602,27.9680886
Ratjiepan,-------,0416,Temba,Bojanala Platinum,North West,South Africa,-25.340989,28.0732857
Mathibestad,-------,0418,Swartbooistad,Bojanala Platinum,North West,South Africa,-25.2762711,28.1766294
Pienaars River,-------,0420,Warmbaths,Central,North West,South Africa,-25.1295839,27.6399591
Pienaarsrivier,-------,0420,Warmbaths,Central,North West,South Africa,-25.1295839,27.6399591
Carousel View,-------,0421,Carousel View,Bojanala Platinum,North West,South Africa,-25.3178702,28.2833583
Mogogelo,-------,0422,Mogogelo,Bojanala Platinum,North West,South Africa,-25.3519716,28.1386005
Leboalangwe,-------,0423,Leboalangwe,Bojanala Platinum,North West,South Africa,-25.3171699,27.99283
Settlers,-------,0430,Warmbaths,Central,North West,South Africa,-24.8844467,28.3287106
Ga Mocheko,-------,0438,Temba,Bojanala Platinum,North West,South Africa,-25.1282834,27.9717606
Ga-mocheko,-------,0438,Temba,Bojanala Platinum,North West,South Africa,-25.1282834,27.9717606
Tladistad,-------,0439,Temba,Bojanala Platinum,North West,South Africa,-25.2029587,28.0449554
Moeka,-------,0440,Temba,Bojanala Platinum,North West,South Africa,-25.3260633,28.0273914
Dertig,-------,0441,Temba,Bojanala Platinum,North West,South Africa,-25.2849658,28.226347
Dikwebu,-------,0442,Temba,Bojanala Platinum,North West,South Africa,-25.1282834,27.9717606
Kgomo Kgomo,-------,0444,Temba,Bojanala Platinum,North West,South Africa,-25.3143298,27.7593273
Bolla Ntlokwe,-------,0445,Temba,Bojanala Platinum,North West,South Africa,-25.1282834,27.9717606
Bolla-ntlokwe,-------,0445,Temba,Bojanala Platinum,North West,South Africa,-25.0673299,27.98417
Dipetleloane,-------,0447,Temba,Bojanala Platinum,North West,South Africa,-25.0787121,28.1210458
Ga-lekalakala,-------,0448,Temba,Bojanala Platinum,North West,South Africa,-25.1282834,27.9717606
Ruigtesloot,-------,0486,Leeupoort,Bojanala Platinum,North West,South Africa,-25.0348464,27.8428651
Lerome,-------,0497,Lerome,Bojanala Platinum,North West,South Africa,-25.2553198,27.2354603
Kontant,-------,0498,Temba,Bojanala Platinum,North West,South Africa,-25.1862498,28.0932474
Lekgolo,-------,0499,Temba,Bojanala Platinum,North West,South Africa,-25.1773842,27.9907941
Mmatlhwaela,-------,0503,Temba,Bojanala Platinum,North West,South Africa,-25.2302383,28.0112895
Moema,-------,0504,Temba,Bojanala Platinum,North West,South Africa,-25.2114686,27.9702964
Selepe,-------,0505,Temba,Bojanala Platinum,North West,South Africa,-25.0642786,28.0522732
Slagboom,-------,0506,Temba,Bojanala Platinum,North West,South Africa,-25.0282438,28.0025061
Sutelong,-------,0507,Temba,Bojanala Platinum,North West,South Africa,-25.1282834,27.9717606
Transactie,-------,0508,Temba,Bojanala Platinum,North West,South Africa,-25.1282834,27.9717606
Groothoek Hospital,-------,0628,Groothoek,Bojanala Platinum,North West,South Africa,-27.1815753,25.3278356
Groothoekhospitaal,-------,0628,Groothoek,Bojanala Platinum,North West,South Africa,-27.1815753,25.3278356
Malemati Zone 3,-------,0736,Rustenburg,Bojanala Platinum,North West,South Africa,-25.6544483,27.255854
Welverdiend,2499,2495,Carletonville,Southern,North West,South Africa,-26.378373,27.2778989
Rysmierbult,-------,2496,Carletonville,Southern,North West,South Africa,-26.3508299,27.13556
Wedela,2499,2497,Carletonville,Southern,North West,South Africa,-26.4223518,27.4094213
Blybank,2499,-------,Carletonville,Southern,North West,South Africa,-26.3295171,27.4820657
Blyvooruitsig,2499,2504,Carletonville,Southern,North West,South Africa,-26.3847424,27.3824142
Carletonville,2499,2500,Carletonville,Southern,North West,South Africa,-26.4011578,27.3851496
Carletonville Ext 1,2499,-------,Carletonville,Southern,North West,South Africa,-26.4011578,27.3851496
Carletonville Ext 16,2499,-------,Carletonville,Southern,North West,South Africa,-26.4011578,27.3851496
Carletonville Ext 2,2499,-------,Carletonville,Southern,North West,South Africa,-26.3332744,27.3235748
Carletonville Ext 3,2499,-------,Carletonville,Southern,North West,South Africa,-26.4011578,27.3851496
Carletonville Ext 4,2499,-------,Carletonville,Southern,North West,South Africa,-26.4011578,27.3851496
Carletonville Ext 5,2499,-------,Carletonville,Southern,North West,South Africa,-26.4011578,27.3851496
Carletonville Ext 6,2499,-------,Carletonville,Southern,North West,South Africa,-26.4011578,27.3851496
Carletonville Ext 7,2499,-------,Carletonville,Southern,North West,South Africa,-26.4011578,27.3851496
Carletonville Ext 8,2499,-------,Carletonville,Southern,North West,South Africa,-26.4011578,27.3851496
Carletonville Ext 9,2499,-------,Carletonville,Southern,North West,South Africa,-26.4011578,27.3851496
Carletonville Uit 1,2499,-------,Carletonville,Southern,North West,South Africa,-26.4011578,27.3851496
Carletonville Uit 16,2499,-------,Carletonville,Southern,North West,South Africa,-26.4011578,27.3851496
Carletonville Uit 2,2499,-------,Carletonville,Southern,North West,South Africa,-26.4011578,27.3851496
Carletonville Uit 3,2499,-------,Carletonville,Southern,North West,South Africa,-26.4011578,27.3851496
Carletonville Uit 4,2499,-------,Carletonville,Southern,North West,South Africa,-26.4011578,27.3851496
Carletonville Uit 5,2499,-------,Carletonville,Southern,North West,South Africa,-26.4011578,27.3851496
Carletonville Uit 6,2499,-------,Carletonville,Southern,North West,South Africa,-26.4011578,27.3851496
Carletonville Uit 7,2499,-------,Carletonville,Southern,North West,South Africa,-26.4011578,27.3851496
Carletonville Uit 8,2499,-------,Carletonville,Southern,North West,South Africa,-26.4011578,27.3851496
Carletonville Uit 9,2499,-------,Carletonville,Southern,North West,South Africa,-26.4011578,27.3851496
Chris Hani,2499,2500,Carletonville,Southern,North West,South Africa,-26.3346986,27.3059963
Deelkraal,2499,2500,Carletonville,Southern,North West,South Africa,-26.4615604,27.3206728
East Driefontein,2499,2509,Carletonville,Southern,North West,South Africa,-26.3885335,27.5159434
East Village,2499,2507,Carletonville,Bojanala Platinum,North West,South Africa,-26.4011578,27.3851496
Elands Ridge,2499,2500,Carletonville,Bojanala Platinum,North West,South Africa,-26.4011578,27.3851496
Elands Ridge Ext 4,2499,2500,Carletonville,Bojanala Platinum,North West,South Africa,-26.3292313,27.8318755
Elandsgoud,2499,2508,Carletonville,Southern,North West,South Africa,-26.4523767,27.3570192
Elandsrand,2499,2500,Carletonville,Bojanala Platinum,North West,South Africa,-26.4523767,27.3570192
Elandsrand Uit 4,2499,2500,Carletonville,Bojanala Platinum,North West,South Africa,-25.6155833,27.8150234
Elandsridge,2499,2500,Carletonville,Southern,North West,South Africa,-26.4011578,27.3851496
Goudveld,2499,2507,Carletonville,Southern,North West,South Africa,-26.4011578,27.3851496
Joe Slovo,2499,2500,Carletonville,Southern,North West,South Africa,-26.4011578,27.3851496
Khutsong,2499,2500,Carletonville,Southern,North West,South Africa,-26.3307969,27.3175737
Khutsong Ext 1,2499,-------,Carletonville,Southern,North West,South Africa,-26.3307969,27.3175737
Khutsong Ext 2,2499,-------,Carletonville,Southern,North West,South Africa,-26.3338572,27.3238769
Khutsong Ext 3,2499,-------,Carletonville,Southern,North West,South Africa,-26.3417932,27.3027561
Khutsong Ext 6,2499,-------,Carletonville,Southern,North West,South Africa,-26.3307969,27.3175737
Khutsong Sotho Section,2499,-------,Carletonville,Southern,North West,South Africa,-26.3307969,27.3175737
Khutsong Sotho Seksie,2499,-------,Carletonville,Southern,North West,South Africa,-26.3307969,27.3175737
Khutsong South,-------,2499,Carletonville,Southern,North West,South Africa,-26.3307969,27.3175737
Khutsong South Ext 4,2499,-------,Carletonville,Southern,North West,South Africa,-26.3307969,27.3175737
Khutsong Suid,-------,2499,Carletonville,Southern,North West,South Africa,-26.3307969,27.3175737
Khutsong Suid Uit 4,2499,-------,Carletonville,Southern,North West,South Africa,-26.3307969,27.3175737
Khutsong Swazi Section,2499,2500,Carletonville,Southern,North West,South Africa,-26.3307969,27.3175737
Khutsong Swazi Seksie,2499,2500,Carletonville,Southern,North West,South Africa,-26.3307969,27.3175737
Khutsong Tswana Section,2499,2500,Carletonville,Southern,North West,South Africa,-26.3307969,27.3175737
Khutsong Tswana Seksie,2499,2500,Carletonville,Southern,North West,South Africa,-26.3307969,27.3175737
Khutsong Uit 1,2499,-------,Carletonville,Southern,North West,South Africa,-26.3307969,27.3175737
Khutsong Uit 2,2499,-------,Carletonville,Southern,North West,South Africa,-26.3307969,27.3175737
Khutsong Uit 3,2499,-------,Carletonville,Southern,North West,South Africa,-26.3307969,27.3175737
Khutsong Uit 6,2499,-------,Carletonville,Southern,North West,South Africa,-26.3307969,27.3175737
Khutsong Xhosa Section,2499,-------,Carletonville,Southern,North West,South Africa,-26.3307969,27.3175737
Khutsong Xhosa Seksie,2499,-------,Carletonville,Southern,North West,South Africa,-26.3307969,27.3175737
Khutsong Zulu Section,2499,-------,Carletonville,Southern,North West,South Africa,-26.3307969,27.3175737
Khutsong Zulu Seksie,2499,-------,Carletonville,Southern,North West,South Africa,-26.3307969,27.3175737
Kwathanduxolo,2499,2509,Carletonville,Southern,North West,South Africa,-26.4011578,27.3851496
Mandela,2499,-------,Carletonville,Southern,North West,South Africa,-26.4011578,27.3851496
Northdene,2499,-------,Carletonville,Southern,North West,South Africa,-29.8662806,30.8872137
Oberholzer,2499,2502,Carletonville,Southern,North West,South Africa,-26.3484647,27.3836808
Oberholzer Ext 1,2499,-------,Carletonville,Southern,North West,South Africa,-26.3484647,27.3836808
Oberholzer Ext 9,2499,-------,Carletonville,Southern,North West,South Africa,-26.3484647,27.3836808
Oberholzer Uit 1,2499,-------,Carletonville,Southern,North West,South Africa,-26.3484647,27.3836808
Oberholzer Uit 9,2499,-------,Carletonville,Southern,North West,South Africa,-26.3484647,27.3836808
Oos Driefontein,2499,-------,Carletonville,Southern,North West,South Africa,-26.3888389,27.5157555
Oos-Driefontein,2499,2509,Carletonville,Southern,North West,South Africa,-26.3888389,27.5157555
Pretoriusrus,2499,-------,Carletonville,Southern,North West,South Africa,-26.3499007,27.3800088
Rivonia,2499,-------,Carletonville,Southern,North West,South Africa,-26.0431661,28.0552003
Sonderwater,2499,2500,Carletonville,Southern,North West,South Africa,-28.283333,18.933333
Southdene,2499,-------,Carletonville,Southern,North West,South Africa,-26.4011578,27.3851496
Swazi Section,2499,2500,Carletonville,Southern,North West,South Africa,-26.4011578,27.3851496
T Section,2499,-------,Carletonville,Southern,North West,South Africa,-26.4011578,27.3851496
Tshiawelo,2499,-------,Carletonville,Southern,North West,South Africa,-26.2890576,27.8705335
Wedela,2499,2497,Carletonville,Southern,North West,South Africa,-26.4223518,27.4094213
Wedela Ext 1,2499,-------,Carletonville,Southern,North West,South Africa,-26.4730173,27.3792744
Wedela Ext 2,2499,-------,Carletonville,Southern,North West,South Africa,-26.3332744,27.3235748
Wedela Ext 3,2499,-------,Carletonville,Southern,North West,South Africa,-26.4730173,27.3792744
Wedela Ext 4,2499,2500,Carletonville,Bojanala Platinum,North West,South Africa,-26.4730173,27.3792744
Wedela Uit 1,2499,-------,Carletonville,Southern,North West,South Africa,-26.4730173,27.3792744
Wedela Uit 2,2499,-------,Carletonville,Southern,North West,South Africa,-26.4730173,27.3792744
Wedela Uit 3,2499,-------,Carletonville,Southern,North West,South Africa,-26.4730173,27.3792744
Wedela Uit 4,2499,2500,Carletonville,Bojanala Platinum,North West,South Africa,-26.4730173,27.3792744
Welverdiend,2499,2495,Carletonville,Southern,North West,South Africa,-26.378373,27.2778989
West Village,2499,-------,Carletonville,Southern,North West,South Africa,-26.4011578,27.3851496
Western Levels,2499,2501,Carletonville,Southern,North West,South Africa,-26.4276242,27.4003972
Boiketlo,-------,2500,Carletonville,Bojanala Platinum,North West,South Africa,-26.4011578,27.3851496
Carletonville,2499,2500,Carletonville,Southern,North West,South Africa,-26.4011578,27.3851496
Chris Hani,2499,2500,Carletonville,Southern,North West,South Africa,-26.3346986,27.3059963
Deelkraal,2499,2500,Carletonville,Southern,North West,South Africa,-26.4523767,27.3570192
Doornfontein,2500,2500,Carletonville,Bojanala Platinum,North West,South Africa,-26.194851,28.0552003
Elands Ridge,2499,2500,Carletonville,Bojanala Platinum,North West,South Africa,-26.4011578,27.3851496
Elands Ridge Ext 4,2499,2500,Carletonville,Bojanala Platinum,North West,South Africa,-26.3292313,27.8318755
Elandsrand,2499,2500,Carletonville,Bojanala Platinum,North West,South Africa,-26.4523767,27.3570192
Elandsrand Uit 4,2499,2500,Carletonville,Bojanala Platinum,North West,South Africa,-25.6155833,27.8150234
Elandsridge,2499,2500,Carletonville,Southern,North West,South Africa,-26.4011578,27.3851496
Joe Slovo,2499,2500,Carletonville,Southern,North West,South Africa,-26.4011578,27.3851496
Khutsong,2499,2500,Carletonville,Southern,North West,South Africa,-26.3307969,27.3175737
Khutsong Swazi Section,2499,2500,Carletonville,Southern,North West,South Africa,-26.3307969,27.3175737
Khutsong Swazi Seksie,2499,2500,Carletonville,Southern,North West,South Africa,-26.3307969,27.3175737
Khutsong Tswana Section,2499,2500,Carletonville,Southern,North West,South Africa,-26.3307969,27.3175737
Khutsong Tswana Seksie,2499,2500,Carletonville,Southern,North West,South Africa,-26.3307969,27.3175737
Sonderwater,2499,2500,Carletonville,Southern,North West,South Africa,-28.283333,18.933333
Swazi Section,2499,2500,Carletonville,Southern,North West,South Africa,-26.4011578,27.3851496
Wedela Ext 4,2499,2500,Carletonville,Bojanala Platinum,North West,South Africa,-26.4730173,27.3792744
Wedela Uit 4,2499,2500,Carletonville,Bojanala Platinum,North West,South Africa,-26.4730173,27.3792744
Western Levels,2499,2501,Carletonville,Southern,North West,South Africa,-26.4276242,27.4003972
Oberholzer,2499,2502,Carletonville,Southern,North West,South Africa,-26.3484647,27.3836808
Letsatsing,2503,2503,Carletonville,Southern,North West,South Africa,-26.3714426,27.4583785
Blyvooruitsig,2499,2504,Carletonville,Southern,North West,South Africa,-26.3847424,27.3824142
East Village,2499,2507,Carletonville,Bojanala Platinum,North West,South Africa,-26.4011578,27.3851496
Goudveld,2499,2507,Carletonville,Southern,North West,South Africa,-26.4011578,27.3851496
Elandsgoud,2499,2508,Carletonville,Southern,North West,South Africa,-26.4523767,27.3570192
East Driefontein,2499,2509,Carletonville,Southern,North West,South Africa,-26.3885335,27.5159434
Kwathanduxolo,2499,2509,Carletonville,Southern,North West,South Africa,-26.4011578,27.3851496
Oos-Driefontein,2499,2509,Carletonville,Southern,North West,South Africa,-26.3888389,27.5157555
Phofung,-------,2511,Carletonville,Southern,North West,South Africa,-26.4011578,27.3851496
Embali,2513,2513,Carletonville,Southern,North West,South Africa,-26.4011578,27.3851496
Fochville Central,-------,2514,Fochville,Southern,North West,South Africa,-26.478113,27.4907628
Fochville Sentraal,-------,2514,Fochville,Southern,North West,South Africa,-26.4770572,27.4908738
Fochville,2515,2515,Fochville,Southern,North West,South Africa,-26.4770572,27.4908738
Fochville Ext 1,2515,2515,Fochville,Southern,North West,South Africa,-26.4770572,27.4908738
Fochville Ext 2,2515,2515,Fochville,Southern,North West,South Africa,-26.4770572,27.4908738
Fochville Ext 3,2515,2515,Fochville,Southern,North West,South Africa,-26.4770572,27.4908738
Fochville Ext 4,2515,2515,Fochville,Southern,North West,South Africa,-26.4770572,27.4908738
Fochville Ext 5,2515,2515,Fochville,Southern,North West,South Africa,-26.4770572,27.4908738
Fochville Uit 1,2515,2515,Fochville,Southern,North West,South Africa,-26.4770572,27.4908738
Fochville Uit 2,2515,2515,Fochville,Southern,North West,South Africa,-26.4770572,27.4908738
Fochville Uit 3,2515,2515,Fochville,Southern,North West,South Africa,-26.4770572,27.4908738
Fochville Uit 4,2515,2515,Fochville,Southern,North West,South Africa,-26.4770572,27.4908738
Fochville Uit 5,2515,2515,Fochville,Southern,North West,South Africa,-26.4770572,27.4908738
Kokosi,-------,2515,Kokosi,Southern,North West,South Africa,-26.5003297,27.4703209
Kokosi,2515,2515,Fochville,Southern,North West,South Africa,-26.5003297,27.4703209
Kokosi Ext 1,2515,2515,Fochville,Southern,North West,South Africa,-26.5003297,27.4703209
Kokosi Ext 2,2515,2515,Fochville,Southern,North West,South Africa,-26.5003297,27.4703209
Kokosi Ext 3,2515,2515,Fochville,Southern,North West,South Africa,-26.5003297,27.4703209
Kokosi Ext 4,2515,2515,Fochville,Southern,North West,South Africa,-26.5003297,27.4703209
Kokosi Ext 5,2515,-------,Fochville,Southern,North West,South Africa,-26.5003297,27.4703209
Kokosi Uit 1,2515,2515,Fochville,Southern,North West,South Africa,-26.5003297,27.4703209
Kokosi Uit 2,2515,2515,Fochville,Southern,North West,South Africa,-26.5003297,27.4703209
Kokosi Uit 3,2515,2515,Fochville,Southern,North West,South Africa,-26.5003297,27.4703209
Kokosi Uit 4,2515,2515,Fochville,Southern,North West,South Africa,-26.5003297,27.4703209
Kokosi Uit 5,2515,-------,Fochville,Southern,North West,South Africa,-26.5003297,27.4703209
Greenpan,-------,2516,Carletonville,Southern,North West,South Africa,-26.4011578,27.3851496
Deep South,2517,2517,Carletonville,Southern,North West,South Africa,-26.4153845,27.4306297
Moyamkhulu,2519,-------,Carletonville,Southern,North West,South Africa,-26.4011578,27.3851496
Akasie Park,-------,2520,Potchefstroom,Southern,North West,South Africa,-26.7125032,27.1228709
Lusaka,-------,2520,Potchefstroom,Southern,North West,South Africa,-15.3875259,28.3228165
Potchefstroom,2531,2520,Potchefstroom,Southern,North West,South Africa,-26.7145297,27.0970475
Lesedi,2521,2525,Potchefstroom,Southern,North West,South Africa,-26.737361,27.039666
Potchefstroom Camp,2531,2521,Potchefstroom,Southern,North West,South Africa,-26.690468,27.0931653
Potchefstroomkamp,2531,2521,Potchefstroom,Southern,North West,South Africa,-26.690468,27.0931653
Noordbrug,2531,2522,Potchefstroom,Southern,North West,South Africa,-26.6956717,27.0956527
Kockspark,2531,2523,Potchefstroom,Southern,North West,South Africa,-26.7306936,27.0900076
Cachet,2531,2524,Potchefstroom,Southern,North West,South Africa,-26.6914304,27.0945085
Ikageng,2539,2525,Potchefstroom,Southern,North West,South Africa,-26.7256594,27.0499859
Industria,2531,2525,Potchefstroom,Southern,North West,South Africa,-26.7177716,27.067572
Lesedi,2521,2525,Potchefstroom,Southern,North West,South Africa,-26.737361,27.039666
Sarafina,2531,2525,Potchefstroom,Southern,North West,South Africa,-26.7379553,27.0240321
Baillie Park,2531,2526,Potchefstroom,Southern,North West,South Africa,-26.7161437,27.1161803
Miederpark,2531,2527,Potchefstroom,Southern,North West,South Africa,-26.73044,27.09454
Boskop,-------,2528,Potchefstroom,Southern,North West,South Africa,-26.537677,27.091176
Frederikstad,-------,2528,Boskop,Southern,North West,South Africa,-26.6638599,25.2837585
Frederikstad Sta,-------,2528,Boskop,Southern,North West,South Africa,59.22053689999999,10.9347012
New Machavie,-------,2529,Potchefstroom,Southern,North West,South Africa,-26.8005,26.97333
Promosa,2531,2530,Potchefstroom,Southern,North West,South Africa,-26.7041952,27.0352732
Baillie Park,2531,2526,Potchefstroom,Southern,North West,South Africa,-26.7161437,27.1161803
Baillie Park Ext 27,2531,2531,Potchefstroom,Southern,North West,South Africa,-26.7161437,27.1161803
Bailliepark Uit 27,2531,2531,Potchefstroom,Southern,North West,South Africa,-26.7161437,27.1161803
Boiphatong,-------,2531,Potchefstroom,Southern,North West,South Africa,-26.6697448,27.8516564
Cachet,2531,2524,Potchefstroom,Southern,North West,South Africa,-26.6914304,27.0945085
Dassierand,2531,-------,Potchefstroom,Southern,North West,South Africa,-26.6952953,27.072053
Grimbeekpark,2531,-------,Potchefstroom,Southern,North West,South Africa,-26.7249049,27.1132388
Industria,2531,2525,Potchefstroom,Southern,North West,South Africa,-26.7177716,27.067572
Kanonierspark,2531,-------,Potchefstroom,Southern,North West,South Africa,-26.7145297,27.0970475
Kockspark,2531,2523,Potchefstroom,Southern,North West,South Africa,-26.7306936,27.0900076
Miederpark,2531,2527,Potchefstroom,Southern,North West,South Africa,-26.73044,27.09454
Mohadin,2531,-------,Potchefstroom,Southern,North West,South Africa,-26.7200606,27.0308591
Mooibank,2531,-------,Potchefstroom,Southern,North West,South Africa,-26.7466799,27.03097
Mooirivier Park,2531,2531,Potchefstroom,Southern,North West,South Africa,-26.7158192,27.1134746
Mooirivierpark,2531,2531,Potchefstroom,Southern,North West,South Africa,-26.7158192,27.1134746
Mooivalleipark,2531,-------,Potchefstroom,Southern,North West,South Africa,-26.6787578,27.1095618
Noordbrug,2531,2522,Potchefstroom,Southern,North West,South Africa,-26.6956717,27.0956527
Oewersig,2531,-------,Potchefstroom,Southern,North West,South Africa,-26.6852776,27.1006099
Potchefstroom,2531,2520,Potchefstroom,Southern,North West,South Africa,-26.7145297,27.0970475
Potchefstroom Camp,2531,2521,Potchefstroom,Southern,North West,South Africa,-26.690468,27.0931653
Potchefstroom Ext 6,2531,-------,Potchefstroom,Southern,North West,South Africa,-26.7145297,27.0970475
Potchefstroom Ext 7,2531,-------,Potchefstroom,Southern,North West,South Africa,-26.7145297,27.0970475
Potchefstroom Ext 8,2531,-------,Potchefstroom,Southern,North West,South Africa,-26.7145297,27.0970475
Potchefstroom Uit 6,2531,-------,Potchefstroom,Southern,North West,South Africa,-26.7119926,27.1068586
Potchefstroom Uit 7,2531,-------,Potchefstroom,Southern,North West,South Africa,-26.690468,27.0931653
Potchefstroom Uit 8,2531,-------,Potchefstroom,Southern,North West,South Africa,-26.690468,27.0931653
Potchefstroomkamp,2531,2521,Potchefstroom,Southern,North West,South Africa,-26.690468,27.0931653
Promosa,2531,2530,Potchefstroom,Southern,North West,South Africa,-26.7041952,27.0352732
Promosa Ext 2,2531,-------,Potchefstroom,Southern,North West,South Africa,-26.7041952,27.0352732
Promosa Ext 3,2531,-------,Potchefstroom,Southern,North West,South Africa,-26.7041952,27.0352732
Promosa Ext 8,2531,2531,Potchefstroom,Southern,North West,South Africa,-26.7041952,27.0352732
Promosa Uit 2,2531,-------,Potchefstroom,Southern,North West,South Africa,-26.7041952,27.0352732
Promosa Uit 3,2531,-------,Potchefstroom,Southern,North West,South Africa,-26.7041952,27.0352732
Promosa Uit 8,2531,2531,Potchefstroom,Southern,North West,South Africa,-26.7041952,27.0352732
Sarafina,2531,2525,Potchefstroom,Southern,North West,South Africa,-26.7379553,27.0240321
Sarafina Ext 2,2531,2531,Potchefstroom,Southern,North West,South Africa,-26.7379553,27.0240321
Sarafina Ext 3,2531,2531,Potchefstroom,Southern,North West,South Africa,-26.7379553,27.0240321
Sarafina Ext 6,-------,2531,Potchefstroom,Southern,North West,South Africa,-26.7379553,27.0240321
Sarafina Uit 2,2531,2531,Potchefstroom,Southern,North West,South Africa,-26.7379553,27.0240321
Sarafina Uit 3,2531,2531,Potchefstroom,Southern,North West,South Africa,-26.7379553,27.0240321
Sarafina Uit 6,-------,2531,Potchefstroom,Southern,North West,South Africa,-26.7379553,27.0240321
Top City,2539,2531,Potchefstroom,Southern,North West,South Africa,-26.7363009,27.036178
Tshepisong,-------,2531,Potchefstroom,Southern,North West,South Africa,-26.1897784,27.8018337
Tshepisong Ext 7,2531,-------,Potchefstroom,Southern,North West,South Africa,-26.1897784,27.8018337
Tshepisong Uit 7,2531,-------,Potchefstroom,Southern,North West,South Africa,-26.1897784,27.8018337
Universiteit Van Potchefstroom,2531,-------,Potchefstroom,Southern,North West,South Africa,-26.690468,27.0931653
University of Potchefstroom,2531,-------,Potchefstroom,Southern,North West,South Africa,-26.690468,27.0931653
Van Der Hoffpark,2531,-------,Potchefstroom,Southern,North West,South Africa,-26.6949972,27.1132388
Tirisano,-------,2532,Potchefstroom,Southern,North West,South Africa,-26.7145297,27.0970475
Mphore,-------,2533,Potchefstroom,Southern,North West,South Africa,-26.7145297,27.0970475
Rest in Peace,-------,2534,Carletonville,Southern,North West,South Africa,-26.4011578,27.3851496
Rest-in-peace,-------,2534,Carletonville,Bojanala Platinum,North West,South Africa,-26.4011578,27.3851496
Flamwood Walk,-------,2535,Potchefstroom,Southern,North West,South Africa,-26.855179,26.676666
Riverwalk,-------,2538,Potchefstroom,Southern,North West,South Africa,-26.71303,27.10202
Ikageng,2539,2525,Potchefstroom,Southern,North West,South Africa,-26.7256594,27.0499859
Ikageng Ext 11,2539,-------,Potchefstroom,Southern,North West,South Africa,-26.7256594,27.0499859
Ikageng Ext 12,2539,-------,Potchefstroom,Southern,North West,South Africa,-26.7256594,27.0499859
Ikageng Ext 3,2539,-------,Potchefstroom,Southern,North West,South Africa,-26.7256594,27.0499859
Ikageng Ext 6,2539,-------,Potchefstroom,Southern,North West,South Africa,-26.7256594,27.0499859
Ikageng Ext 7,2539,-------,Potchefstroom,Southern,North West,South Africa,-26.7256594,27.0499859
Ikageng Uit 11,2539,-------,Potchefstroom,Southern,North West,South Africa,-26.7180186,27.0739384
Ikageng Uit 12,2539,-------,Potchefstroom,Southern,North West,South Africa,-26.7180186,27.0739384
Ikageng Uit 3,2539,-------,Potchefstroom,Southern,North West,South Africa,-26.7256594,27.0499859
Ikageng Uit 6,2539,-------,Potchefstroom,Southern,North West,South Africa,-26.7180186,27.0739384
Ikageng Uit 7,2539,-------,Potchefstroom,Southern,North West,South Africa,-26.7180186,27.0739384
Ikageng Zone 4,2539,2539,Potchefstroom,Southern,North West,South Africa,-26.7256594,27.0499859
Ikageng Zone 6,2539,2539,Potchefstroom,Southern,North West,South Africa,-26.7256594,27.0499859
Ikageng Zone 8,2539,2539,Potchefstroom,Southern,North West,South Africa,-26.7256594,27.0499859
Kanana Ext 1,2539,-------,Potchefstroom,Southern,North West,South Africa,-26.955563,26.63469
Kanana Uit 1,2539,-------,Potchefstroom,Southern,North West,South Africa,-26.955563,26.63469
Top City,2539,2531,Potchefstroom,Southern,North West,South Africa,-26.7363009,27.036178
Stilfontein,2551,2550,Stilfontein,Southern,North West,South Africa,-26.8428169,26.7745188
Khuma,2551,2562,Stilfontein,Southern,North West,South Africa,-26.8533883,26.8645307
Khuma,2551,-------,Khuma,Southern,North West,South Africa,-26.8533883,26.8645307
Khuma Ext 1,2551,-------,Stilfontein,Southern,North West,South Africa,-26.8533883,26.8645307
Khuma Ext 6,2551,2562,Stilfontein,Southern,North West,South Africa,-26.8533883,26.8645307
Khuma Ext 7,2551,-------,Stilfontein,Southern,North West,South Africa,-26.8533883,26.8645307
Khuma Ext 8,2551,2562,Stilfontein,Southern,North West,South Africa,-26.8533883,26.8645307
Khuma Ext 9,2551,2562,Stilfontein,Southern,North West,South Africa,-26.8533883,26.8645307
Khuma Uit 1,2551,-------,Stilfontein,Southern,North West,South Africa,-26.8533883,26.8645307
Khuma Uit 6,2551,2562,Stilfontein,Southern,North West,South Africa,-26.8533883,26.8645307
Khuma Uit 7,2551,-------,Stilfontein,Southern,North West,South Africa,-26.8533883,26.8645307
Khuma Uit 8,2551,2562,Stilfontein,Southern,North West,South Africa,-26.8533883,26.8645307
Khuma Uit 9,2551,2562,Stilfontein,Southern,North West,South Africa,-26.8533883,26.8645307
Stilfontein,2551,2550,Stilfontein,Southern,North West,South Africa,-26.8428169,26.7745188
Stilfontein East,2551,-------,Stilfontein,Southern,North West,South Africa,-26.843444,26.7768009
Stilfontein-Oos,2551,-------,Stilfontein,Southern,North West,South Africa,-26.8428169,26.7745188
Salang,2552,2552,Stilfontein,Southern,North West,South Africa,-26.8428169,26.7745188
Koekemoer,-------,2553,Stilfontein,Southern,North West,South Africa,-26.84417,26.8072199
Befula,-------,2554,Stilfontein,Southern,North West,South Africa,-26.8428169,26.7745188
Liphakoeng,-------,2554,Stilfontein,Southern,North West,South Africa,-26.8428169,26.7745188
Dijong,-------,2556,Stilfontein,Southern,North West,South Africa,-26.8428169,26.7745188
Difateng,-------,2560,Stilfontein,Southern,North West,South Africa,-26.0131821,28.2102635
Khuma,2551,2562,Stilfontein,Southern,North West,South Africa,-26.8533883,26.8645307
Khuma Ext 3,2562,2562,Stilfontein,Southern,North West,South Africa,-26.8533883,26.8645307
Khuma Ext 4,2562,2562,Stilfontein,Southern,North West,South Africa,-26.8533883,26.8645307
Khuma Ext 5,2562,2562,Stilfontein,Southern,North West,South Africa,-26.8533883,26.8645307
Khuma Ext 6,2551,2562,Stilfontein,Southern,North West,South Africa,-26.8533883,26.8645307
Khuma Ext 8,2551,2562,Stilfontein,Southern,North West,South Africa,-26.8533883,26.8645307
Khuma Ext 9,2551,2562,Stilfontein,Southern,North West,South Africa,-26.8533883,26.8645307
Khuma Uit 3,2562,2562,Stilfontein,Southern,North West,South Africa,-26.8533883,26.8645307
Khuma Uit 4,2562,2562,Stilfontein,Southern,North West,South Africa,-26.8533883,26.8645307
Khuma Uit 5,2562,2562,Stilfontein,Southern,North West,South Africa,-26.8533883,26.8645307
Khuma Uit 6,2551,2562,Stilfontein,Southern,North West,South Africa,-26.8533883,26.8645307
Khuma Uit 8,2551,2562,Stilfontein,Southern,North West,South Africa,-26.8533883,26.8645307
Khuma Uit 9,2551,2562,Stilfontein,Southern,North West,South Africa,-26.8533883,26.8645307
Flamwood Walk 15,2570,2572,Klerksdorp,Southern,North West,South Africa,-26.84703,26.67806
Klerksdorp,2571,2570,Klerksdorp,Southern,North West,South Africa,-26.8598225,26.6317514
Wilkoppies Ext 15,2570,2572,Klerksdorp,Southern,North West,South Africa,-26.8263552,26.6759688
Wilkoppies Uit 15,2570,2572,Klerksdorp,Southern,North West,South Africa,-26.8263552,26.6759688
Adamayview,2571,-------,Klerksdorp,Southern,North West,South Africa,-26.8501509,26.6862849
Campbelldorp,2571,-------,Klerksdorp,Southern,North West,South Africa,-26.8561885,26.6750395
Collerville,2571,-------,Klerksdorp,Southern,North West,South Africa,-26.8617601,26.6457545
Dawkinsville,2571,-------,Klerksdorp,Southern,North West,South Africa,-26.8674906,26.6763373
De Clerqville,2571,-------,Klerksdorp,Southern,North West,South Africa,-26.8578003,26.6383846
Doringkruin,2571,2576,Klerksdorp,Southern,North West,South Africa,-26.8141344,26.6892323
Elandia,2571,-------,Klerksdorp,Southern,North West,South Africa,-26.8573105,26.6509134
Elandsheuwel,2571,-------,Klerksdorp,Southern,North West,South Africa,-26.8506681,26.656809
Ellaton,2571,-------,Klerksdorp,Southern,North West,South Africa,-26.9051601,26.656809
Ellaton Ext,2571,-------,Klerksdorp,Southern,North West,South Africa,-26.9051601,26.656809
Ellaton Uit,2571,-------,Klerksdorp,Southern,North West,South Africa,-26.9051601,26.656809
Flamwood,2571,2572,Klerksdorp,Southern,North West,South Africa,-26.8391229,26.6936533
Flamwood Ext 2,2571,-------,Klerksdorp,Southern,North West,South Africa,-26.8391229,26.6936533
Flamwood Ext 3,2571,-------,Klerksdorp,Southern,North West,South Africa,-26.8391229,26.6936533
Flamwood Ext 7,2571,-------,Klerksdorp,Southern,North West,South Africa,-26.8391229,26.6936533
Flamwood Uit 2,2571,-------,Klerksdorp,Southern,North West,South Africa,-26.8391229,26.6936533
Flamwood Uit 3,2571,-------,Klerksdorp,Southern,North West,South Africa,-26.8391229,26.6936533
Flamwood Uit 7,2571,-------,Klerksdorp,Southern,North West,South Africa,-26.8492518,26.6778415
Flimieda,2571,-------,Klerksdorp,Southern,North West,South Africa,-26.8365748,26.6523873
Freemanville,2571,2573,Klerksdorp,Southern,North West,South Africa,-26.8709772,26.6170104
Irenepark,2571,-------,Klerksdorp,Southern,North West,South Africa,-26.8564564,26.6685999
Klerksdorp,2571,2570,Klerksdorp,Southern,North West,South Africa,-26.8598225,26.6317514
Lahoff,2571,-------,Klerksdorp,Southern,North West,South Africa,-26.8244822,26.6582829
Meiringspark,2571,-------,Klerksdorp,Southern,North West,South Africa,-26.8593536,26.6273292
Meiringspark Ext 1,2571,-------,Klerksdorp,Southern,North West,South Africa,-26.8593536,26.6273292
Meiringspark Uit 1,2571,-------,Klerksdorp,Southern,North West,South Africa,-26.8593536,26.6273292
Neserhof,2571,-------,Klerksdorp,Southern,North West,South Africa,-26.8844286,26.6582829
Oudorp,2571,-------,Klerksdorp,Southern,North West,South Africa,-26.8813662,26.6464915
Pienaarsdorp,2571,-------,Klerksdorp,Southern,North West,South Africa,-26.8641501,26.6726528
Randlespark,2571,-------,Klerksdorp,Southern,North West,South Africa,-26.899133,26.677278
Roosheuwel,2571,-------,Klerksdorp,Southern,North West,South Africa,-26.8754488,26.6420696
Songloed,2571,-------,Klerksdorp,Southern,North West,South Africa,-26.8555438,26.6428066
Uraniaville,2571,-------,Klerksdorp,Southern,North West,South Africa,-26.8892016,26.6346995
Wilkeville,2571,-------,Klerksdorp,Southern,North West,South Africa,-26.8431533,26.6501764
Wilkoppies,2571,-------,Klerksdorp,Southern,North West,South Africa,-26.8263552,26.6759688
Wilkoppies Ext 16,2571,2571,Klerksdorp,Southern,North West,South Africa,-26.9129088,26.6049286
Wilkoppies Uit 16,2571,2571,Klerksdorp,Southern,North West,South Africa,-26.8263552,26.6759688
Flamwood,2571,2572,Klerksdorp,Southern,North West,South Africa,-26.8391229,26.6936533
Flamwood Walk 15,2570,2572,Klerksdorp,Southern,North West,South Africa,-26.84703,26.67806
Wilkoppies Ext 14,2572,2572,Klerksdorp,Southern,North West,South Africa,-26.8263552,26.6759688
Wilkoppies Ext 15,2570,2572,Klerksdorp,Southern,North West,South Africa,-26.8263552,26.6759688
Wilkoppies Uit 14,2572,2572,Klerksdorp,Southern,North West,South Africa,-26.8263552,26.6759688
Wilkoppies Uit 15,2570,2572,Klerksdorp,Southern,North West,South Africa,-26.8263552,26.6759688
Freemanville,2571,2573,Klerksdorp,Southern,North West,South Africa,-26.8709772,26.6170104
Wilkoppies Ext 4,2573,2573,Klerksdorp,Southern,North West,South Africa,-26.8263552,26.6759688
Wilkoppies Uit 4,2573,2573,Klerksdorp,Southern,North West,South Africa,-26.8263552,26.6759688
Jouberton,-------,2574,Jouberton,Southern,North West,South Africa,-26.893033,26.6022684
Jouberton,2574,2574,Klerksdorp,Southern,North West,South Africa,-26.893033,26.6022684
Jouberton DGD,2574,-------,Jouberton,Southern,North West,South Africa,-26.893033,26.6022684
Jouberton Ext 1,2574,-------,Jouberton,Southern,North West,South Africa,-26.893033,26.6022684
Jouberton Ext 10,2574,-------,Jouberton,Southern,North West,South Africa,-26.893033,26.6022684
Jouberton Ext 11,2574,2574,Jouberton,Southern,North West,South Africa,-26.893033,26.6022684
Jouberton Ext 12,2574,-------,Jouberton,Southern,North West,South Africa,-26.893033,26.6022684
Jouberton Ext 13,2574,-------,Jouberton,Southern,North West,South Africa,-26.893033,26.6022684
Jouberton Ext 14,2574,-------,Jouberton,Southern,North West,South Africa,-26.893033,26.6022684
Jouberton Ext 15,2574,-------,Jouberton,Southern,North West,South Africa,-26.893033,26.6022684
Jouberton Ext 16,2574,-------,Jouberton,Southern,North West,South Africa,-26.9129088,26.6049286
Jouberton Ext 17,2574,2574,Klerksdorp,Southern,North West,South Africa,-26.914815,26.6026063
Jouberton Ext 18,2574,2574,Jouberton,Southern,North West,South Africa,-26.893033,26.6022684
Jouberton Ext 19,2574,-------,Klerksdorp,Southern,North West,South Africa,-26.893033,26.6022684
Jouberton Ext 2,2574,-------,Jouberton,Southern,North West,South Africa,-26.893033,26.6022684
Jouberton Ext 20,2574,-------,Jouberton,Southern,North West,South Africa,-26.893033,26.6022684
Jouberton Ext 21,2574,-------,Jouberton,Southern,North West,South Africa,-26.893033,26.6022684
Jouberton Ext 22,2574,2574,Jouberton,Southern,North West,South Africa,-26.893033,26.6022684
Jouberton Ext 23,2574,2574,Jouberton,Southern,North West,South Africa,-26.893033,26.6022684
Jouberton Ext 24,2574,-------,Jouberton,Southern,North West,South Africa,-26.893033,26.6022684
Jouberton Ext 4,2574,2574,Jouberton,Southern,North West,South Africa,-26.893033,26.6022684
Jouberton Ext 6,2574,-------,Klerksdorp,Southern,North West,South Africa,-26.893033,26.6022684
Jouberton Ext 7,2574,-------,Jouberton,Southern,North West,South Africa,-26.893033,26.6022684
Jouberton Ext 8,2574,-------,Jouberton,Southern,North West,South Africa,-26.893033,26.6022684
Jouberton Ext 9,2574,2574,Klerksdorp,Southern,North West,South Africa,-26.893033,26.6022684
Jouberton TSP,2574,-------,Jouberton,Southern,North West,South Africa,-26.893033,26.6022684
Jouberton Uit 1,2574,-------,Jouberton,Southern,North West,South Africa,-26.893033,26.6022684
Jouberton Uit 10,2574,-------,Jouberton,Southern,North West,South Africa,-26.893033,26.6022684
Jouberton Uit 11,2574,2574,Jouberton,Southern,North West,South Africa,-26.893033,26.6022684
Jouberton Uit 12,2574,-------,Jouberton,Southern,North West,South Africa,-26.893033,26.6022684
Jouberton Uit 13,2574,-------,Jouberton,Southern,North West,South Africa,-26.893033,26.6022684
Jouberton Uit 14,2574,-------,Jouberton,Southern,North West,South Africa,-26.893033,26.6022684
Jouberton Uit 15,2574,-------,Jouberton,Southern,North West,South Africa,-26.893033,26.6022684
Jouberton Uit 16,2574,-------,Jouberton,Southern,North West,South Africa,-26.893033,26.6022684
Jouberton Uit 17,2574,2574,Klerksdorp,Southern,North West,South Africa,-26.893033,26.6022684
Jouberton Uit 18,2574,2574,Jouberton,Southern,North West,South Africa,-26.893033,26.6022684
Jouberton Uit 19,2574,-------,Klerksdorp,Southern,North West,South Africa,-26.893033,26.6022684
Jouberton Uit 2,2574,-------,Jouberton,Southern,North West,South Africa,-26.893033,26.6022684
Jouberton Uit 20,2574,-------,Jouberton,Southern,North West,South Africa,-26.893033,26.6022684
Jouberton Uit 21,2574,-------,Jouberton,Southern,North West,South Africa,-26.893033,26.6022684
Jouberton Uit 22,2574,2574,Jouberton,Southern,North West,South Africa,-26.893033,26.6022684
Jouberton Uit 23,2574,2574,Jouberton,Southern,North West,South Africa,-26.893033,26.6022684
Jouberton Uit 24,2574,-------,Jouberton,Southern,North West,South Africa,-26.893033,26.6022684
Jouberton Uit 4,2574,2574,Jouberton,Southern,North West,South Africa,-26.893033,26.6022684
Jouberton Uit 6,2574,-------,Klerksdorp,Southern,North West,South Africa,-26.893033,26.6022684
Jouberton Uit 7,2574,-------,Jouberton,Southern,North West,South Africa,-26.893033,26.6022684
Jouberton Uit 8,2574,-------,Jouberton,Southern,North West,South Africa,-26.893033,26.6022684
Jouberton Uit 9,2574,2574,Klerksdorp,Southern,North West,South Africa,-26.893033,26.6022684
Jouberton West,-------,2574,Jouberton,Southern,North West,South Africa,-26.893033,26.6022684
Jouberton West Ext 10,2574,-------,Jouberton,Southern,North West,South Africa,-26.893033,26.6022684
Jouberton West Ext 7,2574,-------,Jouberton,Southern,North West,South Africa,-26.893033,26.6022684
Jouberton-wes Uit 10,2574,-------,Jouberton,Southern,North West,South Africa,-26.893033,26.6022684
Jouberton-wes Uit 7,2574,-------,Jouberton,Southern,North West,South Africa,-26.893033,26.6022684
Sakhrol,2574,-------,Jouberton,Southern,North West,South Africa,-26.8649003,26.5897369
Matlosane,-------,2575,Klerksdorp,Southern,North West,South Africa,-26.8598225,26.6317514
Doringkruin,2571,2576,Klerksdorp,Southern,North West,South Africa,-26.8141344,26.6892323
Alabama,2577,2577,Klerksdorp,Southern,North West,South Africa,-26.8738593,26.5757304
Alabama Ext 2,2577,2577,Klerksdorp,Southern,North West,South Africa,-26.8738593,26.5757304
Alabama Ext 3,2577,2577,Klerksdorp,Southern,North West,South Africa,-26.8738593,26.5757304
Alabama Uit 2,2577,2577,Klerksdorp,Southern,North West,South Africa,-26.8738593,26.5757304
Alabama Uit 3,2577,2577,Klerksdorp,Southern,North West,South Africa,-26.8738593,26.5757304
Manzil Park,2577,-------,Klerksdorp,Southern,North West,South Africa,-26.8607001,26.5801536
Dominionville,-------,2578,Klerksdorp,Southern,North West,South Africa,-26.9,26.4
Hartbeesfontein,2600,2600,Klerksdorp,Southern,North West,South Africa,-26.7649439,26.4252906
Tigane,2600,2600,Hartbeesfontein,Southern,North West,South Africa,-26.7377541,26.4179136
Tigane Ext 1,2600,2600,Hartbeesfontein,Southern,North West,South Africa,-26.7377541,26.4179136
Tigane Ext 3,2600,2600,Hartbeesfontein,Southern,North West,South Africa,-26.7377541,26.4179136
Tigane Ext 4,2600,2600,Hartbeesfontein,Southern,North West,South Africa,-26.7377541,26.4179136
Tigane Ext 6,2600,2600,Hartbeesfontein,Southern,North West,South Africa,-26.7377541,26.4179136
Tigane Uit 1,2600,2600,Hartbeesfontein,Southern,North West,South Africa,-26.7377541,26.4179136
Tigane Uit 3,2600,2600,Hartbeesfontein,Southern,North West,South Africa,-26.7377541,26.4179136
Tigane Uit 4,2600,2600,Hartbeesfontein,Southern,North West,South Africa,-26.7377541,26.4179136
Tigane Uit 6,2600,2600,Hartbeesfontein,Southern,North West,South Africa,-26.7377541,26.4179136
Lebogang,2610,-------,Ottosdal,Central,North West,South Africa,-26.7989767,25.989481
Letsopo,-------,2610,Ottosdal,Central,North West,South Africa,-26.8056161,25.9852307
Ottosdal,2610,2610,Ottosdal,Central,North West,South Africa,-26.8207062,26.005922
Vierfontein,2615,2615,Vierfontein,Central,North West,South Africa,-27.0987918,26.7820548
Golf Park,2619,-------,Orkney,Southern,North West,South Africa,-26.99663,26.67555
Kanana,2619,2626,Orkney,Southern,North West,South Africa,-26.955563,26.63469
Kanana Ext 1,2619,2619,Orkney,Southern,North West,South Africa,-26.955563,26.63469
Kanana Ext 10,2619,-------,Orkney,Southern,North West,South Africa,-26.955563,26.63469
Kanana Ext 12,2619,2619,Orkney,Southern,North West,South Africa,-26.955563,26.63469
Kanana Ext 13,2619,-------,Orkney,Southern,North West,South Africa,-26.955563,26.63469
Kanana Ext 14,2619,-------,Orkney,Southern,North West,South Africa,-26.955563,26.63469
Kanana Ext 2,2619,-------,Orkney,Southern,North West,South Africa,-26.955563,26.63469
Kanana Ext 3,2619,-------,Orkney,Southern,North West,South Africa,-26.955563,26.63469
Kanana Ext 4,2619,-------,Orkney,Southern,North West,South Africa,-26.955563,26.63469
Kanana Ext 5,2619,-------,Orkney,Southern,North West,South Africa,-26.955563,26.63469
Kanana Ext 6,2619,-------,Orkney,Southern,North West,South Africa,-26.955563,26.63469
Kanana Ext 7,2619,2626,Orkney,Southern,North West,South Africa,-26.955563,26.63469
Kanana Ext 8,2619,2626,Orkney,Southern,North West,South Africa,-26.955563,26.63469
Kanana Ext 9,2619,-------,Orkney,Southern,North West,South Africa,-26.955563,26.63469
Kanana Uit 1,2619,2619,Orkney,Southern,North West,South Africa,-26.955563,26.63469
Kanana Uit 10,2619,-------,Orkney,Southern,North West,South Africa,-26.955563,26.63469
Kanana Uit 12,2619,2619,Orkney,Southern,North West,South Africa,-26.955563,26.63469
Kanana Uit 13,2619,-------,Orkney,Southern,North West,South Africa,-26.955563,26.63469
Kanana Uit 14,2619,-------,Orkney,Southern,North West,South Africa,-26.955563,26.63469
Kanana Uit 2,2619,-------,Orkney,Southern,North West,South Africa,-26.955563,26.63469
Kanana Uit 3,2619,-------,Orkney,Southern,North West,South Africa,-26.955563,26.63469
Kanana Uit 4,2619,-------,Orkney,Southern,North West,South Africa,-26.955563,26.63469
Kanana Uit 5,2619,-------,Orkney,Southern,North West,South Africa,-26.955563,26.63469
Kanana Uit 6,2619,-------,Orkney,Southern,North West,South Africa,-26.955563,26.63469
Kanana Uit 7,2619,2626,Orkney,Southern,North West,South Africa,-26.955563,26.63469
Kanana Uit 8,2619,2626,Orkney,Southern,North West,South Africa,-26.955563,26.63469
Kanana Uit 9,2619,-------,Orkney,Southern,North West,South Africa,-26.955563,26.63469
Muzimuhle,2619,2627,Orkney,Southern,North West,South Africa,-26.927872700000002,26.7260713
Orkney,2619,2620,Orkney,Southern,North West,South Africa,-26.9897921,26.6759688
Orkney Ext 1,2619,-------,Orkney,Southern,North West,South Africa,-26.9897921,26.6759688
Orkney Ext 4,2619,-------,Orkney,Southern,North West,South Africa,-26.9897921,26.6759688
Orkney Park,2619,-------,Orkney,Southern,North West,South Africa,-27.00301,26.6864199
Orkney Uit 1,2619,-------,Orkney,Southern,North West,South Africa,-26.9897921,26.6759688
Orkney Uit 4,2619,-------,Orkney,Southern,North West,South Africa,-26.9897921,26.6759688
Umzimhle,2619,2627,Orkney,Southern,North West,South Africa,-26.927872700000002,26.7260713
Vaalpark,2619,-------,Orkney,Southern,North West,South Africa,-26.7759129,27.848726
Nooitgedacht,-------,2620,Orkney,Southern,North West,South Africa,-26.1434746,25.6361928
Orkney,2619,2620,Orkney,Southern,North West,South Africa,-26.9897921,26.6759688
Vaal Reef,2621,2621,Orkney,Southern,North West,South Africa,-26.933333,26.7333329
Zuiping,-------,2622,Orkney,Southern,North West,South Africa,-26.927872700000002,26.7260713
Masakeng,-------,2623,Masakeng,Southern,North West,South Africa,-25.855978,25.64031
Mazenzele,-------,2624,Orkney,Southern,North West,South Africa,50.942789,4.1711583
Boikanyo,-------,2625,Orkney,Southern,North West,South Africa,-26.927872700000002,26.7260713
Kanana,2619,2626,Orkney,Southern,North West,South Africa,-26.955563,26.63469
Kanana Ext 7,2619,2626,Orkney,Southern,North West,South Africa,-26.955563,26.63469
Kanana Ext 8,2619,2626,Orkney,Southern,North West,South Africa,-26.955563,26.63469
Kanana Uit 7,2619,2626,Orkney,Southern,North West,South Africa,-26.955563,26.63469
Kanana Uit 8,2619,2626,Orkney,Southern,North West,South Africa,-26.955563,26.63469
Muzimuhle,2619,2627,Orkney,Southern,North West,South Africa,-26.927872700000002,26.7260713
Thembalethu,-------,2627,Orkney,Southern,North West,South Africa,-34.0045007,22.4917291
Umzimhle,2619,2627,Orkney,Southern,North West,South Africa,-26.927872700000002,26.7260713
Kanana East,-------,2629,Kanana,Southern,North West,South Africa,-26.955563,26.63469
Kanana-oos,-------,2629,Orkney,Southern,North West,South Africa,-26.955563,26.63469
Chris Hani,-------,2630,Wolmaransstad,Southern,North West,South Africa,-27.2018521,25.9586253
Chris Hani Ext 4,-------,2630,Wolmaransstad,Southern,North West,South Africa,-26.3292313,27.8318755
Chris Hani Uit 4,-------,2630,Wolmaransstad,Southern,North West,South Africa,-27.2018521,25.9586253
Tswelelang,2630,2630,Wolmaransstad,Southern,North West,South Africa,-27.2278028,25.9793186
Tswelelang Ext 1,2630,-------,Wolmaransstad,Southern,North West,South Africa,-27.2278028,25.9793186
Tswelelang Ext 10,2630,-------,Wolmaransstad,Southern,North West,South Africa,-27.2278028,25.9793186
Tswelelang Ext 3,2630,-------,Wolmaransstad,Southern,North West,South Africa,-27.2278028,25.9793186
Tswelelang Ext 4,2630,-------,Wolmaransstad,Southern,North West,South Africa,-27.2278028,25.9793186
Tswelelang Ext 5,2630,-------,Wolmaransstad,Southern,North West,South Africa,-27.2278028,25.9793186
Tswelelang Uit 1,2630,-------,Wolmaransstad,Southern,North West,South Africa,-27.2278028,25.9793186
Tswelelang Uit 10,2630,-------,Wolmaransstad,Southern,North West,South Africa,-27.2278028,25.9793186
Tswelelang Uit 3,2630,-------,Wolmaransstad,Southern,North West,South Africa,-27.2278028,25.9793186
Tswelelang Uit 4,2630,-------,Wolmaransstad,Southern,North West,South Africa,-27.2278028,25.9793186
Tswelelang Uit 5,2630,-------,Wolmaransstad,Southern,North West,South Africa,-27.2278028,25.9793186
Wolmaransstad,2630,2630,Wolmaransstad,Southern,North West,South Africa,-27.2018521,25.9586253
Witpoort,-------,2632,Witpoort,Southern,North West,South Africa,-27.1756241,26.1182168
Kgakala,2640,2640,Leeudoringstad,Southern,North West,South Africa,-27.2191684,26.2688495
Kgakala Ext 1,2640,2640,Leeudoringstad,Southern,North West,South Africa,-27.2191684,26.2688495
Kgakala Ext 2,2640,2640,Leeudoringstad,Southern,North West,South Africa,-27.2191684,26.2688495
Kgakala Ext 3,2640,2640,Leeudoringstad,Southern,North West,South Africa,-27.2191684,26.2688495
Kgakala Ext 6,2640,-------,Leeudoringstad,Southern,North West,South Africa,-27.2191684,26.2688495
Kgakala Uit 1,2640,2640,Leeudoringstad,Southern,North West,South Africa,-27.2191684,26.2688495
Kgakala Uit 2,2640,2640,Leeudoringstad,Southern,North West,South Africa,-27.2191684,26.2688495
Kgakala Uit 3,2640,2640,Leeudoringstad,Southern,North West,South Africa,-27.2191684,26.2688495
Kgakala Uit 6,2640,-------,Leeudoringstad,Southern,North West,South Africa,-27.2191684,26.2688495
Leeudoringstad,2640,2640,Leeudoringstad,Southern,North West,South Africa,-27.2260434,26.2481798
Thusanong,-------,2640,Leeudoringstad,Southern,North West,South Africa,-27.2260434,26.2481798
Lebaleng,2650,2650,Makwassie,Southern,North West,South Africa,-27.3250432,25.9778406
Makwassie,2650,2650,Makwassie,Southern,North West,South Africa,-27.3116683,25.9970545
Bloemhof,-------,2660,Bloemhof,Bophirima,North West,South Africa,-27.6263257,25.5799503
Coverdale,2660,-------,Bloemhof,Bophirima,North West,South Africa,-27.6263257,25.5799503
Kingswood,2661,-------,Bloemhof,Southern,North West,South Africa,-27.6263257,25.5799503
Boitumelong,-------,2662,Bloemhof,Bophirima,North West,South Africa,-27.641736,25.5710689
Christiana,2680,2680,Christiana,Bophirima,North West,South Africa,-27.8846801,25.1533426
Geluksoord,2680,-------,Christiana,Bophirima,North West,South Africa,-27.9022814,25.1437075
Utlwaneng,2680,2680,Christiana,Bophirima,North West,South Africa,-27.892593,25.12666
Tshing,2710,2710,Ventersdorp,Southern,North West,South Africa,-26.3215478,26.7997308
Tshing DGD,2710,-------,Ventersdorp,Southern,North West,South Africa,-26.3215478,26.7997308
Tshing Dgd Uit 1,2710,-------,Ventersdorp,Southern,North West,South Africa,-26.3215478,26.7997308
Tshing Dgd Uit 2,2710,-------,Ventersdorp,Southern,North West,South Africa,-26.3215478,26.7997308
Tshing Dgd Uit 3,2710,-------,Ventersdorp,Southern,North West,South Africa,-26.3215478,26.7997308
Tshing Dgd Uit 4,2710,-------,Ventersdorp,Southern,North West,South Africa,-26.3215478,26.7997308
Tshing Dgd Uit 5,2710,-------,Ventersdorp,Southern,North West,South Africa,-26.3215478,26.7997308
Tshing TSP,2710,-------,Ventersdorp,Southern,North West,South Africa,-26.3215478,26.7997308
Tshing Tsp Ext 1,2710,-------,Ventersdorp,Southern,North West,South Africa,-26.3215478,26.7997308
Tshing Tsp Ext 2,2710,-------,Ventersdorp,Southern,North West,South Africa,-26.3215478,26.7997308
Tshing Tsp Ext 3,2710,-------,Ventersdorp,Southern,North West,South Africa,-26.3215478,26.7997308
Tshing Tsp Ext 4,2710,-------,Ventersdorp,Southern,North West,South Africa,-26.3215478,26.7997308
Tshing Tsp Ext 5,2710,-------,Ventersdorp,Southern,North West,South Africa,-26.3215478,26.7997308
Ventersdorp,2710,2710,Ventersdorp,Southern,North West,South Africa,-26.2773833,26.7614309
Ventersdorp Ext 2,2710,2710,Ventersdorp,Southern,North West,South Africa,-26.2773833,26.7614309
Ventersdorp Ext 4,2710,-------,Ventersdorp,Southern,North West,South Africa,-26.2773833,26.7614309
Ventersdorp Uit 2,2710,2710,Ventersdorp,Southern,North West,South Africa,-26.2773833,26.7614309
Ventersdorp Uit 4,2710,-------,Ventersdorp,Southern,North West,South Africa,-26.2773833,26.7614309
Bafokeng,-------,2711,Bafokeng,Southern,North West,South Africa,-25.598844,27.126531
Makokskraal,-------,2712,Ventersdorp,Southern,North West,South Africa,-26.340611,26.63192
Boikutsong,-------,2713,Boikutsong,Southern,North West,South Africa,-26.8887,26.5901814
Gamotlatla,-------,2714,Gamotlatla,Southern,North West,South Africa,-26.0723592,26.5698326
Mareetsane,-------,2715,Mareetsane,Central,North West,South Africa,-26.1438099,25.42812
Bathobatho,-------,2716,Bathobatho,Central,North West,South Africa,-26.2177361,25.4763169
Verdwaal,-------,2717,Itsoseng,Central,North West,South Africa,-26.0829104,25.8817498
Kunana,2718,2748,Delareyville,Central,North West,South Africa,-26.3759999,25.32735
Coligny,2725,2725,Coligny,Central,North West,South Africa,-26.3356876,26.3160877
Coligny Ext 1,2725,2725,Coligny,Central,North West,South Africa,-26.3313766,26.3101834
Coligny Ext 3,2725,-------,Coligny,Central,North West,South Africa,-26.3313766,26.3101834
Coligny Ext 6,2725,-------,Coligny,Central,North West,South Africa,-26.3313766,26.3101834
Coligny Uit 1,2725,2725,Coligny,Central,North West,South Africa,-26.3288899,26.3208299
Coligny Uit 3,2725,-------,Coligny,Central,North West,South Africa,-26.3288899,26.3208299
Coligny Uit 6,2725,-------,Coligny,Central,North West,South Africa,-26.3313766,26.3101834
Tlhabologang,-------,2725,Coligny,Central,North West,South Africa,-26.3293031,26.2998506
Bodenstein,2726,-------,Coligny,Central,North West,South Africa,-26.3313766,26.3101834
Vermaas,-------,2727,Coligny,Central,North West,South Africa,-26.525,26.005409
Mogasne,-------,2728,Mogasne,Central,North West,South Africa,-26.6638599,25.2837585
Gerdau,-------,2729,Gerdau,Central,North West,South Africa,-26.4833329,26.1
Bospoort,-------,2730,Lichtenburg,Central,North West,South Africa,-30.316667,26.55
Atamelang,-------,2732,Atamelang,Central,North West,South Africa,-26.5018859,25.3696844
Mafikeng Ext 39,2735,-------,Mafikeng,Bojanala Platinum,North West,South Africa,-25.855978,25.64031
Mafikeng Uit 39,2735,-------,Mafikeng,Bojanala Platinum,North West,South Africa,-25.855978,25.64031
Mmabatho,2790,2735,Mmabatho,Central,North West,South Africa,-25.8377623,25.594752
Mmabatho Unit 1,2790,2735,Mmabatho,Central,North West,South Africa,-25.8352511,25.6117731
Mmabatho Unit 10,2790,2735,Mmabatho,Central,North West,South Africa,-25.8526423,25.585131
Mmabatho Unit 11,2790,2735,Mmabatho,Central,North West,South Africa,-25.8377623,25.594752
Mmabatho Unit 12,2790,2735,Mmabatho,Central,North West,South Africa,-25.8471236,25.5925318
Mmabatho Unit 13,2790,2735,Mmabatho,Central,North West,South Africa,-25.8578969,25.571809
Mmabatho Unit 14,2790,2735,Mmabatho,Central,North West,South Africa,-25.8554295,25.5666281
Mmabatho Unit 15,2790,2735,Mmabatho,Central,North West,South Africa,-25.8477012,25.5784701
Mmabatho Unit 2,2790,2735,Mmabatho,Central,North West,South Africa,-25.8361082,25.5962322
Mmabatho Unit 3,2790,2735,Mmabatho,Central,North West,South Africa,-25.8209043,25.6295331
Mmabatho Unit 4,2790,2735,Mmabatho,Central,North West,South Africa,-25.83774,25.6058528
Mmabatho Unit 5,2790,2735,Mmabatho,Central,North West,South Africa,-25.8245293,25.6065929
Mmabatho Unit 6,2790,2735,Mmabatho,Central,North West,South Africa,-25.8156713,25.631753
Mmabatho Unit 7,2790,2735,Mmabatho,Central,North West,South Africa,-25.840507,25.5984524
Mmabatho Unit 8,2790,2735,Mmabatho,Central,North West,South Africa,-25.8427247,25.5903116
Mmabatho Unit 9,2790,2735,Mmabatho,Central,North West,South Africa,-25.8485142,25.585131
Mmatau,-------,2736,Madikwe,Bojanala Platinum,North West,South Africa,-25.2437856,26.6641784
Modimosana,2736,2736,Madikwe,Bojanala Platinum,North West,South Africa,-25.3957311,26.5727815
Mafikeng Ext 38,2737,-------,Mafikeng,Bojanala Platinum,North West,South Africa,-25.855978,25.64031
Mafikeng Uit 38,2737,-------,Mafikeng,Bojanala Platinum,North West,South Africa,-25.855978,25.64031
Montshiwa,2737,2737,Montshiwa,Central,North West,South Africa,-25.8388141,25.6184332
Gelukspan,-------,2738,Radithuso,Central,North West,South Africa,-26.2002316,25.6048487
Goedgevonden,-------,2738,Radithuso,Central,North West,South Africa,-26.2002316,25.6048487
Radithuso,-------,2738,Mafikeng,Central,North West,South Africa,-26.2002316,25.6048487
Ratshidi,-------,2739,Radithuso,Central,North West,South Africa,-25.8716869,25.6328523
Tloung Dorpsgebied,2739,2739,Radithuso,Central,North West,South Africa,-25.8784319,25.6199132
Tloung Village,2739,2739,Radithuso,Central,North West,South Africa,-25.8784319,25.6199132
Blydeville,2740,-------,Lichtenburg,Central,North West,South Africa,-26.1845181,26.1580991
Boikhutso,2740,-------,Lichtenburg,Central,North West,South Africa,-26.1814656,26.1315116
Boikhutso Ext 2,2740,-------,Lichtenburg,Central,North West,South Africa,-26.1823693,26.1244796
Boikhutso Uit 2,2740,-------,Lichtenburg,Central,North West,South Africa,-26.1814656,26.1315116
Burgersdorp,2740,-------,Lichtenburg,Central,North West,South Africa,-26.16396,26.17293
Duffield,2740,-------,Lichtenburg,Central,North West,South Africa,36.7189846,-82.79599499999999
Industrial Area,2740,-------,Lichtenburg,Central,North West,South Africa,-26.1567973,26.1591245
Industriele Gebied,2740,-------,Lichtenburg,Central,North West,South Africa,-26.1093224,26.1713917
Kieserville,2740,-------,Lichtenburg,Central,North West,South Africa,-26.1596081,26.1755308
Lichtenburg,2740,2740,Lichtenburg,Central,North West,South Africa,-26.1093224,26.1713917
Moikotso,2740,-------,Lichtenburg,Central,North West,South Africa,-26.1093224,26.1713917
Retiefspark,2740,-------,Lichtenburg,Central,North West,South Africa,-26.1395295,26.164007
Sederpark,2740,2740,Lichtenburg,Central,North West,South Africa,-26.17717,26.1789199
Shukron,-------,2740,Lichtenburg,Central,North West,South Africa,-26.1673155,26.1514525
Stewardby,2740,-------,Lichtenburg,Central,North West,South Africa,-26.1093224,26.1713917
Bodibe,2741,2741,Lichtenburg,Central,North West,South Africa,-26.0579227,25.8348448
Bakerville,2742,2742,Lichtenburg,Central,North West,South Africa,-25.9833329,26.083333
Rooigrond,-------,2743,Lichtenburg,Central,North West,South Africa,-25.9251141,25.8018941
Ditsobotla,2744,-------,Itsoseng,Central,North West,South Africa,-26.0829104,25.8817498
Galato,2744,-------,Itsoseng,Central,North West,South Africa,-26.0829104,25.8817498
Itsoseng,-------,2744,Itsoseng,Central,North West,South Africa,-26.0829104,25.8817498
Itsoseng,2744,2744,Mafikeng,Central,North West,South Africa,-26.0829104,25.8817498
Itsoseng Ext 2,2744,-------,Itsoseng,Central,North West,South Africa,-26.0829104,25.8817498
Itsoseng Sone 1,2744,-------,Mafikeng,Central,North West,South Africa,-26.08291,25.88175
Itsoseng Sone 2,2744,-------,Mafikeng,Central,North West,South Africa,-26.08291,25.88175
Itsoseng Sone 3,2744,-------,Mafikeng,Central,North West,South Africa,-26.0739123,25.8972833
Itsoseng Uit 2,2744,-------,Itsoseng,Central,North West,South Africa,-26.0928459,25.8728782
Itsoseng Zone 1,2744,-------,Mafikeng,Central,North West,South Africa,-26.08291,25.88175
Itsoseng Zone 2,2744,-------,Mafikeng,Central,North West,South Africa,-26.08291,25.88175
Itsoseng Zone 3,2744,-------,Mafikeng,Central,North West,South Africa,-26.0739123,25.8972833
Thusong,2744,-------,Itsoseng,Central,North West,South Africa,-26.09735,25.8699099
Areen,2745,-------,Mafikeng,Central,North West,South Africa,-25.855978,25.64031
Beirut,2745,-------,Mafikeng,Central,North West,South Africa,33.8937913,35.5017767
Danville,2745,-------,Mafikeng,Central,North West,South Africa,-25.8750475,25.6524714
Golf View,2745,-------,Mafikeng,Central,North West,South Africa,-25.8607545,25.6480319
Imperial,2745,-------,Mafikeng,Central,North West,South Africa,-25.8641002,25.630273
Industrial Site,2745,-------,Mafikeng,Central,North West,South Africa,-25.846389,25.635446
Legkraal,2745,-------,Mafikeng,Bojanala Platinum,North West,South Africa,-25.1334696,27.0543995
Libertas,2745,-------,Mafikeng,Bojanala Platinum,North West,South Africa,-25.8519623,25.6435923
Madisane,2745,-------,Mafikeng,Central,North West,South Africa,-25.855978,25.64031
Mafikeng,2745,2745,Mafikeng,Central,North West,South Africa,-25.855978,25.64031
Mafikeng Ext 38,2745,-------,Mafikeng,Central,North West,South Africa,-25.855978,25.64031
Mafikeng Uit 38,2745,-------,Mafikeng,Central,North West,South Africa,-25.855978,25.64031
Magogoe Koikoi Village,2745,-------,Mafikeng,Bojanala Platinum,North West,South Africa,-25.8949928,25.5977123
Mahikeng,2745,2745,Mafikeng,Central,North West,South Africa,-25.855978,25.64031
Makhubung,2745,-------,Mafikeng,Central,North West,South Africa,-25.8918063,25.5414623
Masibi,2745,-------,Mafikeng,Central,North West,South Africa,-25.8451997,25.6156145
Mochud,2745,-------,Mafikeng,Central,North West,South Africa,-25.855978,25.64031
Ramatlabama,2745,2745,Mafikeng,Central,North West,South Africa,-25.6265429,25.600129
Ramosadi,2745,-------,Mafikeng,Central,North West,South Africa,-25.8646751,25.6199132
Rashidistadt,2745,-------,Mafikeng,Central,North West,South Africa,-25.855978,25.64031
Rhodes Park,2745,-------,Mafikeng,Central,North West,South Africa,-25.8660401,25.7220148
Riviera Park,2745,-------,Mafikeng,Central,North West,South Africa,-25.8596192,25.6613502
Rooifontein,2745,-------,Mafikeng,Central,North West,South Africa,-30.0650229,18.2607361
Rowlands Estate,2745,-------,Mafikeng,Central,North West,South Africa,-25.8498758,25.6528413
Rowlands Landgoed,2745,-------,Mafikeng,Central,North West,South Africa,-25.855978,25.64031
Siabonga,2745,-------,Mafikeng,Central,North West,South Africa,-25.855978,25.64031
Stinkwater,2745,-------,Mafikeng,Central,North West,South Africa,-25.3867662,28.1605413
Disaneng,2746,2746,Mafikeng,Central,North West,South Africa,-25.8092466,25.2600506
Kraaipan,-------,2747,Delareyville,Central,North West,South Africa,-26.2988692,25.3023962
Kunana,2718,2748,Delareyville,Central,North West,South Africa,-26.3759999,25.32735
Lotlhakane,-------,2749,Mafikeng,Central,North West,South Africa,-26.0115605,25.6213932
Makgobistad,-------,2750,Mafikeng,Central,North West,South Africa,-25.855978,25.64031
Molopo,-------,2751,Mafikeng,Bophirima,North West,South Africa,-25.8681417,25.6538248
Tsetse,-------,2752,Mafikeng,Central,North West,South Africa,-25.7313889,25.6702288
Leopard Park,-------,2753,Mafikeng,Central,North West,South Africa,-25.8123467,25.6421124
Tshidilamolomo,2753,2753,Mafikeng,Central,North West,South Africa,-25.84835,25.64529
Tshidkamolomo,2753,2753,Mafikeng,Central,North West,South Africa,-25.84835,25.64529
Ramatlhabama,-------,2754,Lichtenburg,Central,North West,South Africa,-26.1093224,26.1713917
Biesiesvlei,2755,2755,Lichtenburg,Central,North West,South Africa,-26.3790146,25.91132
Miga,-------,2756,Miga,Central,North West,South Africa,-25.6494855,25.5710689
Masamane,-------,2757,Masamane,Central,North West,South Africa,-25.8449674,24.632651
Moseki,-------,2758,Moseki,Central,North West,South Africa,-26.6638599,25.2837585
Logageng,-------,2759,Logageng,Central,North West,South Africa,-25.933262,24.687575
Agisanang,2760,2760,Sannieshof,Central,North West,South Africa,-26.5590236,25.8240786
Sannieshof,2760,2760,Sannieshof,Central,North West,South Africa,-26.5355521,25.8107681
Loporung,-------,2761,Loporung,Central,North West,South Africa,-25.7566862,24.9902482
Itekeng,-------,2762,Lichtenburg,Central,North West,South Africa,-26.3593066,25.9068847
Lekoko,-------,2763,Mafikeng,Central,North West,South Africa,-25.9413757,25.5266578
Deelpan,-------,2764,Delareyville,Central,North West,South Africa,-26.3338499,25.5888314
Barberspan,-------,2765,Barberspan,Central,North West,South Africa,-26.5898142,25.5858711
Modimola,-------,2766,Mafikeng,Central,North West,South Africa,-25.8578073,25.4141193
Masutlhe,-------,2767,Mafikeng,Central,North West,South Africa,-25.8049114,25.4170814
Lonely Park,2768,2768,Mafikeng,Central,North West,South Africa,-25.8376308,25.6539512
Magogoe,-------,2769,Mafikeng,Central,North West,South Africa,-25.8949928,25.5977123
Delareyville,2770,2770,Delareyville,Central,North West,South Africa,-26.6849915,25.4615092
Geysdorp,-------,2771,Delareyville,Central,North West,South Africa,-26.5373328,25.298575
Madibogo,-------,2772,Delareyville,Central,North West,South Africa,-26.4088514,25.1770586
Setlagole,-------,2773,Madibogo,Central,North West,South Africa,-26.4088514,25.1770586
Kopela,-------,2774,Madibogo,Central,North West,South Africa,-26.4286744,25.5236968
Migdol,-------,2775,Schweizer-Reneke,Bophirima,North West,South Africa,-26.9072557,25.4689131
Vrischgewaagt,-------,2776,Delareyville,Central,North West,South Africa,-26.6849915,25.4615092
Motlhabeng,-------,2777,Mmabatho,Central,North West,South Africa,-25.8531611,25.6006725
Enselsrust,-------,2778,Enselsrust,Central,North West,South Africa,-26.2548759,25.5488642
Madibogopan,-------,2779,Madibogopan,Central,North West,South Africa,-26.4970426,25.1177654
Ipelegeng,2780,2792,Schweizer-Reneke,Bophirima,North West,South Africa,-27.201612,25.2972022
Schweizer-Reneke,2780,2780,Schweizer-Reneke,Bophirima,North West,South Africa,-27.1778263,25.2956118
Sharon,-------,2780,Schweizer-Reneke,Bophirima,North West,South Africa,-27.1778263,25.2956118
Slovo,-------,2780,Schweizer-Reneke,Bophirima,North West,South Africa,-27.1778263,25.2956118
Bakolobeng,-------,2781,Bakolobeng,Central,North West,South Africa,-26.47202,25.53988
Seshibitswe,-------,2782,Mafikeng,Central,North West,South Africa,-25.8660401,25.7220148
Monname,-------,2783,Mafikeng,Central,North West,South Africa,-25.855978,25.64031
Utlwanang,-------,2784,Mafikeng,Central,North West,South Africa,-27.892593,25.12666
Tholo-Rapulana,-------,2785,Tholo-Rapulana,Central,North West,South Africa,-26.6638599,25.2837585
Amalia,2786,2786,Schweizer-Reneke,Bophirima,North West,South Africa,-27.2430078,25.0406679
Sehume,-------,2787,Sehume,Central,North West,South Africa,-26.6638599,25.2837585
Selemoseng,-------,2788,Selemoseng,Central,North West,South Africa,-26.6638599,25.2837585
Motsoseng,-------,2789,Motsoseng,Central,North West,South Africa,-25.8664386,25.5666281
Mmabatho,2790,2735,Mmabatho,Central,North West,South Africa,-25.8377623,25.594752
Mmabatho Unit 1,2790,2735,Mmabatho,Central,North West,South Africa,-25.8352511,25.6117731
Mmabatho Unit 10,2790,2735,Mmabatho,Central,North West,South Africa,-25.8526423,25.585131
Mmabatho Unit 11,2790,2735,Mmabatho,Central,North West,South Africa,-25.8377623,25.594752
Mmabatho Unit 12,2790,2735,Mmabatho,Central,North West,South Africa,-25.8471236,25.5925318
Mmabatho Unit 13,2790,2735,Mmabatho,Central,North West,South Africa,-25.8578969,25.571809
Mmabatho Unit 14,2790,2735,Mmabatho,Central,North West,South Africa,-25.8554295,25.5666281
Mmabatho Unit 15,2790,2735,Mmabatho,Central,North West,South Africa,-25.8477012,25.5784701
Mmabatho Unit 2,2790,2735,Mmabatho,Central,North West,South Africa,-25.8361082,25.5962322
Mmabatho Unit 3,2790,2735,Mmabatho,Central,North West,South Africa,-25.8209043,25.6295331
Mmabatho Unit 4,2790,2735,Mmabatho,Central,North West,South Africa,-25.83774,25.6058528
Mmabatho Unit 5,2790,2735,Mmabatho,Central,North West,South Africa,-25.8245293,25.6065929
Mmabatho Unit 6,2790,2735,Mmabatho,Central,North West,South Africa,-25.8156713,25.631753
Mmabatho Unit 7,2790,2735,Mmabatho,Central,North West,South Africa,-25.840507,25.5984524
Mmabatho Unit 8,2790,2735,Mmabatho,Central,North West,South Africa,-25.8427247,25.5903116
Mmabatho Unit 9,2790,2735,Mmabatho,Central,North West,South Africa,-25.8485142,25.585131
Mafikeng South,-------,2791,Mafikeng,Central,North West,South Africa,-25.855978,25.64031
Mafikeng-suid,-------,2791,Mafikeng,Bojanala Platinum,North West,South Africa,-25.855978,25.64031
Ipelegeng,2780,2792,Schweizer-Reneke,Bophirima,North West,South Africa,-27.201612,25.2972022
Biesiesvlei Central,-------,2793,Lichtenburg,Central,North West,South Africa,-26.3790146,25.91132
Borolelo,2835,-------,Swartruggens,Bojanala Platinum,North West,South Africa,-25.6307588,26.6803901
Industrial Area,2835,-------,Swartruggens,Bojanala Platinum,North West,South Africa,-25.6435052,27.8047648
Industriele Gebied,2835,-------,Swartruggens,Bojanala Platinum,North West,South Africa,-25.6445156,26.6730213
Swartruggens,2835,2835,Swartruggens,Bojanala Platinum,North West,South Africa,-25.6445156,26.6730213
Klipbankfontein,-------,2836,Madikwe,Bojanala Platinum,North West,South Africa,-25.72778,26.7475
Molatedi,-------,2838,Madikwe,Bojanala Platinum,North West,South Africa,-24.8023342,26.4626393
Lenyeneng Section,2839,-------,Madikwe,Bojanala Platinum,North West,South Africa,-25.3957311,26.5727815
Lenyeneng Seksie,2839,-------,Madikwe,Bojanala Platinum,North West,South Africa,-25.3957311,26.5727815
Silwerkrans,2839,2839,Madikwe,Bojanala Platinum,North West,South Africa,-25.5004536,26.6258551
Madikwe,2840,2840,Madikwe,Bojanala Platinum,North West,South Africa,-25.3957311,26.5727815
Holfontein,-------,2841,Madikwe,Bojanala Platinum,North West,South Africa,-26.4,25.8666667
Mabaalstad,-------,2841,Madikwe,Bojanala Platinum,North West,South Africa,-25.833333,26.616667
Bamaaka,-------,2842,Madikwe,Bojanala Platinum,North West,South Africa,-25.3957311,26.5727815
Siga,-------,2842,Madikwe,Bojanala Platinum,North West,South Africa,-25.3957311,26.5727815
Bamare a Phogole,-------,2843,Madikwe,Bojanala Platinum,North West,South Africa,-25.3957311,26.5727815
Bamare-a-phogole,-------,2843,Madikwe,Bojanala Platinum,North West,South Africa,-25.3957311,26.5727815
Uitkyk,-------,2843,Madikwe,Bojanala Platinum,North West,South Africa,-25.2080348,26.4370933
Brakuil,2844,2844,Madikwe,Bojanala Platinum,North West,South Africa,-25.3957311,26.5727815
Sesobe,-------,2844,Madikwe,Bojanala Platinum,North West,South Africa,-25.0373815,26.4326673
Gasefanyetso,2845,2845,Madikwe,Bojanala Platinum,North West,South Africa,-25.3957311,26.5727815
Moubane,-------,2845,Madikwe,Bojanala Platinum,North West,South Africa,-25.2921844,26.6405956
Kayakulu,2846,2846,Madikwe,Bojanala Platinum,North West,South Africa,-25.3957311,26.5727815
Manamela,2847,2847,Madikwe,Bojanala Platinum,North West,South Africa,-25.1713614,26.6774426
Koffiekraal,-------,2848,Madikwe,Bojanala Platinum,North West,South Africa,-25.2794442,26.4223398
Mokgatla,2848,2848,Madikwe,Bojanala Platinum,North West,South Africa,-25.3957311,26.5727815
Mokgatlha,2848,2848,Madikwe,Bojanala Platinum,North West,South Africa,-25.3957311,26.5727815
Kalafi,2849,2849,Madikwe,Bojanala Platinum,North West,South Africa,-25.3957311,26.5727815
Lethlakeng,-------,2849,Madikwe,Bojanala Platinum,North West,South Africa,-25.3957311,26.5727815
Letlhakeng,-------,2849,Madikwe,Bojanala Platinum,North West,South Africa,-25.145856,26.7172305
Groot-Marico,-------,2850,Groot-Marico,Central,North West,South Africa,-25.5811737,26.4075854
Skuinsdrif,-------,2851,Zeerust,Central,North West,South Africa,-25.5333333,26.0833333
Pitse di Sule Jang,-------,2852,Madikwe,Bojanala Platinum,North West,South Africa,-25.3957311,26.5727815
Pitse-di-sule Jang,-------,2852,Madikwe,Bojanala Platinum,North West,South Africa,-25.3957311,26.5727815
Silkaatskop,-------,2852,Madikwe,Bojanala Platinum,North West,South Africa,-25.033333,26.416667
Mokgaotsistat,2854,2854,Madikwe,Bojanala Platinum,North West,South Africa,-25.3957311,26.5727815
Basebo,-------,2855,Mafikeng,Central,North West,South Africa,57.47752029999999,15.9631902
Dwarsberg,-------,2857,Mafikeng,Central,North West,South Africa,-25.8660401,25.7220148
Mmankaipaya,-------,2858,Mafikeng,Bojanala Platinum,North West,South Africa,-25.855978,25.64031
Dekameelkuil,-------,2859,Dekameelkuil,Bojanala Platinum,North West,South Africa,-26.6638599,25.2837585
Thandabantu,-------,2860,Thandabantu,Bojanala Platinum,North West,South Africa,-26.6638599,25.2837585
Springbokpan,-------,2861,Springbokpan,Central,North West,South Africa,-26.116667,25.783333
Marapallo,-------,2862,Marapallo,Bojanala Platinum,North West,South Africa,-25.4666667,26.5811111
Henryville,2865,2865,Zeerust,Central,North West,South Africa,-25.55483,26.0933299
Ikageleng,2865,-------,Zeerust,Central,North West,South Africa,-25.5616748,26.1019667
Olienhout Park,2865,2865,Zeerust,Central,North West,South Africa,-25.5523446,26.1004894
Olienhoutpark,2865,2865,Zeerust,Central,North West,South Africa,-25.5523446,26.1004894
Sharimapark,-------,2865,Zeerust,Central,North West,South Africa,-25.5505618,26.0702021
Zeerust,2865,2865,Zeerust,Central,North West,South Africa,-25.5523446,26.1004894
Ottoshoop,-------,2866,Mafikeng,Central,North West,South Africa,-25.7551659,25.9586253
Buhrmannsdrif,2867,2867,Zeerust,Central,North West,South Africa,-25.8280599,25.7933299
Dinokana,2868,2868,Lerato,Central,North West,South Africa,-25.4432013,25.8640062
Mshenguville,-------,2868,Dinokana,Central,North West,South Africa,-25.4432013,25.8640062
Mokgola,-------,2869,Mokgola,Central,North West,South Africa,-25.3324671,26.1300345
Motswedi,-------,2870,Lerato,Central,North West,South Africa,-25.2714764,25.884707
Mabudu,-------,2871,Mabudu,Central,North West,South Africa,-23.0429623,29.6194898
Borakalolo,-------,2872,Borakalolo,Central,North West,South Africa,-25.2862258,25.8975697
Lobatla,-------,2873,Lerato,Central,North West,South Africa,-25.1746149,25.8433037
Nietverdiend,-------,2874,Zeerust,Central,North West,South Africa,-25.0349492,26.1564374
Derdepoort,-------,2876,Zeerust,Central,North West,South Africa,-24.637199,26.40206
Tlokweng,-------,2877,Tlokweng,Central,North West,South Africa,-24.6679808,25.9763625
Gopane Central,-------,2878,Gopane,Central,North West,South Africa,-25.3133769,25.8225997
Lehurutshe,2880,2880,Lerato,Central,North West,South Africa,-25.4814321,25.9674941
Lerato,-------,2880,Lerato,Central,North West,South Africa,-26.6638599,25.2837585
Welbedacht,-------,2880,Lerato,Central,North West,South Africa,-25.4814321,25.9674941
Braklaagte,-------,2881,Zeerust,Central,North West,South Africa,-25.394145,26.0945799
Goo Kubu Section,2882,-------,Zeerust,Central,North West,South Africa,-25.5523446,26.1004894
Goo Kubu Seksie,2882,-------,Zeerust,Central,North West,South Africa,-25.5523446,26.1004894
Gopane,-------,2882,Zeerust,Central,North West,South Africa,-25.3133769,25.8225997
Khunotsevane,-------,2883,Zeerust,Central,North West,South Africa,-25.56917,25.8246699
Khunotsoane,-------,2883,Zeerust,Central,North West,South Africa,-25.56917,25.8246699
Lekgophung,2884,2884,Zeerust,Central,North West,South Africa,-24.8068041,26.0147892
Mmasebodule,2885,2885,Zeerust,Central,North West,South Africa,-25.0439411,26.304279
Supingstad,2886,2886,Zeerust,Central,North West,South Africa,-24.7936026,26.0561653
Swaartfontein,-------,2887,Zeerust,Central,North West,South Africa,-24.9102816,25.9172336
Swartfontein,-------,2887,Zeerust,Central,North West,South Africa,-24.9102816,25.9172336
Witkleigat,-------,2888,Zeerust,Central,North West,South Africa,-25.5523446,26.1004894
Puana,-------,2889,Zeerust,Central,North West,South Africa,-25.4234999,25.8585
Tampostad,-------,2890,Zeerust,Central,North West,South Africa,-25.4683918,26.4828189
Ntsweletsoku,-------,2891,Zeerust,Central,North West,South Africa,-25.4407531,25.9645378
Slurry,-------,2895,Zeerust,Central,North West,South Africa,-25.8147977,25.8292548
Mothibistat,8474,8474,Vryburg,Bophirima,North West,South Africa,-26.9584048,24.7298615
Bathlaro,-------,8476,Vryburg,Central,North West,South Africa,-26.9584048,24.7298615
Batlharo,-------,8476,Vryburg,Central,North West,South Africa,-27.3136396,23.3436529
Batlharos,-------,8476,Vryburg,Bophirima,North West,South Africa,-27.3136396,23.3436529
Daantjiesrus,-------,8477,Mothibistat,Bophirima,North West,South Africa,-26.6638599,25.2837585
Dithakwaneng,-------,8478,Vryburg,Bophirima,North West,South Africa,-27.0342573,24.5720973
Gamagolodike,-------,8479,Vryburg,Central,North West,South Africa,-26.9584048,24.7298615
Gamogolodike,-------,8479,Vryburg,Bophirima,North West,South Africa,-26.9584048,24.7298615
Ga Mopedi,-------,8480,Vryburg,Bophirima,North West,South Africa,-27.2357775,23.2186017
Ga-mopedi,-------,8480,Vryburg,Central,North West,South Africa,-27.2357775,23.2186017
Gamopedi,-------,8480,Vryburg,Central,North West,South Africa,-27.2357775,23.2186017
Southey,-------,8484,Vryburg,Bophirima,North West,South Africa,-26.7750363,24.0146069
Madipelesa,-------,8537,Taung,Bophirima,North West,South Africa,-27.895247,24.4195601
Manokwane,-------,8561,Manokwane,Bophirima,North West,South Africa,-27.5549688,24.800366
Pokwani,-------,8565,Pokwani,Bophirima,North West,South Africa,-27.7582258,24.7911639
Gataute,-------,8567,Gataute,Bophirima,North West,South Africa,-26.700928,27.594377
Khudutlou,-------,8569,Khudutlou,Bophirima,North West,South Africa,-27.6665056,25.0495647
Dipitsing,-------,8575,Magogong,Bophirima,North West,South Africa,-27.6570223,24.8122367
Gamoduana,-------,8575,Magogong,Bophirima,North West,South Africa,-27.6570223,24.8122367
Magogong,8575,8575,Magogong,Bophirima,North West,South Africa,-27.6570223,24.8122367
Magogong Village,-------,8575,Magogong,Bophirima,North West,South Africa,-27.6570223,24.8122367
Maphoitsile,-------,8575,Magogong,Bophirima,North West,South Africa,-27.6570223,24.8122367
Modutung Village,-------,8575,Magogong,Bophirima,North West,South Africa,-27.6570223,24.8122367
Banksdrif,-------,8576,Taung,Bophirima,North West,South Africa,-27.5518206,24.7662356
Motsweding,-------,8576,Taung,Bophirima,North West,South Africa,-27.5518206,24.7662356
Magogong Village,-------,8577,Taung,Bophirima,North West,South Africa,-27.6570223,24.8122367
Taung Ext 6,8580,8580,Taung,Bophirima,North West,South Africa,-27.5575978,24.7560902
Taung Station,-------,8580,Taung,Bophirima,North West,South Africa,-27.56583,24.74694
Taung Uit 6,8580,8580,Taung,Bophirima,North West,South Africa,-27.5518206,24.7662356
Pudimoe,8581,8581,Pudimoe,Bophirima,North West,South Africa,-27.400326,24.7172603
Bothithong,-------,8582,Ganyesa,Bophirima,North West,South Africa,-27.0609353,23.831703
Bothitong,-------,8582,Ganyesa,Central,North West,South Africa,-27.0609353,23.831703
Norlim,-------,8583,Taung,Bophirima,North West,South Africa,-27.6237092,24.6400737
Manthestad,-------,8585,Taung,Bophirima,North West,South Africa,-27.549379,24.892679
Molelema,-------,8586,Taung,Bophirima,North West,South Africa,-27.5518206,24.7662356
Cassel,8587,8587,Ganyesa,Bophirima,North West,South Africa,-26.9674749,23.9806996
Dry Harts,-------,8588,Taung,Bophirima,North West,South Africa,-27.3453019,24.732102
Kgomotso,-------,8589,Taung,Bophirima,North West,South Africa,-27.9818103,24.6044437
Kokomeng,-------,8590,Taung,Bophirima,North West,South Africa,-27.5518206,24.7662356
Mmamutle,-------,8591,Taung,Bophirima,North West,South Africa,-27.5518206,24.7662356
Lekung,-------,8592,Taung,Bophirima,North West,South Africa,-25.7960437,25.5088914
Losasaneng,-------,8593,Taung,Bophirima,North West,South Africa,-27.5518206,24.7662356
Matsheng,-------,8594,Taung,Bophirima,North West,South Africa,-27.5593274,25.0080443
Reivilo,8595,8595,Reivilo,Bophirima,North West,South Africa,-27.5372362,24.1736608
Shaleng,-------,8596,Taung,Bophirima,North West,South Africa,-27.9190123,24.4611479
Modimong,-------,8597,Taung,Bojanala Platinum,North West,South Africa,-27.5518206,24.7662356
Modular Range,-------,8598,Modular Range,Bojanala Platinum,North West,South Africa,-26.6638599,25.2837585
Sekhing,-------,8599,Taung,Bophirima,North West,South Africa,-27.5518206,24.7662356
Vryburg,8601,8600,Vryburg,Bophirima,North West,South Africa,-26.9584048,24.7298615
Colridge,8601,-------,Vryburg,Bophirima,North West,South Africa,-26.9402018,24.737522
Huhudi,8601,8629,Vryburg,Bophirima,North West,South Africa,-26.9776774,24.7410067
Industrial Area,8601,-------,Vryburg,Bophirima,North West,South Africa,-25.6435052,27.8047648
Industriele Gebied,8601,-------,Vryburg,Bophirima,North West,South Africa,-26.9584048,24.7298615
Kismetpark,8601,-------,Vryburg,Bophirima,North West,South Africa,-26.9404695,24.7323803
Vryburg,8601,8600,Vryburg,Bophirima,North West,South Africa,-26.9584048,24.7298615
Devondale,8602,-------,Vryburg,Bophirima,North West,South Africa,-26.77056,24.89556
Kameel,-------,8603,Vryburg,Bophirima,North West,South Africa,-26.9584048,24.7298615
Dithakong,-------,8604,Ganyesa,Central,North West,South Africa,-27.0858759,23.923907
Matlapaneng,-------,8605,Taung,Bophirima,North West,South Africa,-27.5518206,24.7662356
Myra,-------,8606,Taung,Bophirima,North West,South Africa,-27.3858888,24.7647516
Picong,-------,8607,Taung,Bophirima,North West,South Africa,-27.5518206,24.7662356
Cokonyane,-------,8608,Taung,Bophirima,North West,South Africa,-27.4824464,24.8063014
Louwna,-------,8610,Vryburg,Bophirima,North West,South Africa,-26.902809,24.143511
Coetzersdam,8611,-------,Vryburg,Bophirima,North West,South Africa,-26.9584048,24.7298615
Heunaar,-------,8611,Pomfret,Bophirima,North West,South Africa,-26.1366888,23.7767576
Bona Bona,-------,8612,Pomfret,Bophirima,North West,South Africa,-26.2339109,23.5368181
Bona-bona,-------,8612,Pomfret,Bophirima,North West,South Africa,-26.2339109,23.5368181
Ganyesa,-------,8613,Ganyesa,Bophirima,North West,South Africa,-26.5919275,24.1711193
Morokweng,8614,8614,Pomfret,Bophirima,North West,South Africa,-26.1336751,23.7930318
Vorstershoop,8615,8615,Vryburg,Bophirima,North West,South Africa,-25.833839,23.021469
Tlakgameng,-------,8616,Vryburg,Central,North West,South Africa,-26.9584048,24.7298615
Tlhakgameng,-------,8616,Vryburg,Bophirima,North West,South Africa,-26.9584048,24.7298615
Tseoge,-------,8617,Pomfret,Bophirima,North West,South Africa,-26.0064105,23.516303
Tosca,-------,8618,Pomfret,Bophirima,North West,South Africa,-25.87849,23.958151
Pomfret,-------,8619,Pomfret,Bophirima,North West,South Africa,-25.8229693,23.5311843
Bray,8620,8620,Pomfret,Bophirima,North West,South Africa,-25.4686179,23.7030359
Piet Plessis,-------,8621,Vryburg,Bophirima,North West,South Africa,-26.177119,24.3935655
Vergelee,8622,8622,Vryburg,Bophirima,North West,South Africa,-25.777081,24.1926099
Kgokgole,-------,8623,Ganyesa,Bophirima,North West,South Africa,-26.7162431,23.9253941
Broedersput,-------,8624,Vryburg,Bophirima,North West,South Africa,-26.9584048,24.7298615
Gata lwa Tlou,-------,8625,Pomfret,Bophirima,North West,South Africa,-25.6594234,23.4776098
Gata-lwa-tlou,-------,8625,Pomfret,Bophirima,North West,South Africa,-26.46105,23.08053
Madibeng,-------,8626,Pomfret,Bophirima,North West,South Africa,-25.6099895,27.7959713
Glenred,-------,8627,Glenred,Bophirima,North West,South Africa,-26.9729815,23.9134978
Molopo,-------,8628,Molopo,Bophirima,North West,South Africa,-25.8229693,23.5311843
Huhudi,8601,8629,Vryburg,Bophirima,North West,South Africa,-26.9776774,24.7410067
Stella,8650,8650,Stella,Bophirima,North West,South Africa,-26.5478588,24.8745512
Ditsobotla,-------,8655,Madibogo,Central,North West,South Africa,-26.1093224,26.1713917
Molopo River,-------,8680,Vryburg,Bophirima,North West,South Africa,-25.8681417,25.6538248
Moloporivier,-------,8680,Vryburg,Central,North West,South Africa,-26.948474,24.721779
