Location,Street_code,Box_code,Area,Municipality,Province,Country,Lat,Lon
Eurekaville,5950,5950,Noupoort,Pixley ka Seme,Northern Cape,South Africa,-31.1921648,24.9474
Hospitaal Heuwel,5950,-------,Noupoort,Pixley ka Seme,Northern Cape,South Africa,-31.1846901,24.9491323
Klipheuwel,5950,-------,Noupoort,Pixley ka Seme,Northern Cape,South Africa,-33.7243969,18.7081246
Kwa Zamuxolo,5950,5950,Noupoort,Pixley ka Seme,Northern Cape,South Africa,-31.1846901,24.9491323
Kwazamuxolo,5950,5950,Noupoort,Pixley ka Seme,Northern Cape,South Africa,-31.1940836,24.9561365
Moreson,5950,-------,Noupoort,Pixley ka Seme,Northern Cape,South Africa,-31.1846901,24.9491323
Noupoort,5950,5950,Noupoort,Pixley ka Seme,Northern Cape,South Africa,-31.1846901,24.9491323
Plakkerskamp,-------,5950,Noupoort,Pixley ka Seme,Northern Cape,South Africa,-31.1846901,24.9491323
Kerkgrond,-------,6920,Sutherland,Namakwa,Northern Cape,South Africa,-32.4100977,20.670528
Skema,-------,6920,Sutherland,Namakwa,Northern Cape,South Africa,-32.4100977,20.670528
Sutherland,6920,6920,Sutherland,Namakwa,Northern Cape,South Africa,-32.4100977,20.670528
Amerville,6960,-------,Fraserburg,Namakwa,Northern Cape,South Africa,-31.9149495,21.5133587
Fraserburg,6960,6960,Fraserburg,Namakwa,Northern Cape,South Africa,-31.9149495,21.5133587
Loxton,-------,6985,Loxton,Pixley ka Seme,Northern Cape,South Africa,-31.4688152,22.3456985
Barcelona,-------,7000,De Aar,Pixley ka Seme,Northern Cape,South Africa,-30.6766303,24.0131202
De Aar,7000,7000,De Aar,Pixley ka Seme,Northern Cape,South Africa,-30.6766303,24.0131202
De Aar Ext 14,7000,-------,De Aar,Pixley ka Seme,Northern Cape,South Africa,-30.6766303,24.0131202
De Aar Ext 18,7000,-------,De Aar,Pixley ka Seme,Northern Cape,South Africa,-30.6242869,24.031164
De Aar Ext 20,7000,-------,De Aar,Pixley ka Seme,Northern Cape,South Africa,-30.6766303,24.0131202
De Aar Ext 21,7000,-------,De Aar,Pixley ka Seme,Northern Cape,South Africa,-30.6520644,24.0078294
De Aar Ext 7,7000,-------,De Aar,Pixley ka Seme,Northern Cape,South Africa,-30.676393,24.0142765
De Aar Uit 14,7000,-------,De Aar,Pixley ka Seme,Northern Cape,South Africa,-30.6242869,24.031164
De Aar Uit 18,7000,-------,De Aar,Pixley ka Seme,Northern Cape,South Africa,-30.6242869,24.031164
De Aar Uit 20,7000,-------,De Aar,Pixley ka Seme,Northern Cape,South Africa,-30.6242869,24.031164
De Aar Uit 21,7000,-------,De Aar,Pixley ka Seme,Northern Cape,South Africa,-30.6242869,24.031164
De Aar Uit 7,7000,-------,De Aar,Pixley ka Seme,Northern Cape,South Africa,-30.6766303,24.0131202
De Aar West,-------,7000,De Aar,Pixley ka Seme,Northern Cape,South Africa,-30.648130599999998,24.0010918
De Aar-Wes,-------,7000,De Aar,Pixley ka Seme,Northern Cape,South Africa,-30.6242869,24.031164
Happy Valley,7000,-------,De Aar,Pixley ka Seme,Northern Cape,South Africa,-30.6766303,24.0131202
Kareeville,7000,-------,De Aar,Pixley ka Seme,Northern Cape,South Africa,-30.6475,24.034
Montana,7000,-------,De Aar,Pixley ka Seme,Northern Cape,South Africa,-30.6766303,24.0131202
New Brighton,7000,-------,De Aar,Pixley ka Seme,Northern Cape,South Africa,-30.6766303,24.0131202
Nonzwakazi,7000,-------,De Aar,Pixley ka Seme,Northern Cape,South Africa,-30.6699568,24.0265007
Residensia,7000,-------,De Aar,Pixley ka Seme,Northern Cape,South Africa,-30.6766303,24.0131202
Solheim,7000,-------,De Aar,Pixley ka Seme,Northern Cape,South Africa,-26.1756025,28.1685856
Hanover,-------,7005,Hanover,Pixley ka Seme,Northern Cape,South Africa,-31.0450852,24.4410972
Kwezi,-------,7005,Hanover,Pixley ka Seme,Northern Cape,South Africa,-31.0450852,24.4410972
Tornadoville,-------,7005,Hanover,Pixley ka Seme,Northern Cape,South Africa,-31.0450852,24.4410972
Masinyasana,-------,7070,Victoria West,Pixley ka Seme,Northern Cape,South Africa,-31.4217669,23.1203315
New Bright,-------,7070,Victoria West,Pixley ka Seme,Northern Cape,South Africa,-31.4217669,23.1203315
New Brighton,-------,7070,Victoria West,Pixley ka Seme,Northern Cape,South Africa,-33.8994277,25.5725492
Victoria West,7070,7070,Victoria West,Pixley ka Seme,Northern Cape,South Africa,-31.4217669,23.1203315
Victoria-Wes,7070,7070,Victoria West,Pixley ka Seme,Northern Cape,South Africa,-31.4217669,23.1203315
Meltonwold,-------,7071,Victoria West,Pixley ka Seme,Northern Cape,South Africa,-31.4394973,22.7542136
Northern Cape,-------,7090,Richmond,Pixley ka Seme,Northern Cape,South Africa,-31.3644769,23.9179589
Sabelo,-------,7090,Richmond,Pixley ka Seme,Northern Cape,South Africa,-31.3644769,23.9179589
Nieuwoudtville,8180,8180,Nieuwoudtville,Namakwa,Northern Cape,South Africa,-31.3746092,19.1107114
Loeriesfontein,8185,8185,Loeriesfontein,Namakwa,Northern Cape,South Africa,-30.9199262,19.4497084
Skema,-------,8185,Loeriesfontein,Namakwa,Northern Cape,South Africa,-30.9199262,19.4497084
Calvinia,8190,8190,Calvinia,Namakwa,Northern Cape,South Africa,-31.4832188,19.7829791
Calvinia West,-------,8190,Calvinia,Namakwa,Northern Cape,South Africa,-31.4832188,19.7829791
Calvinia-wes,-------,8190,Calvinia,Namakwa,Northern Cape,South Africa,-31.4832188,19.7829791
Hantam,8190,8191,Calvinia,Namakwa,Northern Cape,South Africa,-31.4832188,19.7829791
Kewtown,8190,-------,Calvinia,Namakwa,Northern Cape,South Africa,-33.9526543,18.5136667
Newtown,8190,-------,Calvinia,Namakwa,Northern Cape,South Africa,-31.4618782,19.7621439
Hantam,8190,8191,Calvinia,Namakwa,Northern Cape,South Africa,-31.4832188,19.7829791
Middelpos,-------,8193,Calvinia,Namakwa,Northern Cape,South Africa,-31.90571,20.228479
Garies,8220,8220,Garies,Namakwa,Northern Cape,South Africa,-30.5724474,17.9887402
Paulshoek,-------,8221,Garies,Namakwa,Northern Cape,South Africa,-30.3671638,18.2544338
Hondeklip Bay,-------,8222,Hondeklip Bay,Namakwa,Northern Cape,South Africa,-30.328581,17.2961953
Hondeklipbaai,-------,8222,Hondeklip Bay,Namakwa,Northern Cape,South Africa,-30.328581,17.2961953
Garagams,-------,8223,Garies,Namakwa,Northern Cape,South Africa,-30.5724474,17.9887402
Bergsig,8240,8240,Springbok,Namakwa,Northern Cape,South Africa,-29.6511992,17.8760984
Matjieskloof,8240,8240,Springbok,Namakwa,Northern Cape,South Africa,-29.6709415,17.86669
Springbok,8240,8240,Springbok,Namakwa,Northern Cape,South Africa,-29.6654618,17.8880075
Vaalwater,-------,8240,Springbok,Namakwa,Northern Cape,South Africa,-29.800882,17.492145
Kamieskroon,-------,8241,Springbok,Namakwa,Northern Cape,South Africa,-30.2195486,17.9235563
Komaggas,-------,8242,Springbok,Namakwa,Northern Cape,South Africa,-29.7671705,17.4321959
Steinkopf,8244,8244,Steinkopf,Namakwa,Northern Cape,South Africa,-29.2602063,17.7340132
Kotzeshoop,-------,8246,Vioolsdrif,Namakwa,Northern Cape,South Africa,-28.695256,17.5865923
Vioolsdrif,-------,8246,Upington,Siyanda,Northern Cape,South Africa,-28.696807,17.497713
Carolusberg,-------,8247,Springbok,Namakwa,Northern Cape,South Africa,-29.6356001,17.9517021
Koingnaas,-------,8249,Kleinsee,Namakwa,Northern Cape,South Africa,-30.196209,17.2880671
Buffels River,-------,8251,Springbok,Namakwa,Northern Cape,South Africa,-29.4334216,22.5991865
Buffelsrivier,-------,8251,Springbok,Namakwa,Northern Cape,South Africa,-29.6983904,17.6030363
Nourivier,-------,8252,Kamieskroon,Namakwa,Northern Cape,South Africa,-30.2148185,18.139161
Rooifontein,-------,8253,Kamieskroon,Namakwa,Northern Cape,South Africa,-30.0650229,18.2607361
Soebatsfontein,-------,8257,Kamieskroon,Namakwa,Northern Cape,South Africa,-30.1190002,17.59009
Bulletrap,-------,8260,Bulletrap,Namakwa,Northern Cape,South Africa,-29.4641495,17.7673222
Kamiesberg,-------,8261,Kamieskroon,Namakwa,Northern Cape,South Africa,-30.2195486,17.9235563
Nababeep,8265,8265,Nababeep,Namakwa,Northern Cape,South Africa,-29.5929286,17.7843483
Okiep,-------,8270,Okiep,Namakwa,Northern Cape,South Africa,-29.58387209999999,17.8702347
Concordia,-------,8271,Okiep,Namakwa,Northern Cape,South Africa,-29.58387209999999,17.8702347
Nollothville,-------,8280,Port Nolloth,Namakwa,Northern Cape,South Africa,-29.2415382,16.9004472
Port Nolloth,8280,8280,Port Nolloth,Namakwa,Northern Cape,South Africa,-29.2415382,16.9004472
Sizamele,-------,8280,Port Nolloth,Namakwa,Northern Cape,South Africa,-29.2415382,16.9004472
Kleinsee,-------,8282,Springbok,Namakwa,Northern Cape,South Africa,-29.678251,17.0687079
Kleinzee,-------,8282,Springbok,Namakwa,Northern Cape,South Africa,-29.678251,17.0687079
Lekkersing,8283,8283,Port Nolloth,Namakwa,Northern Cape,South Africa,-29.0016933,17.0993472
Eksteenfontein,-------,8284,Port Nolloth,Namakwa,Northern Cape,South Africa,-28.8241753,17.256296
Sanddrift,-------,8289,Port Nolloth,Namakwa,Northern Cape,South Africa,-28.4100351,16.7758069
Alexander Bay,-------,8290,Alexander Bay,Namakwa,Northern Cape,South Africa,-28.6123013,16.4906526
Alexanderbaai,-------,8290,Alexander Bay,Namakwa,Northern Cape,South Africa,-28.6073653,16.4847619
Oranjesig,8290,-------,Alexander Bay,Namakwa,Northern Cape,South Africa,-29.1302139,26.2156955
Kuboes,-------,8292,Alexander Bay,Namakwa,Northern Cape,South Africa,-28.4490615,16.9926804
Dryfsand,-------,8294,Alexander Bay,Namakwa,Northern Cape,South Africa,-28.6073653,16.4847619
Kimberley,8301,8300,Kimberley,Frances Baard,Northern Cape,South Africa,-28.6974818,24.7677196
Riverton,8300,-------,Kimberley,Frances Baard,Northern Cape,South Africa,-28.7002657,24.7490226
Albertynshof,8301,-------,Kimberley,Frances Baard,Northern Cape,South Africa,-28.7445757,24.7536214
Ashburnham,8301,-------,Kimberley,Frances Baard,Northern Cape,South Africa,-28.7151851,24.7714296
Beaconsfield,8301,8315,Kimberley,Frances Baard,Northern Cape,South Africa,-28.7590183,24.7810753
Belgravia,8301,-------,Kimberley,Frances Baard,Northern Cape,South Africa,-28.7459528,24.7781074
Carters Glen,8301,-------,Kimberley,Frances Baard,Northern Cape,South Africa,-28.7481515,24.7246812
Cassandra,8301,-------,Kimberley,Frances Baard,Northern Cape,South Africa,-28.7441389,24.7944305
Colville,8301,-------,Kimberley,Frances Baard,Northern Cape,South Africa,-28.71831959999999,24.7588155
Colville Ext,8301,-------,Kimberley,Frances Baard,Northern Cape,South Africa,-28.71831959999999,24.7588155
Colville Ext 16,8301,-------,Kimberley,Frances Baard,Northern Cape,South Africa,-28.6947507,24.7333192
Colville Uit,8301,-------,Kimberley,Frances Baard,Northern Cape,South Africa,-28.71831959999999,24.7588155
Colville Uit 16,8301,-------,Kimberley,Frances Baard,Northern Cape,South Africa,-28.71831959999999,24.7588155
De Beers,8301,-------,Kimberley,Frances Baard,Northern Cape,South Africa,-28.73346309999999,24.7721716
Diamant Park,8301,8301,Kimberley,Frances Baard,Northern Cape,South Africa,-28.7392334,24.7424908
El Toro Park,8301,-------,Kimberley,Frances Baard,Northern Cape,South Africa,-28.7632195,24.745459
Electrapark,8301,-------,Kimberley,Frances Baard,Northern Cape,South Africa,-28.7391027,24.7585312
Eltoro Park,8301,-------,Kimberley,Frances Baard,Northern Cape,South Africa,-28.7632195,24.745459
Ernestville,8301,-------,Kimberley,Frances Baard,Northern Cape,South Africa,-28.7428952,24.7833012
Fabricia,8301,-------,Kimberley,Frances Baard,Northern Cape,South Africa,-28.7651336,24.7706876
Floors,8301,-------,Kimberley,Frances Baard,Northern Cape,South Africa,-28.74209,24.76089
Florianville,8301,8320,Kimberley,Frances Baard,Northern Cape,South Africa,-28.745455,24.773656
Gemdene,8301,-------,Kimberley,Frances Baard,Northern Cape,South Africa,-28.7265467,24.7551054
Greenpoint,8301,-------,Kimberley,Frances Baard,Northern Cape,South Africa,-28.7771229,24.7721716
Greenside,8301,-------,Kimberley,Frances Baard,Northern Cape,South Africa,-28.7600127,24.7899789
Hadison Park,8301,8306,Kimberley,Frances Baard,Northern Cape,South Africa,-28.7556092,24.7424908
Herlear,8301,-------,Kimberley,Frances Baard,Northern Cape,South Africa,-28.7502547,24.7840432
Heuwelsig,8301,-------,Kimberley,Frances Baard,Northern Cape,South Africa,-28.7543604,24.7313599
Hillcrest,8301,-------,Kimberley,Frances Baard,Northern Cape,South Africa,-28.7594921,24.7365544
Homelite,8301,-------,Kimberley,Frances Baard,Northern Cape,South Africa,-28.6950544,24.7281008
Homestead,8301,-------,Kimberley,Frances Baard,Northern Cape,South Africa,-28.7054002,24.7410067
Homevale,8301,-------,Kimberley,Frances Baard,Northern Cape,South Africa,-28.697285,24.7335861
Homevale Ext,8301,-------,Kimberley,Frances Baard,Northern Cape,South Africa,-28.697285,24.7335861
Homevale Uit,8301,-------,Kimberley,Frances Baard,Northern Cape,South Africa,-28.6965159,24.7332906
Karlienpark,8301,-------,Kimberley,Frances Baard,Northern Cape,South Africa,-28.7391027,24.7585312
Kenilworth,8301,-------,Kimberley,Frances Baard,Northern Cape,South Africa,-28.7087428,24.787011
Kestellhof,8301,-------,Kimberley,Frances Baard,Northern Cape,South Africa,-28.7501119,24.746201
Kimberley,8301,8300,Kimberley,Frances Baard,Northern Cape,South Africa,-28.6974818,24.7677196
Kimberley Ext 16,8301,-------,Kimberley,Siyanda,Northern Cape,South Africa,-28.7588422,24.7599358
Kimberley North,8301,-------,Kimberley,Frances Baard,Northern Cape,South Africa,-28.7324265,24.7669776
Kimberley Uit 16,8301,-------,Kimberley,Siyanda,Northern Cape,South Africa,-28.6974818,24.7677196
Kimberley-Noord,8301,-------,Kimberley,Frances Baard,Northern Cape,South Africa,-28.6974818,24.7677196
Kimdustria,8301,-------,Kimberley,Frances Baard,Northern Cape,South Africa,-28.7027855,24.7825593
Kirstenhof,8301,-------,Kimberley,Frances Baard,Northern Cape,South Africa,-28.7321979,24.7365544
Klisserhof,8301,-------,Kimberley,Frances Baard,Northern Cape,South Africa,-28.7391027,24.7585312
Klisserville,8301,-------,Kimberley,Frances Baard,Northern Cape,South Africa,-28.75844,24.77307
Kutlwanong,8345,8301,Kimberley,Frances Baard,Northern Cape,South Africa,-28.7298198,24.7107573
Labram,8301,-------,Kimberley,Frances Baard,Northern Cape,South Africa,-28.7542981,24.7632676
Lindene,8301,-------,Kimberley,Frances Baard,Northern Cape,South Africa,-28.7499781,24.732844
Lyndhurst,8301,-------,Kimberley,Frances Baard,Northern Cape,South Africa,-28.746336,24.7697219
Mampe,-------,8301,Kimberley,Frances Baard,Northern Cape,South Africa,-28.719325,24.7462239
Mampe 1,-------,8301,Kimberley,Frances Baard,Northern Cape,South Africa,-28.719325,24.7462239
Mampe 2,-------,8301,Kimberley,Frances Baard,Northern Cape,South Africa,-28.718907,24.737789
Market Square,8301,-------,Kimberley,Frances Baard,Northern Cape,South Africa,-28.73818,24.762994
Markplein,8301,-------,Kimberley,Frances Baard,Northern Cape,South Africa,-28.7282384,24.7499112
Midlands,8301,8301,Kimberley,Siyanda,Northern Cape,South Africa,-28.6691228,24.7306055
Minerva Gardens,8301,-------,Mankurwane,Frances Baard,Northern Cape,South Africa,-28.722932,24.746819
Minerva Tuine,8301,-------,Mankurwane,Frances Baard,Northern Cape,South Africa,-28.722932,24.746819
Mint Village,8301,-------,Kimberley,Frances Baard,Northern Cape,South Africa,-28.7282384,24.7499112
Moghul Park,8301,-------,Kimberley,Frances Baard,Northern Cape,South Africa,-28.7184133,24.7758815
Mogul Park,8301,-------,Kimberley,Frances Baard,Northern Cape,South Africa,-28.7184133,24.7758815
Monument Heights,8301,-------,Kimberley,Frances Baard,Northern Cape,South Africa,-28.7624846,24.7632676
Monumenthoogte,8301,-------,Kimberley,Frances Baard,Northern Cape,South Africa,-28.7459055,24.7739356
New Park,8301,-------,Kimberley,Frances Baard,Northern Cape,South Africa,-28.7522251,24.7528794
New Township,8301,8301,Kimberley,Frances Baard,Northern Cape,South Africa,-28.7282384,24.7499112
Newton,8301,-------,Kimberley,Siyanda,Northern Cape,South Africa,-28.760407,24.7864969
Northview,8301,-------,Kimberley,Frances Baard,Northern Cape,South Africa,-28.7061509,24.7476851
Nuwe Dorpsgebied,8301,8301,Kimberley,Frances Baard,Northern Cape,South Africa,-28.7282384,24.7499112
Nuwedorpsgebied,8301,-------,Kimberley,Frances Baard,Northern Cape,South Africa,-28.7282384,24.7499112
Rainbow Valley,8301,-------,Kimberley,Frances Baard,Northern Cape,South Africa,-28.7282384,24.7499112
Rhodesdene,8301,-------,Kimberley,Frances Baard,Northern Cape,South Africa,-28.7458455,24.7365544
Ritchie,8301,-------,Kimberley,Frances Baard,Northern Cape,South Africa,-29.0049315,24.5895968
Ritchie Ext 1,8301,-------,Kimberley,Frances Baard,Northern Cape,South Africa,-29.0049315,24.5895968
Ritchie Ext 2,8301,-------,Kimberley,Frances Baard,Northern Cape,South Africa,-29.0049315,24.5895968
Ritchie Ext 3,8301,-------,Kimberley,Frances Baard,Northern Cape,South Africa,-29.0049315,24.5895968
Ritchie Ext 4,8301,-------,Kimberley,Frances Baard,Northern Cape,South Africa,-29.0049315,24.5895968
Ritchie Ext 5,8301,-------,Kimberley,Frances Baard,Northern Cape,South Africa,-29.0049315,24.5895968
Ritchie Uit 1,8301,-------,Kimberley,Frances Baard,Northern Cape,South Africa,-29.0049315,24.5895968
Ritchie Uit 2,8301,-------,Kimberley,Frances Baard,Northern Cape,South Africa,-29.0049315,24.5895968
Ritchie Uit 3,8301,-------,Kimberley,Frances Baard,Northern Cape,South Africa,-29.0049315,24.5895968
Ritchie Uit 4,8301,-------,Kimberley,Frances Baard,Northern Cape,South Africa,-29.0049315,24.5895968
Ritchie Uit 5,8301,-------,Kimberley,Frances Baard,Northern Cape,South Africa,-29.0049315,24.5895968
Riviera,8301,-------,Kimberley,Frances Baard,Northern Cape,South Africa,-28.7393864,24.7276495
Robsonvale,8301,-------,Kimberley,Frances Baard,Northern Cape,South Africa,-28.7282384,24.7499112
Royalglen,8301,-------,Kimberley,Frances Baard,Northern Cape,South Africa,-28.725424,24.7410019
Royldene,8301,-------,Kimberley,Frances Baard,Northern Cape,South Africa,-28.7614879,24.7543634
South Ridge,8301,-------,Kimberley,Frances Baard,Northern Cape,South Africa,-28.77182579999999,24.7573315
Square Hill Park,8301,-------,Kimberley,Frances Baard,Northern Cape,South Africa,-28.7248548,24.7602996
Tlhageng,8301,-------,Kimberley,Frances Baard,Northern Cape,South Africa,-28.7282384,24.7499112
Tshwarangano,8301,-------,Kimberley,Frances Baard,Northern Cape,South Africa,-28.7113906,24.7154452
Utility,8301,-------,Kimberley,Frances Baard,Northern Cape,South Africa,-28.7409379,24.7614266
Verwoerdpark,8301,-------,Kimberley,Frances Baard,Northern Cape,South Africa,-28.7403866,24.7365544
Verwoerdpark Khw,8301,-------,Kimberley,Frances Baard,Northern Cape,South Africa,-28.7403866,24.7365544
Verwoerdpark Sihs,8301,-------,Kimberley,Frances Baard,Northern Cape,South Africa,-28.7403866,24.7365544
Weseinde,8301,-------,Kimberley,Frances Baard,Northern Cape,South Africa,-28.7391027,24.7585312
West End,8301,-------,Kimberley,Frances Baard,Northern Cape,South Africa,-28.7380798,24.7484272
Kimberley West,-------,8303,Kimberley,Frances Baard,Northern Cape,South Africa,-28.6974818,24.7677196
Kimberley-Wes,-------,8303,Kimberley,Frances Baard,Northern Cape,South Africa,-28.7402268,24.7554213
Diamond,-------,8305,Diamond,Frances Baard,Northern Cape,South Africa,-28.7657291,24.7653756
Campbell,8306,8306,Kimberley,Pixley ka Seme,Northern Cape,South Africa,-28.791037,23.727581700000002
Hadison Park,8301,8306,Kimberley,Frances Baard,Northern Cape,South Africa,-28.7556092,24.7424908
Pescodia,-------,8309,Pescodia,Frances Baard,Northern Cape,South Africa,-28.6543872,24.7083549
Roodepan,8309,-------,Pescodia,Frances Baard,Northern Cape,South Africa,-28.6543872,24.7083549
Beaconsfield,8301,8315,Kimberley,Frances Baard,Northern Cape,South Africa,-28.7590183,24.7810753
Naidoo Park,-------,8315,Beaconsfield,Frances Baard,Northern Cape,South Africa,-28.7590183,24.7810753
Florianville,8301,8320,Kimberley,Frances Baard,Northern Cape,South Africa,-28.745455,24.773656
Diskobolos,-------,8325,Kimberley,Frances Baard,Northern Cape,South Africa,-28.8014948,24.7665189
Galeshewe,8345,8330,Kimberley,Frances Baard,Northern Cape,South Africa,-28.7240845,24.7291337
Kimberley DGD,8330,-------,Galeshewe,Frances Baard,Northern Cape,South Africa,-28.7240845,24.7291337
Kimberley Location,8330,-------,Galeshewe,Frances Baard,Northern Cape,South Africa,-28.7240845,24.7291337
Kimberley Lokasie,8330,-------,Galeshewe,Frances Baard,Northern Cape,South Africa,-28.7240845,24.7291337
Kimberley TSP,8330,-------,Galeshewe,Frances Baard,Northern Cape,South Africa,-28.7240845,24.7291337
Perdeberg,-------,8335,Kimberley,Frances Baard,Northern Cape,South Africa,-28.7282384,24.7499112
Boshof,8340,8340,Boshof,Siyanda,Northern Cape,South Africa,-28.5393727,25.2126293
Kareehof,-------,8340,Boshof,Siyanda,Northern Cape,South Africa,-28.7872726,24.6205536
Sonderwater,8340,-------,Boshof,Siyanda,Northern Cape,South Africa,-28.5393727,25.2126293
Arena,8345,-------,Mankurwane,Frances Baard,Northern Cape,South Africa,-28.7181945,24.7401945
Bloemanda,8345,-------,Mankurwane,Frances Baard,Northern Cape,South Africa,-29.1991762,26.221602
Boikhutsong,8345,-------,Mankurwane,Frances Baard,Northern Cape,South Africa,-28.722932,24.746819
Club 2000,8345,-------,Mankurwane,Frances Baard,Northern Cape,South Africa,-28.74008,24.76601
Galeshewe,8345,8330,Kimberley,Frances Baard,Northern Cape,South Africa,-28.7240845,24.7291337
Galeshewe Village,8345,-------,Mankurwane,Frances Baard,Northern Cape,South Africa,-28.722932,24.746819
Homevalley,8345,-------,Mankurwane,Frances Baard,Northern Cape,South Africa,-28.722932,24.746819
Ikageleng,8345,-------,Mankurwane,Frances Baard,Northern Cape,South Africa,-25.5616748,26.1019667
Ipeleng,8345,-------,Mankurwane,Frances Baard,Northern Cape,South Africa,-28.710372,24.7124399
Ipopeng,8345,-------,Mankurwane,Frances Baard,Northern Cape,South Africa,-28.722932,24.746819
John Daka,8345,-------,Mankurwane,Frances Baard,Northern Cape,South Africa,-28.722932,24.746819
Kutlwanong,8345,8301,Kimberley,Frances Baard,Northern Cape,South Africa,-28.7298198,24.7107573
Kwanobantu,8345,-------,Mankurwane,Frances Baard,Northern Cape,South Africa,-28.722932,24.746819
Mankurwane,8345,8345,Kimberley,Frances Baard,Northern Cape,South Africa,-28.722932,24.746819
Mankurwane Fase 1,8345,-------,Mankurwane,Frances Baard,Northern Cape,South Africa,-28.722932,24.746819
Mankurwane Phase 1,8345,-------,Mankurwane,Frances Baard,Northern Cape,South Africa,-28.722932,24.746819
Minerwa Gardens,8345,-------,Mankurwane,Frances Baard,Northern Cape,South Africa,-28.722932,24.746819
Phomolong,8345,8345,Mankurwane,Frances Baard,Northern Cape,South Africa,-26.9909685,23.254333
Phuthanang,8345,8345,Mankurwane,Frances Baard,Northern Cape,South Africa,-28.722932,24.746819
Redirile,8345,-------,Mankurwane,Frances Baard,Northern Cape,South Africa,-28.722932,24.746819
Retswelele,8345,-------,Mankurwane,Frances Baard,Northern Cape,South Africa,-28.722932,24.746819
Vergenoeg,8345,-------,Mankurwane,Frances Baard,Northern Cape,South Africa,-28.722932,24.746819
Vergenoeg Ext 8,8345,-------,Mankurwane,Frances Baard,Northern Cape,South Africa,-28.722932,24.746819
Vergenoeg Uit 8,8345,-------,Mankurwane,Frances Baard,Northern Cape,South Africa,-28.722932,24.746819
White City,8345,-------,Mankurwane,Frances Baard,Northern Cape,South Africa,-28.722932,24.746819
Platfontein,-------,8346,Platfontein,Frances Baard,Northern Cape,South Africa,-28.7,24.5666667
Plooysburg,-------,8350,Kimberley,Pixley ka Seme,Northern Cape,South Africa,-28.7282384,24.7499112
Griekwastad,-------,8365,Griekwastad,Pixley ka Seme,Northern Cape,South Africa,-28.8564868,23.2513554
Griquatown,-------,8365,Griekwastad,Pixley ka Seme,Northern Cape,South Africa,-28.8564868,23.2513554
Philipsville,-------,8365,Griekwastad,Pixley ka Seme,Northern Cape,South Africa,-28.8564868,23.2513554
Barkly West,8375,8375,Barkly West,Frances Baard,Northern Cape,South Africa,-28.5367371,24.5197643
Barkly-Wes,8375,8375,Barkly West,Frances Baard,Northern Cape,South Africa,-28.5367371,24.5197643
De Beershoogte,-------,8375,Barkly West,Frances Baard,Northern Cape,South Africa,-28.5330822,24.5144429
Mataleng,8375,8375,Barkly West,Frances Baard,Northern Cape,South Africa,-28.531792,24.500923
Longlands,-------,8376,Barkly West,Frances Baard,Northern Cape,South Africa,-28.4611255,24.3608843
Delportshoop,8377,8377,Barkly West,Frances Baard,Northern Cape,South Africa,-28.5367371,24.5197643
Proteahof,-------,8377,Delportshoop,Frances Baard,Northern Cape,South Africa,-28.4159557,24.3207165
Tidimalo,-------,8377,Delportshoop,Frances Baard,Northern Cape,South Africa,-28.4246391,24.3148291
Ulco,8390,8390,Ulco,Frances Baard,Northern Cape,South Africa,-28.33139,24.206221
Koopmansfontein,-------,8391,Kimberley,Frances Baard,Northern Cape,South Africa,-28.7282384,24.7499112
Daniëlskuil,-------,8405,Daniëlskuil,Siyanda,Northern Cape,South Africa,-28.183771,23.5609459
Industrial Area,-------,8405,Daniëlskuil,Siyanda,Northern Cape,South Africa,-28.1820582,23.546393
Jenn Haven,-------,8405,Daniëlskuil,Siyanda,Northern Cape,South Africa,-28.2249794,23.2520998
Tlhakalatlou,-------,8405,Daniëlskuil,Siyanda,Northern Cape,South Africa,-28.183771,23.5609459
Lime Acres,8410,8410,Lime Acres,Siyanda,Northern Cape,South Africa,-28.3555106,23.5252319
Boichoko,8420,-------,Postmasburg,Siyanda,Northern Cape,South Africa,-28.3187015,23.039919
Glossom,8420,-------,Postmasburg,Siyanda,Northern Cape,South Africa,-28.3092768,23.1084191
Lohatla,8420,-------,Postmasburg,Siyanda,Northern Cape,South Africa,-28.3092768,23.1084191
Newton,8420,8420,Postmasburg,Siyanda,Northern Cape,South Africa,-28.3092768,23.1084191
Newtown,8420,8420,Postmasburg,Namakwa,Northern Cape,South Africa,-31.4618782,19.7621439
Postdene,8420,8426,Postmasburg,Siyanda,Northern Cape,South Africa,-28.3037669,23.078948
Postmasburg,8420,8420,Postmasburg,Siyanda,Northern Cape,South Africa,-28.3092768,23.1084191
Weseinde,8420,-------,Postmasburg,Siyanda,Northern Cape,South Africa,-28.3092768,23.1084191
West End,8420,-------,Postmasburg,Frances Baard,Northern Cape,South Africa,-28.321747,23.0719189
Beeshoek,8423,-------,Mancorp Mine,Siyanda,Northern Cape,South Africa,-28.3279,23.0706
Mancorp Mine,8423,8423,Postmasburg,Siyanda,Northern Cape,South Africa,-28.3279,23.0706
Uitsig,8423,-------,Mancorp Mine,Pixley ka Seme,Northern Cape,South Africa,-29.266667,20.766667
Postdene,8420,8426,Postmasburg,Siyanda,Northern Cape,South Africa,-28.3037669,23.078948
Dingleton,8445,8445,Postmasburg,Siyanda,Northern Cape,South Africa,-27.78179,22.9849089
Kathu,8446,8446,Kathu,Kgalagadi,Northern Cape,South Africa,-27.7600892,23.0250269
Seseng,8447,8447,Seseng,Kgalagadi,Northern Cape,South Africa,-29.0466808,21.8568586
Ditlong,-------,8450,Olifantshoek,Kgalagadi,Northern Cape,South Africa,-27.9601626,22.7032945
Olifantshoek,8450,8450,Olifantshoek,Kgalagadi,Northern Cape,South Africa,-27.9601626,22.7032945
Plakkerskamp,8450,-------,Olifantshoek,Kgalagadi,Northern Cape,South Africa,-27.9601626,22.7032945
Welgelee,8450,-------,Olifantshoek,Kgalagadi,Northern Cape,South Africa,-33.86029870000001,18.68641
Kuruman,8460,8460,Kuruman,Kgalagadi,Northern Cape,South Africa,-27.4633739,23.4339947
Wrenchville,8460,8468,Kuruman,Kgalagadi,Northern Cape,South Africa,-27.458881,23.4328066
Ga Tlhose,-------,8461,Kuruman,Kgalagadi,Northern Cape,South Africa,-27.8441667,23.2891667
Kuruman Central,-------,8462,Kuruman,Kgalagadi,Northern Cape,South Africa,-27.4633739,23.4339947
Dibeng,8463,8463,Dibeng,Kgalagadi,Northern Cape,South Africa,-27.59198,22.879431
Seoding,-------,8465,Seoding,Kgalagadi,Northern Cape,South Africa,-27.39043,23.42721
Frylinckspan,-------,8466,Kuruman,Kgalagadi,Northern Cape,South Africa,-27.4633739,23.4339947
Van Zylsrus,-------,8467,Hotazel,Kgalagadi,Northern Cape,South Africa,-26.8775558,22.0521082
Wrenchville,8460,8468,Kuruman,Kgalagadi,Northern Cape,South Africa,-27.458881,23.4328066
Blikfontein,-------,8470,Kuruman,Kgalagadi,Northern Cape,South Africa,-27.7833333,23.9333333
Kamden,-------,8481,Mothibistat,Kgalagadi,Northern Cape,South Africa,-27.364252,23.8971399
Manyeding,-------,8482,Mothibistat,Kgalagadi,Northern Cape,South Africa,-27.4912513,23.6829521
Summerfield,-------,8483,Summerfield,Kgalagadi,Northern Cape,South Africa,-29.0466808,21.8568586
Kagung,-------,8485,Kagung,Kgalagadi,Northern Cape,South Africa,-27.4246798,23.568386
Hotazel,8490,8490,Hotazel,Kgalagadi,Northern Cape,South Africa,-27.2030042,22.8463007
Santoy,-------,8491,Santoy,Kgalagadi,Northern Cape,South Africa,-27.1544609,22.870133
Holpan,-------,8505,Kimberley,Frances Baard,Northern Cape,South Africa,-28.7282384,24.7499112
Hebron Park,-------,8510,Windsorton,Frances Baard,Northern Cape,South Africa,-28.3046642,24.678669
Kutlwano,-------,8510,Windsorton,Frances Baard,Northern Cape,South Africa,-28.3046642,24.678669
Windsorton,8510,8510,Windsorton,Frances Baard,Northern Cape,South Africa,-28.3046642,24.678669
Ikhutseng,8530,8532,Warrenton,Frances Baard,Northern Cape,South Africa,-28.1314176,24.8537809
Warrenton,-------,8530,Warrenton,Frances Baard,Northern Cape,South Africa,-28.1301523,24.8745512
Warrenvale,-------,8530,Warrenton,Frances Baard,Northern Cape,South Africa,-28.1028628,24.8720196
Ikhutseng,8530,8532,Warrenton,Frances Baard,Northern Cape,South Africa,-28.1314176,24.8537809
Hartsvallei,-------,8534,Jan Kempdorp,Frances Baard,Northern Cape,South Africa,-27.91873,24.81765
Bull Hill,-------,8535,Jan Kempdorp,Frances Baard,Northern Cape,South Africa,-27.9179187,24.8389443
Andalusia Park,8550,8550,Jan Kempdorp,Frances Baard,Northern Cape,South Africa,-27.9216508,24.8345992
Andalusiapark,8550,8550,Jan Kempdorp,Frances Baard,Northern Cape,South Africa,-27.9216508,24.8345992
Jan Kempdorp,-------,8550,Jan Kempdorp,Frances Baard,Northern Cape,South Africa,-27.9179187,24.8389443
Ganspan,-------,8552,Ganspan,Frances Baard,Northern Cape,South Africa,-27.969959,24.76622
Valspan,-------,8553,Jan Kempdorp,Frances Baard,Northern Cape,South Africa,-27.9158952,24.8137205
Tadcaster,-------,8560,Jan Kempdorp,Frances Baard,Northern Cape,South Africa,-27.8506168,24.8404811
Pampierstad,8566,8566,Pampierstad,Frances Baard,Northern Cape,South Africa,-27.7805348,24.6964808
Green Grass,-------,8568,Green Grass,Frances Baard,Northern Cape,South Africa,-29.0466808,21.8568586
Bonitapark,8570,-------,Hartswater,Frances Baard,Northern Cape,South Africa,-27.738983,24.807941
Hartswater,8570,8570,Hartswater,Frances Baard,Northern Cape,South Africa,-27.7557025,24.8270745
Loopeng,-------,8630,Loopeng,Kgalagadi,Northern Cape,South Africa,-26.8086014,23.4091465
Choseng,-------,8631,Choseng,Kgalagadi,Northern Cape,South Africa,-29.0466808,21.8568586
Akasia Park,8660,-------,Keimoes,Siyanda,Northern Cape,South Africa,-25.655544,28.1005632
Akasiapark,8660,-------,Keimoes,Siyanda,Northern Cape,South Africa,-28.5513172,20.8910556
Modder River,-------,8700,Kimberley,Frances Baard,Northern Cape,South Africa,-29.026119,24.6360889
Modderrivier,-------,8700,Kimberley,Frances Baard,Northern Cape,South Africa,-29.026119,24.6360889
Motswedimosa,-------,8701,Ritchie,Frances Baard,Northern Cape,South Africa,-29.0245987,24.5866274
Rietvale,8701,8701,Ritchie,Frances Baard,Northern Cape,South Africa,-29.0354613,24.5860938
Ritchie,8701,8701,Ritchie,Frances Baard,Northern Cape,South Africa,-29.026972,24.587004
Bongani,8730,8735,Douglas,Pixley ka Seme,Northern Cape,South Africa,-29.0710413,23.7766701
Breipaal,8730,8730,Douglas,Pixley ka Seme,Northern Cape,South Africa,-29.045465,23.7652842
Douglas,8730,8730,Douglas,Pixley ka Seme,Northern Cape,South Africa,-29.1154714,23.7513827
Salt Lake,-------,8731,Kimberley,Pixley ka Seme,Northern Cape,South Africa,-29.27998,24.003651
Saltlake,-------,8731,Kimberley,Frances Baard,Northern Cape,South Africa,-28.743269,24.769749
Bongani,8730,8735,Douglas,Pixley ka Seme,Northern Cape,South Africa,-29.0710413,23.7766701
Rooipanville,-------,8745,Kimberley,Frances Baard,Northern Cape,South Africa,-28.7282384,24.7499112
Hopetown,8750,8750,Hopetown,Pixley ka Seme,Northern Cape,South Africa,-29.6421605,24.0844785
Steynville,8750,-------,Hopetown,Pixley ka Seme,Northern Cape,South Africa,-29.6156936,24.1042419
Grootwater,-------,8751,Hopetown,Pixley ka Seme,Northern Cape,South Africa,-29.6421605,24.0844785
Orange River,-------,8751,Hopetown,Pixley ka Seme,Northern Cape,South Africa,-29.6130181,24.2426768
Oranjerivier,-------,8751,Hopetown,Pixley ka Seme,Northern Cape,South Africa,-29.672171,24.2040599
Orania,-------,8752,Orania,Pixley ka Seme,Northern Cape,South Africa,-29.8149831,24.3995073
Kraankuil,-------,8760,Hopetown,Pixley ka Seme,Northern Cape,South Africa,-29.883579,24.16988
Kraankuilstasie,-------,8760,Hopetown,Pixley ka Seme,Northern Cape,South Africa,-29.6421605,24.0844785
Deetlefsville,-------,8765,Strydenburg,Pixley ka Seme,Northern Cape,South Africa,-29.9590844,23.6799766
Strydenburg,8765,8765,Strydenburg,Pixley ka Seme,Northern Cape,South Africa,-29.9590844,23.6799766
Greenpoint,8770,-------,Petrusville,Frances Baard,Northern Cape,South Africa,-28.7771229,24.7721716
Petrusville,8770,8770,Petrusville,Pixley ka Seme,Northern Cape,South Africa,-30.11229639999999,24.678669
Thembinkosi,-------,8770,Petrusville,Pixley ka Seme,Northern Cape,South Africa,-30.11229639999999,24.678669
Uitsig,8770,-------,Petrusville,Pixley ka Seme,Northern Cape,South Africa,-29.266667,20.766667
Keurtjieskloof,-------,8771,Vanderkloof,Pixley ka Seme,Northern Cape,South Africa,-30.0051165,24.7410067
Vanderkloof,8771,8771,Vanderkloof,Pixley ka Seme,Northern Cape,South Africa,-30.0051165,24.7410067
Vanderkloofdam,8771,8771,Vanderkloof,Pixley ka Seme,Northern Cape,South Africa,-29.99222,24.73167
Vosburg,8780,8780,De Aar,Pixley ka Seme,Northern Cape,South Africa,-30.59441199999999,22.8463007
Britstown,8782,8782,Britstown,Pixley ka Seme,Northern Cape,South Africa,-30.59973759999999,23.5133267
Mziwabantu,-------,8782,Britstown,Pixley ka Seme,Northern Cape,South Africa,-30.59973759999999,23.5133267
Proteaville,8782,-------,Britstown,Pixley ka Seme,Northern Cape,South Africa,-33.8195334,18.6554178
Lukhanyisweni,-------,8795,Philipstown,Pixley ka Seme,Northern Cape,South Africa,-30.7692461,29.5586174
Philipstown,8795,8795,Philipstown,Pixley ka Seme,Northern Cape,South Africa,-30.4367671,24.4724343
Blydeville,8801,8800,Upington,Siyanda,Northern Cape,South Africa,-28.4357614,21.2658719
Die Rand Ext 15,8800,8800,Upington,Siyanda,Northern Cape,South Africa,-28.4473543,21.2502223
Die Rand Uit 15,8800,8800,Upington,Siyanda,Northern Cape,South Africa,-28.4473543,21.2502223
Keide Bees,8801,8800,Upington,Siyanda,Northern Cape,South Africa,-28.437768,21.2919548
Riverside Ext 12,8801,8800,Upington,Siyanda,Northern Cape,South Africa,-28.4594,21.23851
Riverside Uit 12,8801,8800,Upington,Siyanda,Northern Cape,South Africa,33.9806005,-117.3754942
Upington,8801,8800,Upington,Siyanda,Northern Cape,South Africa,-28.3952677,21.2368084
Bellevue,8801,-------,Upington,Siyanda,Northern Cape,South Africa,-28.468059,21.2084904
Blikkies,8801,-------,Upington,Siyanda,Northern Cape,South Africa,-28.3952677,21.2368084
Blydeville,8801,8800,Upington,Siyanda,Northern Cape,South Africa,-28.4357614,21.2658719
Flora Park,8801,-------,Upington,Siyanda,Northern Cape,South Africa,-28.4390064,21.2502223
Flora Park Ext 36,8801,8801,Upington,Siyanda,Northern Cape,South Africa,-28.4390064,21.2502223
Florapark,8801,-------,Upington,Siyanda,Northern Cape,South Africa,-28.4390064,21.2502223
Florapark Uit 36,8801,8801,Upington,Siyanda,Northern Cape,South Africa,-28.4390064,21.2502223
Hillside,-------,8801,Upington,Siyanda,Northern Cape,South Africa,-28.4551136,21.2025287
Hillside Ext 41,8801,-------,Upington,Siyanda,Northern Cape,South Africa,-28.4551136,21.2025287
Hillside Ext 42,8801,-------,Upington,Siyanda,Northern Cape,South Africa,-28.4551136,21.2025287
Hillside Uit 41,8801,-------,Upington,Siyanda,Northern Cape,South Africa,-28.4551136,21.2025287
Hillside Uit 42,8801,-------,Upington,Siyanda,Northern Cape,South Africa,-28.4551136,21.2025287
Industrial Area,8801,-------,Upington,Siyanda,Northern Cape,South Africa,-28.44472,21.21583
Industriele Gebied,8801,-------,Upington,Siyanda,Northern Cape,South Africa,-28.3952677,21.2368084
Keide Bees,8801,8800,Upington,Siyanda,Northern Cape,South Africa,-28.437768,21.2919548
Lemoendraai,8801,-------,Upington,Siyanda,Northern Cape,South Africa,-28.47662,21.209881
Louisvale,8801,8809,Upington,Siyanda,Northern Cape,South Africa,-28.5701521,21.1965671
Louisvaleweg,8801,8815,Upington,Siyanda,Northern Cape,South Africa,-28.4824158,21.2740694
Middelpos,8801,-------,Upington,Siyanda,Northern Cape,South Africa,-28.444771,21.2703433
Morning Glory,8801,-------,Upington,Siyanda,Northern Cape,South Africa,-28.4624934,21.2084904
Oosterville,8801,-------,Upington,Siyanda,Northern Cape,South Africa,-28.4416575,21.2681076
Oosterville Ext 17,8801,-------,Upington,Siyanda,Northern Cape,South Africa,-28.4416575,21.2681076
Oosterville Uit 17,8801,-------,Upington,Siyanda,Northern Cape,South Africa,-28.4416575,21.2681076
Paballelo,8801,8801,Upington,Siyanda,Northern Cape,South Africa,-28.4392603,21.214452
Progress,8801,-------,Upington,Siyanda,Northern Cape,South Africa,-28.4605543,21.2204137
Rainbow,8801,-------,Upington,Siyanda,Northern Cape,South Africa,-28.3952677,21.2368084
Rand,8801,-------,Upington,Siyanda,Northern Cape,South Africa,-28.4473543,21.2502223
Riverside Ext 12,8801,8800,Upington,Siyanda,Northern Cape,South Africa,-28.4594,21.23851
Riverside Uit 12,8801,8800,Upington,Siyanda,Northern Cape,South Africa,33.9806005,-117.3754942
Rooiblok,8801,-------,Upington,Siyanda,Northern Cape,South Africa,-28.3952677,21.2368084
Rosedale,8801,-------,Upington,Siyanda,Northern Cape,South Africa,-28.4547193,21.2092356
Upington,8801,8800,Upington,Siyanda,Northern Cape,South Africa,-28.3952677,21.2368084
Upington Ext 12,8801,-------,Upington,Siyanda,Northern Cape,South Africa,-28.3952677,21.2368084
Upington Ext 19,8801,-------,Upington,Siyanda,Northern Cape,South Africa,-28.3952677,21.2368084
Upington Ext 40,8801,-------,Upington,Siyanda,Northern Cape,South Africa,-28.3952677,21.2368084
Upington Ext 41,8801,-------,Upington,Siyanda,Northern Cape,South Africa,-28.3952677,21.2368084
Upington Ext 42,8801,-------,Upington,Siyanda,Northern Cape,South Africa,-28.3952677,21.2368084
Upington Uit 12,8801,-------,Upington,Siyanda,Northern Cape,South Africa,-28.3952677,21.2368084
Upington Uit 19,8801,-------,Upington,Siyanda,Northern Cape,South Africa,-28.3952677,21.2368084
Upington Uit 40,8801,-------,Upington,Siyanda,Northern Cape,South Africa,-28.3952677,21.2368084
Upington Uit 41,8801,-------,Upington,Siyanda,Northern Cape,South Africa,-28.3952677,21.2368084
Upington Uit 42,8801,-------,Upington,Siyanda,Northern Cape,South Africa,-28.3952677,21.2368084
Dyasonsklip,-------,8805,Upington,Siyanda,Northern Cape,South Africa,-28.6025273,21.1086346
Kanoneiland,-------,8806,Upington,Siyanda,Northern Cape,South Africa,-28.3768707,21.2129616
Oranjekruin,-------,8807,Upington,Siyanda,Northern Cape,South Africa,-28.462781,21.2262357
Ses Brugge,-------,8808,Upington,Siyanda,Northern Cape,South Africa,-28.53888,21.16478
Louisvale,8801,8809,Upington,Siyanda,Northern Cape,South Africa,-28.5701521,21.1965671
Swartkop,8809,-------,Upington,Siyanda,Northern Cape,South Africa,-28.4641866,21.2308393
Bloemsmond,-------,8810,Upington,Siyanda,Northern Cape,South Africa,-28.6340305,21.0773374
Mier,8811,8811,Mier,Siyanda,Northern Cape,South Africa,-26.2993528,20.2832217
Rietfontein,8811,-------,Rietfontein,Siyanda,Northern Cape,South Africa,-26.7478047,20.0256113
Noenieput,-------,8813,Upington,Siyanda,Northern Cape,South Africa,-27.512659,20.1393999
Askham,-------,8814,Askham,Siyanda,Northern Cape,South Africa,-26.983333,20.783333
Gemsbokpark,-------,8815,Upington,Siyanda,Northern Cape,South Africa,-28.4428832,21.2719414
Louisvaleweg,8801,8815,Upington,Siyanda,Northern Cape,South Africa,-28.4824158,21.2740694
Straussburg,-------,8816,Upington,Siyanda,Northern Cape,South Africa,-28.433333,21.333333
Leerkrans,-------,8818,Upington,Siyanda,Northern Cape,South Africa,-28.4102381,21.5274533
Karos,-------,8819,Karos,Siyanda,Northern Cape,South Africa,-28.4242165,21.6109229
Lambrechtsdrif,-------,8820,Upington,Siyanda,Northern Cape,South Africa,-28.3952677,21.2368084
Gariepwater,-------,8822,Grootdrink,Siyanda,Northern Cape,South Africa,-28.5640189,21.7465609
Grootdrink,-------,8822,Grootdrink,Siyanda,Northern Cape,South Africa,-28.5640189,21.7465609
Vollgraaffsig,-------,8824,Upington,Siyanda,Northern Cape,South Africa,-28.4382207,21.2805202
Wegdraai,8826,8826,Groblershoop,Siyanda,Northern Cape,South Africa,-28.8393099,21.864311
Groblershoop,8850,8850,Groblershoop,Siyanda,Northern Cape,South Africa,-28.8796184,21.9284017
Opwag,-------,8851,Groblershoop,Siyanda,Northern Cape,South Africa,-28.56169,21.7470499
Currie Camp,-------,8860,Keimoes,Siyanda,Northern Cape,South Africa,-28.6736886,21.0385892
Gardenia,8860,-------,Keimoes,Siyanda,Northern Cape,South Africa,-28.5513172,20.8910556
Keimoes,8860,8860,Keimoes,Siyanda,Northern Cape,South Africa,-28.5513172,20.8910556
Keimoes Ext 6,8860,-------,Keimoes,Siyanda,Northern Cape,South Africa,-28.5513172,20.8910556
Keimoes Ext 7,8860,-------,Keimoes,Siyanda,Northern Cape,South Africa,-28.5513172,20.8910556
Keimoes Ext 8,8860,-------,Keimoes,Siyanda,Northern Cape,South Africa,-28.5513172,20.8910556
Keimoes Uit 6,8860,-------,Keimoes,Siyanda,Northern Cape,South Africa,-28.5513172,20.8910556
Keimoes Uit 7,8860,-------,Keimoes,Siyanda,Northern Cape,South Africa,-28.5513172,20.8910556
Keimoes Uit 8,8860,-------,Keimoes,Siyanda,Northern Cape,South Africa,-28.5513172,20.8910556
Rooisand,-------,8860,Keimoes,Siyanda,Northern Cape,South Africa,-27.6983796,23.0670566
Friersdale,-------,8861,Keimoes,Siyanda,Northern Cape,South Africa,-28.71335599999999,20.9322621
Neilersdrif,-------,8862,Neilersdrif,Siyanda,Northern Cape,South Africa,-28.7521815,20.9961161
Kakamas,8870,8870,Kakamas,Siyanda,Northern Cape,South Africa,-28.7577181,20.5394227
Langverwag,8870,8870,Kakamas,Siyanda,Northern Cape,South Africa,-28.7916588,20.6268653
Marchand,-------,8873,Kakamas,Siyanda,Northern Cape,South Africa,-28.7323601,20.501435
Augrabies,-------,8874,Kakamas,Siyanda,Northern Cape,South Africa,-28.672732,20.4284431
Blyvooruitsig,8890,-------,Pofadder,Namakwa,Northern Cape,South Africa,-27.9685787,24.8033337
Pofadder,8890,8890,Pofadder,Namakwa,Northern Cape,South Africa,-29.19510189999999,19.4021154
Pella,8891,8891,Pella,Namakwa,Northern Cape,South Africa,-29.0340696,19.1530176
Onseepkans,-------,8892,Pofadder,Namakwa,Northern Cape,South Africa,-28.7523,19.295048
Aggeneys,-------,8893,Springbok,Namakwa,Northern Cape,South Africa,-29.22079149999999,18.9264524
Kenhardt,8900,8900,Kenhardt,Siyanda,Northern Cape,South Africa,-29.3540635,21.2129616
Marydale,8910,8910,Marydale,Pixley ka Seme,Northern Cape,South Africa,-29.4120858,22.1072528
Brandvlei,-------,8915,Brandvlei,Namakwa,Northern Cape,South Africa,-30.5088364,20.4381254
Williston,8920,8920,Williston,Namakwa,Northern Cape,South Africa,-31.3293357,20.9148985
Vanwyksvlei,8922,8922,Carnarvon,Pixley ka Seme,Northern Cape,South Africa,-30.3325076,21.8091625
Bonteheuwel,-------,8925,Carnarvon,Pixley ka Seme,Northern Cape,South Africa,-33.9515821,18.5552215
Bontheuwel,-------,8925,Carnarvon,Pixley ka Seme,Northern Cape,South Africa,-33.9515821,18.5552215
Carnarvon,8925,8925,Carnarvon,Pixley ka Seme,Northern Cape,South Africa,-30.959965,22.1549442
Blinkpunt,-------,8930,Niekerkshoop,Pixley ka Seme,Northern Cape,South Africa,-29.3296965,22.8224678
Kleurlingwoonbuurt,-------,8930,Niekerkshoop,Pixley ka Seme,Northern Cape,South Africa,-29.3296965,22.8224678
Niekerkshoop,8930,8930,Prieska,Pixley ka Seme,Northern Cape,South Africa,-29.3296965,22.8224678
Ou Woonbuurt,-------,8930,Niekerkshoop,Pixley ka Seme,Northern Cape,South Africa,-29.3296965,22.8224678
Thabong,-------,8930,Niekerkshoop,Pixley ka Seme,Northern Cape,South Africa,-29.3296965,22.8224678
De Heuwel X15,-------,8940,Prieska,Pixley ka Seme,Northern Cape,South Africa,-29.7069446,22.739048
Ethembeni,8940,-------,Prieska,Pixley ka Seme,Northern Cape,South Africa,-29.7069446,22.739048
Prieska,8940,8940,Prieska,Pixley ka Seme,Northern Cape,South Africa,-29.7069446,22.739048
Prieska Ext 10,8940,-------,Prieska,Pixley ka Seme,Northern Cape,South Africa,-29.7069446,22.739048
Prieska Ext 15,8940,-------,Prieska,Pixley ka Seme,Northern Cape,South Africa,-29.7069446,22.739048
Prieska Uit 10,8940,-------,Prieska,Pixley ka Seme,Northern Cape,South Africa,-29.7069446,22.739048
Prieska Uit 15,8940,-------,Prieska,Pixley ka Seme,Northern Cape,South Africa,-29.7069446,22.739048
Boegoeberg,8943,8943,Groblershoop,Siyanda,Northern Cape,South Africa,-28.9107412,22.0004613
Codesa 1,9323,-------,Ga-Sehunelo,Kgalagadi,Northern Cape,South Africa,-27.047291,23.591299
Codesa 2,9323,-------,Ga-Sehunelo,Kgalagadi,Northern Cape,South Africa,-27.047291,23.591299
Isithalandue,9323,-------,Ga-Sehunelo,Kgalagadi,Northern Cape,South Africa,-27.047291,23.591299
Kathreda,9323,-------,Ga-Sehunelo,Kgalagadi,Northern Cape,South Africa,-27.047291,23.591299
Kgatelopele,9323,-------,Ga-Sehunelo,Kgalagadi,Northern Cape,South Africa,-28.2854106,23.6680747
Lusaka,9323,-------,Ga-Sehunelo,Kgalagadi,Northern Cape,South Africa,-15.3875259,28.3228165
Maphikela,9323,-------,Ga-Sehunelo,Kgalagadi,Northern Cape,South Africa,-27.047291,23.591299
Peter Mokaba,9323,-------,Ga-Sehunelo,Kgalagadi,Northern Cape,South Africa,-27.047291,23.591299
Phola Park,9323,-------,Ga-Sehunelo,Kgalagadi,Northern Cape,South Africa,-26.3627655,28.1217773
Shuping,9323,-------,Ga-Sehunelo,Kgalagadi,Northern Cape,South Africa,-27.047291,23.591299
Solomon Mahlangu,9323,-------,Ga-Sehunelo,Kgalagadi,Northern Cape,South Africa,-27.047291,23.591299
Tambo Square,9323,-------,Ga-Sehunelo,Kgalagadi,Northern Cape,South Africa,-27.047291,23.591299
Thabo Mbeki,9323,-------,Ga-Sehunelo,Kgalagadi,Northern Cape,South Africa,-27.047291,23.591299
Turflaagte Fase 1,9323,-------,Ga-Sehunelo,Kgalagadi,Northern Cape,South Africa,-29.1863403,26.2570385
Turflaagte Fase 2,9323,-------,Ga-Sehunelo,Kgalagadi,Northern Cape,South Africa,-29.1863403,26.2570385
Turflaagte Phase 1,9323,-------,Ga-Sehunelo,Kgalagadi,Northern Cape,South Africa,-29.1863403,26.2570385
Turflaagte Phase 2,9323,-------,Ga-Sehunelo,Kgalagadi,Northern Cape,South Africa,-29.1863403,26.2570385
Bongweni,9795,-------,Colesberg,Pixley ka Seme,Northern Cape,South Africa,-34.0165211,18.6346341
Colesberg,9795,9795,Colesberg,Pixley ka Seme,Northern Cape,South Africa,-30.6913265,25.0703229
Kuyasa,9795,9795,Colesberg,Pixley ka Seme,Northern Cape,South Africa,-30.7278879,25.1148004
Lowryville,9795,-------,Colesberg,Pixley ka Seme,Northern Cape,South Africa,-30.7080217,25.1023766
Norvalspont,9797,9797,Colesberg,Pixley ka Seme,Northern Cape,South Africa,-30.6287314,25.4570667
